<?xml version="1.0" encoding="UTF-8"?>
<TrainingCenterDatabase
  xsi:schemaLocation="http://www.garmin.com/xmlschemas/TrainingCenterDatabase/v2 http://www.garmin.com/xmlschemas/TrainingCenterDatabasev2.xsd"
  xmlns:ns5="http://www.garmin.com/xmlschemas/ActivityGoals/v1"
  xmlns:ns3="http://www.garmin.com/xmlschemas/ActivityExtension/v2"
  xmlns:ns2="http://www.garmin.com/xmlschemas/UserProfile/v2"
  xmlns="http://www.garmin.com/xmlschemas/TrainingCenterDatabase/v2"
  xmlns:xsi="http://www.w3.org/2001/XMLSchema-instance" xmlns:ns4="http://www.garmin.com/xmlschemas/ProfileExtension/v1">
  <Activities>
    <Activity Sport="Other">
      <Id>2026-07-29T14:59:09.000Z</Id>
      <Lap StartTime="2026-07-29T14:59:09.000Z">
        <TotalTimeSeconds>604.956</TotalTimeSeconds>
        <DistanceMeters>664.73</DistanceMeters>
        <MaximumSpeed>5.047999858856201</MaximumSpeed>
        <Calories>90</Calories>
        <AverageHeartRateBpm>
          <Value>110</Value>
        </AverageHeartRateBpm>
        <MaximumHeartRateBpm>
          <Value>123</Value>
        </MaximumHeartRateBpm>
        <Intensity>Active</Intensity>
        <TriggerMethod>Manual</TriggerMethod>
        <Track>
          <Trackpoint>
            <Time>2026-07-29T14:59:09.000Z</Time>
            <Position>
              <LatitudeDegrees>44.29147034883499</LatitudeDegrees>
              <LongitudeDegrees>-81.59671610221267</LongitudeDegrees>
            </Position>
            <AltitudeMeters>177.60000610351562</AltitudeMeters>
            <DistanceMeters>0.0</DistanceMeters>
            <HeartRateBpm>
              <Value>104</Value>
            </HeartRateBpm>
            <Extensions>
              <ns3:TPX>
                <ns3:Speed>5.047999858856201</ns3:Speed>
              </ns3:TPX>
            </Extensions>
          </Trackpoint>
          <Trackpoint>
            <Time>2026-07-29T14:59:11.000Z</Time>
            <AltitudeMeters>177.39999389648438</AltitudeMeters>
            <DistanceMeters>0.0</DistanceMeters>
            <HeartRateBpm>
              <Value>104</Value>
            </HeartRateBpm>
            <Extensions>
              <ns3:TPX>
                <ns3:Speed>5.047999858856201</ns3:Speed>
              </ns3:TPX>
            </Extensions>
          </Trackpoint>
          <Trackpoint>
            <Time>2026-07-29T14:59:12.000Z</Time>
            <Position>
              <LatitudeDegrees>44.291062066331506</LatitudeDegrees>
              <LongitudeDegrees>-81.59740869887173</LongitudeDegrees>
            </Position>
            <AltitudeMeters>177.39999389648438</AltitudeMeters>
            <DistanceMeters>0.0</DistanceMeters>
            <HeartRateBpm>
              <Value>107</Value>
            </HeartRateBpm>
            <Extensions>
              <ns3:TPX>
                <ns3:Speed>3.7139999866485596</ns3:Speed>
              </ns3:TPX>
            </Extensions>
          </Trackpoint>
          <Trackpoint>
            <Time>2026-07-29T14:59:14.000Z</Time>
            <Position>
              <LatitudeDegrees>44.29115418344736</LatitudeDegrees>
              <LongitudeDegrees>-81.59743342548609</LongitudeDegrees>
            </Position>
            <AltitudeMeters>177.39999389648438</AltitudeMeters>
            <DistanceMeters>0.0</DistanceMeters>
            <HeartRateBpm>
              <Value>106</Value>
            </HeartRateBpm>
            <Extensions>
              <ns3:TPX>
                <ns3:Speed>2.61299991607666</ns3:Speed>
              </ns3:TPX>
            </Extensions>
          </Trackpoint>
          <Trackpoint>
            <Time>2026-07-29T14:59:17.000Z</Time>
            <Position>
              <LatitudeDegrees>44.291164157912135</LatitudeDegrees>
              <LongitudeDegrees>-81.5973737463355</LongitudeDegrees>
            </Position>
            <AltitudeMeters>177.39999389648438</AltitudeMeters>
            <DistanceMeters>4.170000076293945</DistanceMeters>
            <HeartRateBpm>
              <Value>109</Value>
            </HeartRateBpm>
            <Extensions>
              <ns3:TPX>
                <ns3:Speed>2.565999984741211</ns3:Speed>
              </ns3:TPX>
            </Extensions>
          </Trackpoint>
          <Trackpoint>
            <Time>2026-07-29T14:59:25.000Z</Time>
            <Position>
              <LatitudeDegrees>44.29110271856189</LatitudeDegrees>
              <LongitudeDegrees>-81.59708918072283</LongitudeDegrees>
            </Position>
            <AltitudeMeters>177.39999389648438</AltitudeMeters>
            <DistanceMeters>27.729999542236328</DistanceMeters>
            <HeartRateBpm>
              <Value>110</Value>
            </HeartRateBpm>
            <Extensions>
              <ns3:TPX>
                <ns3:Speed>2.76200008392334</ns3:Speed>
              </ns3:TPX>
            </Extensions>
          </Trackpoint>
          <Trackpoint>
            <Time>2026-07-29T14:59:27.000Z</Time>
            <Position>
              <LatitudeDegrees>44.29107924923301</LatitudeDegrees>
              <LongitudeDegrees>-81.59703511744738</LongitudeDegrees>
            </Position>
            <AltitudeMeters>177.60000610351562</AltitudeMeters>
            <DistanceMeters>32.790000915527344</DistanceMeters>
            <HeartRateBpm>
              <Value>111</Value>
            </HeartRateBpm>
            <Extensions>
              <ns3:TPX>
                <ns3:Speed>2.7990000247955322</ns3:Speed>
              </ns3:TPX>
            </Extensions>
          </Trackpoint>
          <Trackpoint>
            <Time>2026-07-29T14:59:34.000Z</Time>
            <Position>
              <LatitudeDegrees>44.291014624759555</LatitudeDegrees>
              <LongitudeDegrees>-81.59684392623603</LongitudeDegrees>
            </Position>
            <AltitudeMeters>177.1999969482422</AltitudeMeters>
            <DistanceMeters>49.650001525878906</DistanceMeters>
            <HeartRateBpm>
              <Value>111</Value>
            </HeartRateBpm>
            <Extensions>
              <ns3:TPX>
                <ns3:Speed>2.6500000953674316</ns3:Speed>
              </ns3:TPX>
            </Extensions>
          </Trackpoint>
          <Trackpoint>
            <Time>2026-07-29T14:59:42.000Z</Time>
            <Position>
              <LatitudeDegrees>44.29092351347208</LatitudeDegrees>
              <LongitudeDegrees>-81.59661300480366</LongitudeDegrees>
            </Position>
            <AltitudeMeters>177.39999389648438</AltitudeMeters>
            <DistanceMeters>70.73999786376953</DistanceMeters>
            <HeartRateBpm>
              <Value>108</Value>
            </HeartRateBpm>
            <Extensions>
              <ns3:TPX>
                <ns3:Speed>2.6689999103546143</ns3:Speed>
              </ns3:TPX>
            </Extensions>
          </Trackpoint>
          <Trackpoint>
            <Time>2026-07-29T14:59:46.000Z</Time>
            <Position>
              <LatitudeDegrees>44.29088571108878</LatitudeDegrees>
              <LongitudeDegrees>-81.59650135785341</LongitudeDegrees>
            </Position>
            <AltitudeMeters>177.60000610351562</AltitudeMeters>
            <DistanceMeters>80.58999633789062</DistanceMeters>
            <HeartRateBpm>
              <Value>108</Value>
            </HeartRateBpm>
            <Extensions>
              <ns3:TPX>
                <ns3:Speed>2.6029999256134033</ns3:Speed>
              </ns3:TPX>
            </Extensions>
          </Trackpoint>
          <Trackpoint>
            <Time>2026-07-29T14:59:56.000Z</Time>
            <Position>
              <LatitudeDegrees>44.29077498614788</LatitudeDegrees>
              <LongitudeDegrees>-81.59625308588147</LongitudeDegrees>
            </Position>
            <AltitudeMeters>177.60000610351562</AltitudeMeters>
            <DistanceMeters>103.94000244140625</DistanceMeters>
            <HeartRateBpm>
              <Value>108</Value>
            </HeartRateBpm>
            <Extensions>
              <ns3:TPX>
                <ns3:Speed>2.3980000019073486</ns3:Speed>
              </ns3:TPX>
            </Extensions>
          </Trackpoint>
          <Trackpoint>
            <Time>2026-07-29T15:00:07.000Z</Time>
            <Position>
              <LatitudeDegrees>44.29064204916358</LatitudeDegrees>
              <LongitudeDegrees>-81.59595753997564</LongitudeDegrees>
            </Position>
            <AltitudeMeters>178.39999389648438</AltitudeMeters>
            <DistanceMeters>131.8300018310547</DistanceMeters>
            <HeartRateBpm>
              <Value>106</Value>
            </HeartRateBpm>
            <Extensions>
              <ns3:TPX>
                <ns3:Speed>2.865000009536743</ns3:Speed>
              </ns3:TPX>
            </Extensions>
          </Trackpoint>
          <Trackpoint>
            <Time>2026-07-29T15:00:09.000Z</Time>
            <Position>
              <LatitudeDegrees>44.2906185798347</LatitudeDegrees>
              <LongitudeDegrees>-81.59587196074426</LongitudeDegrees>
            </Position>
            <AltitudeMeters>178.60000610351562</AltitudeMeters>
            <DistanceMeters>139.13999938964844</DistanceMeters>
            <HeartRateBpm>
              <Value>105</Value>
            </HeartRateBpm>
            <Extensions>
              <ns3:TPX>
                <ns3:Speed>3.806999921798706</ns3:Speed>
              </ns3:TPX>
            </Extensions>
          </Trackpoint>
          <Trackpoint>
            <Time>2026-07-29T15:00:13.000Z</Time>
            <Position>
              <LatitudeDegrees>44.29057591594756</LatitudeDegrees>
              <LongitudeDegrees>-81.59571521915495</LongitudeDegrees>
            </Position>
            <AltitudeMeters>178.39999389648438</AltitudeMeters>
            <DistanceMeters>152.52000427246094</DistanceMeters>
            <HeartRateBpm>
              <Value>105</Value>
            </HeartRateBpm>
            <Extensions>
              <ns3:TPX>
                <ns3:Speed>3.2939999103546143</ns3:Speed>
              </ns3:TPX>
            </Extensions>
          </Trackpoint>
          <Trackpoint>
            <Time>2026-07-29T15:00:18.000Z</Time>
            <Position>
              <LatitudeDegrees>44.29051363840699</LatitudeDegrees>
              <LongitudeDegrees>-81.59555805847049</LongitudeDegrees>
            </Position>
            <AltitudeMeters>177.39999389648438</AltitudeMeters>
            <DistanceMeters>166.97000122070312</DistanceMeters>
            <HeartRateBpm>
              <Value>105</Value>
            </HeartRateBpm>
            <Extensions>
              <ns3:TPX>
                <ns3:Speed>3.1540000438690186</ns3:Speed>
              </ns3:TPX>
            </Extensions>
          </Trackpoint>
          <Trackpoint>
            <Time>2026-07-29T15:00:19.000Z</Time>
            <Position>
              <LatitudeDegrees>44.29050031118095</LatitudeDegrees>
              <LongitudeDegrees>-81.59553190693259</LongitudeDegrees>
            </Position>
            <AltitudeMeters>177.39999389648438</AltitudeMeters>
            <DistanceMeters>169.52999877929688</DistanceMeters>
            <HeartRateBpm>
              <Value>105</Value>
            </HeartRateBpm>
            <Extensions>
              <ns3:TPX>
                <ns3:Speed>3.1440000534057617</ns3:Speed>
              </ns3:TPX>
            </Extensions>
          </Trackpoint>
          <Trackpoint>
            <Time>2026-07-29T15:00:27.000Z</Time>
            <Position>
              <LatitudeDegrees>44.29041037335992</LatitudeDegrees>
              <LongitudeDegrees>-81.59534473903477</LongitudeDegrees>
            </Position>
            <AltitudeMeters>177.39999389648438</AltitudeMeters>
            <DistanceMeters>187.5399932861328</DistanceMeters>
            <HeartRateBpm>
              <Value>105</Value>
            </HeartRateBpm>
            <Extensions>
              <ns3:TPX>
                <ns3:Speed>2.2669999599456787</ns3:Speed>
              </ns3:TPX>
            </Extensions>
          </Trackpoint>
          <Trackpoint>
            <Time>2026-07-29T15:00:39.000Z</Time>
            <Position>
              <LatitudeDegrees>44.29028447717428</LatitudeDegrees>
              <LongitudeDegrees>-81.59506813623011</LongitudeDegrees>
            </Position>
            <AltitudeMeters>178.0</AltitudeMeters>
            <DistanceMeters>213.75</DistanceMeters>
            <HeartRateBpm>
              <Value>105</Value>
            </HeartRateBpm>
            <Extensions>
              <ns3:TPX>
                <ns3:Speed>2.1459999084472656</ns3:Speed>
              </ns3:TPX>
            </Extensions>
          </Trackpoint>
          <Trackpoint>
            <Time>2026-07-29T15:00:49.000Z</Time>
            <Position>
              <LatitudeDegrees>44.29016327485442</LatitudeDegrees>
              <LongitudeDegrees>-81.59477862529457</LongitudeDegrees>
            </Position>
            <AltitudeMeters>178.0</AltitudeMeters>
            <DistanceMeters>240.47999572753906</DistanceMeters>
            <HeartRateBpm>
              <Value>102</Value>
            </HeartRateBpm>
            <Extensions>
              <ns3:TPX>
                <ns3:Speed>2.621999979019165</ns3:Speed>
              </ns3:TPX>
            </Extensions>
          </Trackpoint>
          <Trackpoint>
            <Time>2026-07-29T15:00:51.000Z</Time>
            <Position>
              <LatitudeDegrees>44.29013779386878</LatitudeDegrees>
              <LongitudeDegrees>-81.59471643157303</LongitudeDegrees>
            </Position>
            <AltitudeMeters>178.1999969482422</AltitudeMeters>
            <DistanceMeters>246.1999969482422</DistanceMeters>
            <HeartRateBpm>
              <Value>98</Value>
            </HeartRateBpm>
            <Extensions>
              <ns3:TPX>
                <ns3:Speed>2.697000026702881</ns3:Speed>
              </ns3:TPX>
            </Extensions>
          </Trackpoint>
          <Trackpoint>
            <Time>2026-07-29T15:00:53.000Z</Time>
            <Position>
              <LatitudeDegrees>44.29010393097997</LatitudeDegrees>
              <LongitudeDegrees>-81.59464619122446</LongitudeDegrees>
            </Position>
            <AltitudeMeters>178.1999969482422</AltitudeMeters>
            <DistanceMeters>252.9499969482422</DistanceMeters>
            <HeartRateBpm>
              <Value>95</Value>
            </HeartRateBpm>
            <Extensions>
              <ns3:TPX>
                <ns3:Speed>3.2660000324249268</ns3:Speed>
              </ns3:TPX>
            </Extensions>
          </Trackpoint>
          <Trackpoint>
            <Time>2026-07-29T15:00:58.000Z</Time>
            <Position>
              <LatitudeDegrees>44.29001843556762</LatitudeDegrees>
              <LongitudeDegrees>-81.59446162171662</LongitudeDegrees>
            </Position>
            <AltitudeMeters>177.8000030517578</AltitudeMeters>
            <DistanceMeters>270.4800109863281</DistanceMeters>
            <HeartRateBpm>
              <Value>97</Value>
            </HeartRateBpm>
            <Extensions>
              <ns3:TPX>
                <ns3:Speed>3.2660000324249268</ns3:Speed>
              </ns3:TPX>
            </Extensions>
          </Trackpoint>
          <Trackpoint>
            <Time>2026-07-29T15:01:02.000Z</Time>
            <Position>
              <LatitudeDegrees>44.289946435019374</LatitudeDegrees>
              <LongitudeDegrees>-81.59432801418006</LongitudeDegrees>
            </Position>
            <AltitudeMeters>177.39999389648438</AltitudeMeters>
            <DistanceMeters>283.80999755859375</DistanceMeters>
            <HeartRateBpm>
              <Value>100</Value>
            </HeartRateBpm>
            <Extensions>
              <ns3:TPX>
                <ns3:Speed>3.3499999046325684</ns3:Speed>
              </ns3:TPX>
            </Extensions>
          </Trackpoint>
          <Trackpoint>
            <Time>2026-07-29T15:01:05.000Z</Time>
            <Position>
              <LatitudeDegrees>44.28989287465811</LatitudeDegrees>
              <LongitudeDegrees>-81.59422332420945</LongitudeDegrees>
            </Position>
            <AltitudeMeters>177.39999389648438</AltitudeMeters>
            <DistanceMeters>294.07000732421875</DistanceMeters>
            <HeartRateBpm>
              <Value>103</Value>
            </HeartRateBpm>
            <Extensions>
              <ns3:TPX>
                <ns3:Speed>3.3499999046325684</ns3:Speed>
              </ns3:TPX>
            </Extensions>
          </Trackpoint>
          <Trackpoint>
            <Time>2026-07-29T15:01:08.000Z</Time>
            <Position>
              <LatitudeDegrees>44.2898447625339</LatitudeDegrees>
              <LongitudeDegrees>-81.5941240824759</LongitudeDegrees>
            </Position>
            <AltitudeMeters>177.39999389648438</AltitudeMeters>
            <DistanceMeters>303.6300048828125</DistanceMeters>
            <HeartRateBpm>
              <Value>105</Value>
            </HeartRateBpm>
            <Extensions>
              <ns3:TPX>
                <ns3:Speed>3.2279999256134033</ns3:Speed>
              </ns3:TPX>
            </Extensions>
          </Trackpoint>
          <Trackpoint>
            <Time>2026-07-29T15:01:18.000Z</Time>
            <Position>
              <LatitudeDegrees>44.289720794185996</LatitudeDegrees>
              <LongitudeDegrees>-81.59381101839244</LongitudeDegrees>
            </Position>
            <AltitudeMeters>177.39999389648438</AltitudeMeters>
            <DistanceMeters>332.2200012207031</DistanceMeters>
            <HeartRateBpm>
              <Value>104</Value>
            </HeartRateBpm>
            <Extensions>
              <ns3:TPX>
                <ns3:Speed>2.882999897003174</ns3:Speed>
              </ns3:TPX>
            </Extensions>
          </Trackpoint>
          <Trackpoint>
            <Time>2026-07-29T15:01:28.000Z</Time>
            <Position>
              <LatitudeDegrees>44.28957796655595</LatitudeDegrees>
              <LongitudeDegrees>-81.5934520214796</LongitudeDegrees>
            </Position>
            <AltitudeMeters>177.8000030517578</AltitudeMeters>
            <DistanceMeters>364.989990234375</DistanceMeters>
            <HeartRateBpm>
              <Value>107</Value>
            </HeartRateBpm>
            <Extensions>
              <ns3:TPX>
                <ns3:Speed>3.25600004196167</ns3:Speed>
              </ns3:TPX>
            </Extensions>
          </Trackpoint>
          <Trackpoint>
            <Time>2026-07-29T15:01:29.000Z</Time>
            <Position>
              <LatitudeDegrees>44.28956757299602</LatitudeDegrees>
              <LongitudeDegrees>-81.59341782331467</LongitudeDegrees>
            </Position>
            <AltitudeMeters>177.8000030517578</AltitudeMeters>
            <DistanceMeters>367.9599914550781</DistanceMeters>
            <HeartRateBpm>
              <Value>108</Value>
            </HeartRateBpm>
            <Extensions>
              <ns3:TPX>
                <ns3:Speed>3.25600004196167</ns3:Speed>
              </ns3:TPX>
            </Extensions>
          </Trackpoint>
          <Trackpoint>
            <Time>2026-07-29T15:01:36.000Z</Time>
            <Position>
              <LatitudeDegrees>44.28950688801706</LatitudeDegrees>
              <LongitudeDegrees>-81.593212550506</LongitudeDegrees>
            </Position>
            <AltitudeMeters>177.60000610351562</AltitudeMeters>
            <DistanceMeters>385.6600036621094</DistanceMeters>
            <HeartRateBpm>
              <Value>109</Value>
            </HeartRateBpm>
            <Extensions>
              <ns3:TPX>
                <ns3:Speed>2.575000047683716</ns3:Speed>
              </ns3:TPX>
            </Extensions>
          </Trackpoint>
          <Trackpoint>
            <Time>2026-07-29T15:01:46.000Z</Time>
            <Position>
              <LatitudeDegrees>44.28940094076097</LatitudeDegrees>
              <LongitudeDegrees>-81.59292018972337</LongitudeDegrees>
            </Position>
            <AltitudeMeters>177.8000030517578</AltitudeMeters>
            <DistanceMeters>411.8500061035156</DistanceMeters>
            <HeartRateBpm>
              <Value>108</Value>
            </HeartRateBpm>
            <Extensions>
              <ns3:TPX>
                <ns3:Speed>2.6410000324249268</ns3:Speed>
              </ns3:TPX>
            </Extensions>
          </Trackpoint>
          <Trackpoint>
            <Time>2026-07-29T15:01:55.000Z</Time>
            <Position>
              <LatitudeDegrees>44.289307398721576</LatitudeDegrees>
              <LongitudeDegrees>-81.59259312786162</LongitudeDegrees>
            </Position>
            <AltitudeMeters>177.8000030517578</AltitudeMeters>
            <DistanceMeters>440.0400085449219</DistanceMeters>
            <HeartRateBpm>
              <Value>108</Value>
            </HeartRateBpm>
            <Extensions>
              <ns3:TPX>
                <ns3:Speed>3.181999921798706</ns3:Speed>
              </ns3:TPX>
            </Extensions>
          </Trackpoint>
          <Trackpoint>
            <Time>2026-07-29T15:02:00.000Z</Time>
            <Position>
              <LatitudeDegrees>44.289264818653464</LatitudeDegrees>
              <LongitudeDegrees>-81.59242247231305</LongitudeDegrees>
            </Position>
            <AltitudeMeters>177.60000610351562</AltitudeMeters>
            <DistanceMeters>454.4599914550781</DistanceMeters>
            <HeartRateBpm>
              <Value>105</Value>
            </HeartRateBpm>
            <Extensions>
              <ns3:TPX>
                <ns3:Speed>2.9110000133514404</ns3:Speed>
              </ns3:TPX>
            </Extensions>
          </Trackpoint>
          <Trackpoint>
            <Time>2026-07-29T15:02:04.000Z</Time>
            <Position>
              <LatitudeDegrees>44.28922751918435</LatitudeDegrees>
              <LongitudeDegrees>-81.59227084368467</LongitudeDegrees>
            </Position>
            <AltitudeMeters>177.60000610351562</AltitudeMeters>
            <DistanceMeters>467.260009765625</DistanceMeters>
            <HeartRateBpm>
              <Value>102</Value>
            </HeartRateBpm>
            <Extensions>
              <ns3:TPX>
                <ns3:Speed>2.9110000133514404</ns3:Speed>
              </ns3:TPX>
            </Extensions>
          </Trackpoint>
          <Trackpoint>
            <Time>2026-07-29T15:02:05.000Z</Time>
            <Position>
              <LatitudeDegrees>44.28922215476632</LatitudeDegrees>
              <LongitudeDegrees>-81.59223706461489</LongitudeDegrees>
            </Position>
            <AltitudeMeters>177.60000610351562</AltitudeMeters>
            <DistanceMeters>470.010009765625</DistanceMeters>
            <HeartRateBpm>
              <Value>102</Value>
            </HeartRateBpm>
            <Extensions>
              <ns3:TPX>
                <ns3:Speed>2.9019999504089355</ns3:Speed>
              </ns3:TPX>
            </Extensions>
          </Trackpoint>
          <Trackpoint>
            <Time>2026-07-29T15:02:10.000Z</Time>
            <Position>
              <LatitudeDegrees>44.28918317891657</LatitudeDegrees>
              <LongitudeDegrees>-81.59208208322525</LongitudeDegrees>
            </Position>
            <AltitudeMeters>177.8000030517578</AltitudeMeters>
            <DistanceMeters>483.1199951171875</DistanceMeters>
            <HeartRateBpm>
              <Value>105</Value>
            </HeartRateBpm>
            <Extensions>
              <ns3:TPX>
                <ns3:Speed>2.687000036239624</ns3:Speed>
              </ns3:TPX>
            </Extensions>
          </Trackpoint>
          <Trackpoint>
            <Time>2026-07-29T15:02:15.000Z</Time>
            <Position>
              <LatitudeDegrees>44.28915367461741</LatitudeDegrees>
              <LongitudeDegrees>-81.5919550973922</LongitudeDegrees>
            </Position>
            <AltitudeMeters>177.8000030517578</AltitudeMeters>
            <DistanceMeters>493.7699890136719</DistanceMeters>
            <HeartRateBpm>
              <Value>108</Value>
            </HeartRateBpm>
            <Extensions>
              <ns3:TPX>
                <ns3:Speed>2.3510000705718994</ns3:Speed>
              </ns3:TPX>
            </Extensions>
          </Trackpoint>
          <Trackpoint>
            <Time>2026-07-29T15:02:21.000Z</Time>
            <Position>
              <LatitudeDegrees>44.28911721333861</LatitudeDegrees>
              <LongitudeDegrees>-81.59176357090473</LongitudeDegrees>
            </Position>
            <AltitudeMeters>178.39999389648438</AltitudeMeters>
            <DistanceMeters>509.5799865722656</DistanceMeters>
            <HeartRateBpm>
              <Value>107</Value>
            </HeartRateBpm>
            <Extensions>
              <ns3:TPX>
                <ns3:Speed>2.313999891281128</ns3:Speed>
              </ns3:TPX>
            </Extensions>
          </Trackpoint>
          <Trackpoint>
            <Time>2026-07-29T15:02:24.000Z</Time>
            <Position>
              <LatitudeDegrees>44.28911310620606</LatitudeDegrees>
              <LongitudeDegrees>-81.59170028753579</LongitudeDegrees>
            </Position>
            <AltitudeMeters>179.1999969482422</AltitudeMeters>
            <DistanceMeters>514.6500244140625</DistanceMeters>
            <HeartRateBpm>
              <Value>106</Value>
            </HeartRateBpm>
            <Extensions>
              <ns3:TPX>
                <ns3:Speed>1.819000005722046</ns3:Speed>
              </ns3:TPX>
            </Extensions>
          </Trackpoint>
          <Trackpoint>
            <Time>2026-07-29T15:02:29.000Z</Time>
            <Position>
              <LatitudeDegrees>44.289120649918914</LatitudeDegrees>
              <LongitudeDegrees>-81.59164345823228</LongitudeDegrees>
            </Position>
            <AltitudeMeters>178.8000030517578</AltitudeMeters>
            <DistanceMeters>519.280029296875</DistanceMeters>
            <HeartRateBpm>
              <Value>108</Value>
            </HeartRateBpm>
            <Extensions>
              <ns3:TPX>
                <ns3:Speed>1.4279999732971191</ns3:Speed>
              </ns3:TPX>
            </Extensions>
          </Trackpoint>
          <Trackpoint>
            <Time>2026-07-29T15:02:31.000Z</Time>
            <Position>
              <LatitudeDegrees>44.28911520168185</LatitudeDegrees>
              <LongitudeDegrees>-81.59161906689405</LongitudeDegrees>
            </Position>
            <AltitudeMeters>178.1999969482422</AltitudeMeters>
            <DistanceMeters>521.3499755859375</DistanceMeters>
            <HeartRateBpm>
              <Value>110</Value>
            </HeartRateBpm>
            <Extensions>
              <ns3:TPX>
                <ns3:Speed>1.2319999933242798</ns3:Speed>
              </ns3:TPX>
            </Extensions>
          </Trackpoint>
          <Trackpoint>
            <Time>2026-07-29T15:02:33.000Z</Time>
            <Position>
              <LatitudeDegrees>44.28910204209387</LatitudeDegrees>
              <LongitudeDegrees>-81.5916043985635</LongitudeDegrees>
            </Position>
            <AltitudeMeters>178.1999969482422</AltitudeMeters>
            <DistanceMeters>523.22998046875</DistanceMeters>
            <HeartRateBpm>
              <Value>111</Value>
            </HeartRateBpm>
            <Extensions>
              <ns3:TPX>
                <ns3:Speed>1.0640000104904175</ns3:Speed>
              </ns3:TPX>
            </Extensions>
          </Trackpoint>
          <Trackpoint>
            <Time>2026-07-29T15:02:39.000Z</Time>
            <Position>
              <LatitudeDegrees>44.28911620751023</LatitudeDegrees>
              <LongitudeDegrees>-81.59157053567469</LongitudeDegrees>
            </Position>
            <AltitudeMeters>179.0</AltitudeMeters>
            <DistanceMeters>526.5599975585938</DistanceMeters>
            <HeartRateBpm>
              <Value>113</Value>
            </HeartRateBpm>
            <Extensions>
              <ns3:TPX>
                <ns3:Speed>0.5320000052452087</ns3:Speed>
              </ns3:TPX>
            </Extensions>
          </Trackpoint>
          <Trackpoint>
            <Time>2026-07-29T15:02:44.000Z</Time>
            <Position>
              <LatitudeDegrees>44.2891248408705</LatitudeDegrees>
              <LongitudeDegrees>-81.59156651236117</LongitudeDegrees>
            </Position>
            <AltitudeMeters>178.8000030517578</AltitudeMeters>
            <DistanceMeters>528.6799926757812</DistanceMeters>
            <HeartRateBpm>
              <Value>113</Value>
            </HeartRateBpm>
            <Extensions>
              <ns3:TPX>
                <ns3:Speed>0.5600000023841858</ns3:Speed>
              </ns3:TPX>
            </Extensions>
          </Trackpoint>
          <Trackpoint>
            <Time>2026-07-29T15:02:47.000Z</Time>
            <Position>
              <LatitudeDegrees>44.28912551142275</LatitudeDegrees>
              <LongitudeDegrees>-81.59154346212745</LongitudeDegrees>
            </Position>
            <AltitudeMeters>178.0</AltitudeMeters>
            <DistanceMeters>530.5399780273438</DistanceMeters>
            <HeartRateBpm>
              <Value>116</Value>
            </HeartRateBpm>
            <Extensions>
              <ns3:TPX>
                <ns3:Speed>0.5320000052452087</ns3:Speed>
              </ns3:TPX>
            </Extensions>
          </Trackpoint>
          <Trackpoint>
            <Time>2026-07-29T15:02:55.000Z</Time>
            <Position>
              <LatitudeDegrees>44.28912593051791</LatitudeDegrees>
              <LongitudeDegrees>-81.59149350598454</LongitudeDegrees>
            </Position>
            <AltitudeMeters>178.60000610351562</AltitudeMeters>
            <DistanceMeters>534.6599731445312</DistanceMeters>
            <HeartRateBpm>
              <Value>118</Value>
            </HeartRateBpm>
            <Extensions>
              <ns3:TPX>
                <ns3:Speed>0.5320000052452087</ns3:Speed>
              </ns3:TPX>
            </Extensions>
          </Trackpoint>
          <Trackpoint>
            <Time>2026-07-29T15:03:00.000Z</Time>
            <Position>
              <LatitudeDegrees>44.28912375122309</LatitudeDegrees>
              <LongitudeDegrees>-81.5914888959378</LongitudeDegrees>
            </Position>
            <AltitudeMeters>179.1999969482422</AltitudeMeters>
            <DistanceMeters>535.5</DistanceMeters>
            <HeartRateBpm>
              <Value>121</Value>
            </HeartRateBpm>
            <Extensions>
              <ns3:TPX>
                <ns3:Speed>0.4480000138282776</ns3:Speed>
              </ns3:TPX>
            </Extensions>
          </Trackpoint>
          <Trackpoint>
            <Time>2026-07-29T15:03:02.000Z</Time>
            <Position>
              <LatitudeDegrees>44.289123583585024</LatitudeDegrees>
              <LongitudeDegrees>-81.59149057231843</LongitudeDegrees>
            </Position>
            <AltitudeMeters>179.60000610351562</AltitudeMeters>
            <DistanceMeters>535.5499877929688</DistanceMeters>
            <HeartRateBpm>
              <Value>121</Value>
            </HeartRateBpm>
            <Extensions>
              <ns3:TPX>
                <ns3:Speed>0.0</ns3:Speed>
              </ns3:TPX>
            </Extensions>
          </Trackpoint>
          <Trackpoint>
            <Time>2026-07-29T15:03:03.000Z</Time>
            <Position>
              <LatitudeDegrees>44.28912274539471</LatitudeDegrees>
              <LongitudeDegrees>-81.59149040468037</LongitudeDegrees>
            </Position>
            <AltitudeMeters>179.60000610351562</AltitudeMeters>
            <DistanceMeters>535.6400146484375</DistanceMeters>
            <HeartRateBpm>
              <Value>121</Value>
            </HeartRateBpm>
            <Extensions>
              <ns3:TPX>
                <ns3:Speed>0.0</ns3:Speed>
              </ns3:TPX>
            </Extensions>
          </Trackpoint>
          <Trackpoint>
            <Time>2026-07-29T15:03:13.000Z</Time>
            <Position>
              <LatitudeDegrees>44.289124086499214</LatitudeDegrees>
              <LongitudeDegrees>-81.59148319624364</LongitudeDegrees>
            </Position>
            <AltitudeMeters>179.39999389648438</AltitudeMeters>
            <DistanceMeters>536.3300170898438</DistanceMeters>
            <HeartRateBpm>
              <Value>121</Value>
            </HeartRateBpm>
            <Extensions>
              <ns3:TPX>
                <ns3:Speed>0.0</ns3:Speed>
              </ns3:TPX>
            </Extensions>
          </Trackpoint>
          <Trackpoint>
            <Time>2026-07-29T15:03:36.000Z</Time>
            <Position>
              <LatitudeDegrees>44.289115285500884</LatitudeDegrees>
              <LongitudeDegrees>-81.59147825092077</LongitudeDegrees>
            </Position>
            <AltitudeMeters>179.8000030517578</AltitudeMeters>
            <DistanceMeters>536.8200073242188</DistanceMeters>
            <HeartRateBpm>
              <Value>118</Value>
            </HeartRateBpm>
            <Extensions>
              <ns3:TPX>
                <ns3:Speed>0.0</ns3:Speed>
              </ns3:TPX>
            </Extensions>
          </Trackpoint>
          <Trackpoint>
            <Time>2026-07-29T15:04:02.000Z</Time>
            <Position>
              <LatitudeDegrees>44.28910346701741</LatitudeDegrees>
              <LongitudeDegrees>-81.59148059785366</LongitudeDegrees>
            </Position>
            <AltitudeMeters>180.39999389648438</AltitudeMeters>
            <DistanceMeters>536.989990234375</DistanceMeters>
            <HeartRateBpm>
              <Value>115</Value>
            </HeartRateBpm>
            <Extensions>
              <ns3:TPX>
                <ns3:Speed>0.0</ns3:Speed>
              </ns3:TPX>
            </Extensions>
          </Trackpoint>
          <Trackpoint>
            <Time>2026-07-29T15:04:07.000Z</Time>
            <Position>
              <LatitudeDegrees>44.28910254500806</LatitudeDegrees>
              <LongitudeDegrees>-81.59147456288338</LongitudeDegrees>
            </Position>
            <AltitudeMeters>180.60000610351562</AltitudeMeters>
            <DistanceMeters>537.469970703125</DistanceMeters>
            <HeartRateBpm>
              <Value>115</Value>
            </HeartRateBpm>
            <Extensions>
              <ns3:TPX>
                <ns3:Speed>0.0</ns3:Speed>
              </ns3:TPX>
            </Extensions>
          </Trackpoint>
          <Trackpoint>
            <Time>2026-07-29T15:04:29.000Z</Time>
            <Position>
              <LatitudeDegrees>44.28908854722977</LatitudeDegrees>
              <LongitudeDegrees>-81.5914563741535</LongitudeDegrees>
            </Position>
            <AltitudeMeters>180.8000030517578</AltitudeMeters>
            <DistanceMeters>539.0800170898438</DistanceMeters>
            <HeartRateBpm>
              <Value>112</Value>
            </HeartRateBpm>
            <Extensions>
              <ns3:TPX>
                <ns3:Speed>0.0</ns3:Speed>
              </ns3:TPX>
            </Extensions>
          </Trackpoint>
          <Trackpoint>
            <Time>2026-07-29T15:04:40.000Z</Time>
            <Position>
              <LatitudeDegrees>44.2890867870301</LatitudeDegrees>
              <LongitudeDegrees>-81.59145310521126</LongitudeDegrees>
            </Position>
            <AltitudeMeters>180.8000030517578</AltitudeMeters>
            <DistanceMeters>539.3599853515625</DistanceMeters>
            <HeartRateBpm>
              <Value>109</Value>
            </HeartRateBpm>
            <Extensions>
              <ns3:TPX>
                <ns3:Speed>0.0</ns3:Speed>
              </ns3:TPX>
            </Extensions>
          </Trackpoint>
          <Trackpoint>
            <Time>2026-07-29T15:04:42.000Z</Time>
            <Position>
              <LatitudeDegrees>44.28908234462142</LatitudeDegrees>
              <LongitudeDegrees>-81.59144857898355</LongitudeDegrees>
            </Position>
            <AltitudeMeters>181.0</AltitudeMeters>
            <DistanceMeters>539.9099731445312</DistanceMeters>
            <HeartRateBpm>
              <Value>108</Value>
            </HeartRateBpm>
            <Extensions>
              <ns3:TPX>
                <ns3:Speed>1.371999979019165</ns3:Speed>
              </ns3:TPX>
            </Extensions>
          </Trackpoint>
          <Trackpoint>
            <Time>2026-07-29T15:04:45.000Z</Time>
            <Position>
              <LatitudeDegrees>44.28904823027551</LatitudeDegrees>
              <LongitudeDegrees>-81.59140465781093</LongitudeDegrees>
            </Position>
            <AltitudeMeters>181.1999969482422</AltitudeMeters>
            <DistanceMeters>545.0700073242188</DistanceMeters>
            <HeartRateBpm>
              <Value>108</Value>
            </HeartRateBpm>
            <Extensions>
              <ns3:TPX>
                <ns3:Speed>1.6330000162124634</ns3:Speed>
              </ns3:TPX>
            </Extensions>
          </Trackpoint>
          <Trackpoint>
            <Time>2026-07-29T15:04:50.000Z</Time>
            <Position>
              <LatitudeDegrees>44.28899793885648</LatitudeDegrees>
              <LongitudeDegrees>-81.59131564199924</LongitudeDegrees>
            </Position>
            <AltitudeMeters>181.60000610351562</AltitudeMeters>
            <DistanceMeters>554.0900268554688</DistanceMeters>
            <HeartRateBpm>
              <Value>107</Value>
            </HeartRateBpm>
            <Extensions>
              <ns3:TPX>
                <ns3:Speed>1.3619999885559082</ns3:Speed>
              </ns3:TPX>
            </Extensions>
          </Trackpoint>
          <Trackpoint>
            <Time>2026-07-29T15:04:53.000Z</Time>
            <Position>
              <LatitudeDegrees>44.288986371830106</LatitudeDegrees>
              <LongitudeDegrees>-81.59126970916986</LongitudeDegrees>
            </Position>
            <AltitudeMeters>182.0</AltitudeMeters>
            <DistanceMeters>557.9199829101562</DistanceMeters>
            <HeartRateBpm>
              <Value>107</Value>
            </HeartRateBpm>
            <Extensions>
              <ns3:TPX>
                <ns3:Speed>1.315999984741211</ns3:Speed>
              </ns3:TPX>
            </Extensions>
          </Trackpoint>
          <Trackpoint>
            <Time>2026-07-29T15:04:55.000Z</Time>
            <Position>
              <LatitudeDegrees>44.28898888640106</LatitudeDegrees>
              <LongitudeDegrees>-81.59125747159123</LongitudeDegrees>
            </Position>
            <AltitudeMeters>182.1999969482422</AltitudeMeters>
            <DistanceMeters>558.4000244140625</DistanceMeters>
            <HeartRateBpm>
              <Value>105</Value>
            </HeartRateBpm>
            <Extensions>
              <ns3:TPX>
                <ns3:Speed>1.2879999876022339</ns3:Speed>
              </ns3:TPX>
            </Extensions>
          </Trackpoint>
          <Trackpoint>
            <Time>2026-07-29T15:04:56.000Z</Time>
            <Position>
              <LatitudeDegrees>44.288990227505565</LatitudeDegrees>
              <LongitudeDegrees>-81.59124900586903</LongitudeDegrees>
            </Position>
            <AltitudeMeters>182.1999969482422</AltitudeMeters>
            <DistanceMeters>558.5599975585938</DistanceMeters>
            <HeartRateBpm>
              <Value>111</Value>
            </HeartRateBpm>
            <Extensions>
              <ns3:TPX>
                <ns3:Speed>1.277999997138977</ns3:Speed>
              </ns3:TPX>
            </Extensions>
          </Trackpoint>
          <Trackpoint>
            <Time>2026-07-29T15:04:57.000Z</Time>
            <Position>
              <LatitudeDegrees>44.28898612037301</LatitudeDegrees>
              <LongitudeDegrees>-81.59123349934816</LongitudeDegrees>
            </Position>
            <AltitudeMeters>182.1999969482422</AltitudeMeters>
            <DistanceMeters>559.5800170898438</DistanceMeters>
            <HeartRateBpm>
              <Value>110</Value>
            </HeartRateBpm>
            <Extensions>
              <ns3:TPX>
                <ns3:Speed>1.2039999961853027</ns3:Speed>
              </ns3:TPX>
            </Extensions>
          </Trackpoint>
          <Trackpoint>
            <Time>2026-07-29T15:04:58.000Z</Time>
            <Position>
              <LatitudeDegrees>44.28898796439171</LatitudeDegrees>
              <LongitudeDegrees>-81.5912174899131</LongitudeDegrees>
            </Position>
            <AltitudeMeters>182.39999389648438</AltitudeMeters>
            <DistanceMeters>560.6500244140625</DistanceMeters>
            <HeartRateBpm>
              <Value>110</Value>
            </HeartRateBpm>
            <Extensions>
              <ns3:TPX>
                <ns3:Speed>1.184999942779541</ns3:Speed>
              </ns3:TPX>
            </Extensions>
          </Trackpoint>
          <Trackpoint>
            <Time>2026-07-29T15:05:00.000Z</Time>
            <Position>
              <LatitudeDegrees>44.28899383172393</LatitudeDegrees>
              <LongitudeDegrees>-81.59119318239391</LongitudeDegrees>
            </Position>
            <AltitudeMeters>182.60000610351562</AltitudeMeters>
            <DistanceMeters>562.3800048828125</DistanceMeters>
            <HeartRateBpm>
              <Value>112</Value>
            </HeartRateBpm>
            <Extensions>
              <ns3:TPX>
                <ns3:Speed>1.1200000047683716</ns3:Speed>
              </ns3:TPX>
            </Extensions>
          </Trackpoint>
          <Trackpoint>
            <Time>2026-07-29T15:05:01.000Z</Time>
            <Position>
              <LatitudeDegrees>44.28899240680039</LatitudeDegrees>
              <LongitudeDegrees>-81.59119100309908</LongitudeDegrees>
            </Position>
            <AltitudeMeters>182.8000030517578</AltitudeMeters>
            <DistanceMeters>562.5999755859375</DistanceMeters>
            <HeartRateBpm>
              <Value>112</Value>
            </HeartRateBpm>
            <Extensions>
              <ns3:TPX>
                <ns3:Speed>1.1100000143051147</ns3:Speed>
              </ns3:TPX>
            </Extensions>
          </Trackpoint>
          <Trackpoint>
            <Time>2026-07-29T15:05:02.000Z</Time>
            <Position>
              <LatitudeDegrees>44.28899047896266</LatitudeDegrees>
              <LongitudeDegrees>-81.59118932671845</LongitudeDegrees>
            </Position>
            <AltitudeMeters>183.0</AltitudeMeters>
            <DistanceMeters>562.8400268554688</DistanceMeters>
            <HeartRateBpm>
              <Value>112</Value>
            </HeartRateBpm>
            <Extensions>
              <ns3:TPX>
                <ns3:Speed>0.8209999799728394</ns3:Speed>
              </ns3:TPX>
            </Extensions>
          </Trackpoint>
          <Trackpoint>
            <Time>2026-07-29T15:05:07.000Z</Time>
            <Position>
              <LatitudeDegrees>44.28899525664747</LatitudeDegrees>
              <LongitudeDegrees>-81.59118295647204</LongitudeDegrees>
            </Position>
            <AltitudeMeters>183.39999389648438</AltitudeMeters>
            <DistanceMeters>564.7899780273438</DistanceMeters>
            <HeartRateBpm>
              <Value>113</Value>
            </HeartRateBpm>
            <Extensions>
              <ns3:TPX>
                <ns3:Speed>0.0</ns3:Speed>
              </ns3:TPX>
            </Extensions>
          </Trackpoint>
          <Trackpoint>
            <Time>2026-07-29T15:05:11.000Z</Time>
            <Position>
              <LatitudeDegrees>44.28898754529655</LatitudeDegrees>
              <LongitudeDegrees>-81.59118530340493</LongitudeDegrees>
            </Position>
            <AltitudeMeters>183.8000030517578</AltitudeMeters>
            <DistanceMeters>566.1400146484375</DistanceMeters>
            <HeartRateBpm>
              <Value>112</Value>
            </HeartRateBpm>
            <Extensions>
              <ns3:TPX>
                <ns3:Speed>0.0</ns3:Speed>
              </ns3:TPX>
            </Extensions>
          </Trackpoint>
          <Trackpoint>
            <Time>2026-07-29T15:05:17.000Z</Time>
            <Position>
              <LatitudeDegrees>44.288988299667835</LatitudeDegrees>
              <LongitudeDegrees>-81.59119829535484</LongitudeDegrees>
            </Position>
            <AltitudeMeters>183.39999389648438</AltitudeMeters>
            <DistanceMeters>567.8699951171875</DistanceMeters>
            <HeartRateBpm>
              <Value>111</Value>
            </HeartRateBpm>
            <Extensions>
              <ns3:TPX>
                <ns3:Speed>0.0</ns3:Speed>
              </ns3:TPX>
            </Extensions>
          </Trackpoint>
          <Trackpoint>
            <Time>2026-07-29T15:05:21.000Z</Time>
            <Position>
              <LatitudeDegrees>44.28899358026683</LatitudeDegrees>
              <LongitudeDegrees>-81.59120592288673</LongitudeDegrees>
            </Position>
            <AltitudeMeters>183.1999969482422</AltitudeMeters>
            <DistanceMeters>568.75</DistanceMeters>
            <HeartRateBpm>
              <Value>114</Value>
            </HeartRateBpm>
            <Extensions>
              <ns3:TPX>
                <ns3:Speed>0.0</ns3:Speed>
              </ns3:TPX>
            </Extensions>
          </Trackpoint>
          <Trackpoint>
            <Time>2026-07-29T15:05:28.000Z</Time>
            <Position>
              <LatitudeDegrees>44.28899299353361</LatitudeDegrees>
              <LongitudeDegrees>-81.59120793454349</LongitudeDegrees>
            </Position>
            <AltitudeMeters>183.39999389648438</AltitudeMeters>
            <DistanceMeters>568.8800048828125</DistanceMeters>
            <HeartRateBpm>
              <Value>115</Value>
            </HeartRateBpm>
            <Extensions>
              <ns3:TPX>
                <ns3:Speed>0.0</ns3:Speed>
              </ns3:TPX>
            </Extensions>
          </Trackpoint>
          <Trackpoint>
            <Time>2026-07-29T15:05:34.000Z</Time>
            <Position>
              <LatitudeDegrees>44.28899299353361</LatitudeDegrees>
              <LongitudeDegrees>-81.59120793454349</LongitudeDegrees>
            </Position>
            <AltitudeMeters>183.60000610351562</AltitudeMeters>
            <DistanceMeters>568.8800048828125</DistanceMeters>
            <HeartRateBpm>
              <Value>112</Value>
            </HeartRateBpm>
            <Extensions>
              <ns3:TPX>
                <ns3:Speed>0.0</ns3:Speed>
              </ns3:TPX>
            </Extensions>
          </Trackpoint>
          <Trackpoint>
            <Time>2026-07-29T15:05:48.000Z</Time>
            <Position>
              <LatitudeDegrees>44.28902911953628</LatitudeDegrees>
              <LongitudeDegrees>-81.59130290150642</LongitudeDegrees>
            </Position>
            <AltitudeMeters>183.0</AltitudeMeters>
            <DistanceMeters>577.47998046875</DistanceMeters>
            <HeartRateBpm>
              <Value>110</Value>
            </HeartRateBpm>
            <Extensions>
              <ns3:TPX>
                <ns3:Speed>1.3339999914169312</ns3:Speed>
              </ns3:TPX>
            </Extensions>
          </Trackpoint>
          <Trackpoint>
            <Time>2026-07-29T15:05:51.000Z</Time>
            <Position>
              <LatitudeDegrees>44.28906130604446</LatitudeDegrees>
              <LongitudeDegrees>-81.5913797635585</LongitudeDegrees>
            </Position>
            <AltitudeMeters>182.39999389648438</AltitudeMeters>
            <DistanceMeters>584.5800170898438</DistanceMeters>
            <HeartRateBpm>
              <Value>111</Value>
            </HeartRateBpm>
            <Extensions>
              <ns3:TPX>
                <ns3:Speed>1.7079999446868896</ns3:Speed>
              </ns3:TPX>
            </Extensions>
          </Trackpoint>
          <Trackpoint>
            <Time>2026-07-29T15:05:52.000Z</Time>
            <Position>
              <LatitudeDegrees>44.28907354362309</LatitudeDegrees>
              <LongitudeDegrees>-81.59141010604799</LongitudeDegrees>
            </Position>
            <AltitudeMeters>182.0</AltitudeMeters>
            <DistanceMeters>587.3599853515625</DistanceMeters>
            <HeartRateBpm>
              <Value>114</Value>
            </HeartRateBpm>
            <Extensions>
              <ns3:TPX>
                <ns3:Speed>1.7359999418258667</ns3:Speed>
              </ns3:TPX>
            </Extensions>
          </Trackpoint>
          <Trackpoint>
            <Time>2026-07-29T15:05:53.000Z</Time>
            <Position>
              <LatitudeDegrees>44.28908536210656</LatitudeDegrees>
              <LongitudeDegrees>-81.59143843688071</LongitudeDegrees>
            </Position>
            <AltitudeMeters>181.0</AltitudeMeters>
            <DistanceMeters>589.969970703125</DistanceMeters>
            <HeartRateBpm>
              <Value>116</Value>
            </HeartRateBpm>
            <Extensions>
              <ns3:TPX>
                <ns3:Speed>1.9780000448226929</ns3:Speed>
              </ns3:TPX>
            </Extensions>
          </Trackpoint>
          <Trackpoint>
            <Time>2026-07-29T15:05:54.000Z</Time>
            <Position>
              <LatitudeDegrees>44.28909785114229</LatitudeDegrees>
              <LongitudeDegrees>-81.59147271886468</LongitudeDegrees>
            </Position>
            <AltitudeMeters>181.0</AltitudeMeters>
            <DistanceMeters>593.0399780273438</DistanceMeters>
            <HeartRateBpm>
              <Value>112</Value>
            </HeartRateBpm>
            <Extensions>
              <ns3:TPX>
                <ns3:Speed>1.9780000448226929</ns3:Speed>
              </ns3:TPX>
            </Extensions>
          </Trackpoint>
          <Trackpoint>
            <Time>2026-07-29T15:05:56.000Z</Time>
            <Position>
              <LatitudeDegrees>44.289108496159315</LatitudeDegrees>
              <LongitudeDegrees>-81.5915145445615</LongitudeDegrees>
            </Position>
            <AltitudeMeters>178.1999969482422</AltitudeMeters>
            <DistanceMeters>596.5399780273438</DistanceMeters>
            <HeartRateBpm>
              <Value>113</Value>
            </HeartRateBpm>
            <Extensions>
              <ns3:TPX>
                <ns3:Speed>1.8849999904632568</ns3:Speed>
              </ns3:TPX>
            </Extensions>
          </Trackpoint>
          <Trackpoint>
            <Time>2026-07-29T15:05:59.000Z</Time>
            <Position>
              <LatitudeDegrees>44.28913037292659</LatitudeDegrees>
              <LongitudeDegrees>-81.59157237969339</LongitudeDegrees>
            </Position>
            <AltitudeMeters>178.60000610351562</AltitudeMeters>
            <DistanceMeters>601.8400268554688</DistanceMeters>
            <HeartRateBpm>
              <Value>116</Value>
            </HeartRateBpm>
            <Extensions>
              <ns3:TPX>
                <ns3:Speed>1.8849999904632568</ns3:Speed>
              </ns3:TPX>
            </Extensions>
          </Trackpoint>
          <Trackpoint>
            <Time>2026-07-29T15:06:01.000Z</Time>
            <Position>
              <LatitudeDegrees>44.28914814256132</LatitudeDegrees>
              <LongitudeDegrees>-81.59158788621426</LongitudeDegrees>
            </Position>
            <AltitudeMeters>179.0</AltitudeMeters>
            <DistanceMeters>604.1900024414062</DistanceMeters>
            <HeartRateBpm>
              <Value>117</Value>
            </HeartRateBpm>
            <Extensions>
              <ns3:TPX>
                <ns3:Speed>1.277999997138977</ns3:Speed>
              </ns3:TPX>
            </Extensions>
          </Trackpoint>
          <Trackpoint>
            <Time>2026-07-29T15:06:02.000Z</Time>
            <Position>
              <LatitudeDegrees>44.28915359079838</LatitudeDegrees>
              <LongitudeDegrees>-81.59158947877586</LongitudeDegrees>
            </Position>
            <AltitudeMeters>179.0</AltitudeMeters>
            <DistanceMeters>604.8099975585938</DistanceMeters>
            <HeartRateBpm>
              <Value>117</Value>
            </HeartRateBpm>
            <Extensions>
              <ns3:TPX>
                <ns3:Speed>0.9240000247955322</ns3:Speed>
              </ns3:TPX>
            </Extensions>
          </Trackpoint>
          <Trackpoint>
            <Time>2026-07-29T15:06:07.000Z</Time>
            <Position>
              <LatitudeDegrees>44.28913665935397</LatitudeDegrees>
              <LongitudeDegrees>-81.59157858230174</LongitudeDegrees>
            </Position>
            <AltitudeMeters>179.0</AltitudeMeters>
            <DistanceMeters>607.3900146484375</DistanceMeters>
            <HeartRateBpm>
              <Value>119</Value>
            </HeartRateBpm>
            <Extensions>
              <ns3:TPX>
                <ns3:Speed>0.8960000276565552</ns3:Speed>
              </ns3:TPX>
            </Extensions>
          </Trackpoint>
          <Trackpoint>
            <Time>2026-07-29T15:06:11.000Z</Time>
            <Position>
              <LatitudeDegrees>44.28915468044579</LatitudeDegrees>
              <LongitudeDegrees>-81.5915716253221</LongitudeDegrees>
            </Position>
            <AltitudeMeters>179.1999969482422</AltitudeMeters>
            <DistanceMeters>610.02001953125</DistanceMeters>
            <HeartRateBpm>
              <Value>120</Value>
            </HeartRateBpm>
            <Extensions>
              <ns3:TPX>
                <ns3:Speed>1.2039999961853027</ns3:Speed>
              </ns3:TPX>
            </Extensions>
          </Trackpoint>
          <Trackpoint>
            <Time>2026-07-29T15:06:12.000Z</Time>
            <Position>
              <LatitudeDegrees>44.28916163742542</LatitudeDegrees>
              <LongitudeDegrees>-81.59157455898821</LongitudeDegrees>
            </Position>
            <AltitudeMeters>179.39999389648438</AltitudeMeters>
            <DistanceMeters>610.77001953125</DistanceMeters>
            <HeartRateBpm>
              <Value>120</Value>
            </HeartRateBpm>
            <Extensions>
              <ns3:TPX>
                <ns3:Speed>1.2039999961853027</ns3:Speed>
              </ns3:TPX>
            </Extensions>
          </Trackpoint>
          <Trackpoint>
            <Time>2026-07-29T15:06:18.000Z</Time>
            <Position>
              <LatitudeDegrees>44.28917806595564</LatitudeDegrees>
              <LongitudeDegrees>-81.591581935063</LongitudeDegrees>
            </Position>
            <AltitudeMeters>179.1999969482422</AltitudeMeters>
            <DistanceMeters>613.0</DistanceMeters>
            <HeartRateBpm>
              <Value>121</Value>
            </HeartRateBpm>
            <Extensions>
              <ns3:TPX>
                <ns3:Speed>0.48500001430511475</ns3:Speed>
              </ns3:TPX>
            </Extensions>
          </Trackpoint>
          <Trackpoint>
            <Time>2026-07-29T15:06:22.000Z</Time>
            <Position>
              <LatitudeDegrees>44.28916549310088</LatitudeDegrees>
              <LongitudeDegrees>-81.59159869886935</LongitudeDegrees>
            </Position>
            <AltitudeMeters>179.0</AltitudeMeters>
            <DistanceMeters>615.1699829101562</DistanceMeters>
            <HeartRateBpm>
              <Value>122</Value>
            </HeartRateBpm>
            <Extensions>
              <ns3:TPX>
                <ns3:Speed>0.9049999713897705</ns3:Speed>
              </ns3:TPX>
            </Extensions>
          </Trackpoint>
          <Trackpoint>
            <Time>2026-07-29T15:06:24.000Z</Time>
            <Position>
              <LatitudeDegrees>44.28915677592158</LatitudeDegrees>
              <LongitudeDegrees>-81.59160314127803</LongitudeDegrees>
            </Position>
            <AltitudeMeters>178.8000030517578</AltitudeMeters>
            <DistanceMeters>616.2100219726562</DistanceMeters>
            <HeartRateBpm>
              <Value>122</Value>
            </HeartRateBpm>
            <Extensions>
              <ns3:TPX>
                <ns3:Speed>0.8209999799728394</ns3:Speed>
              </ns3:TPX>
            </Extensions>
          </Trackpoint>
          <Trackpoint>
            <Time>2026-07-29T15:06:27.000Z</Time>
            <Position>
              <LatitudeDegrees>44.289135402068496</LatitudeDegrees>
              <LongitudeDegrees>-81.591608338058</LongitudeDegrees>
            </Position>
            <AltitudeMeters>178.39999389648438</AltitudeMeters>
            <DistanceMeters>618.6799926757812</DistanceMeters>
            <HeartRateBpm>
              <Value>122</Value>
            </HeartRateBpm>
            <Extensions>
              <ns3:TPX>
                <ns3:Speed>1.156999945640564</ns3:Speed>
              </ns3:TPX>
            </Extensions>
          </Trackpoint>
          <Trackpoint>
            <Time>2026-07-29T15:06:28.000Z</Time>
            <Position>
              <LatitudeDegrees>44.289127103984356</LatitudeDegrees>
              <LongitudeDegrees>-81.59160573966801</LongitudeDegrees>
            </Position>
            <AltitudeMeters>178.1999969482422</AltitudeMeters>
            <DistanceMeters>619.6300048828125</DistanceMeters>
            <HeartRateBpm>
              <Value>122</Value>
            </HeartRateBpm>
            <Extensions>
              <ns3:TPX>
                <ns3:Speed>1.156999945640564</ns3:Speed>
              </ns3:TPX>
            </Extensions>
          </Trackpoint>
          <Trackpoint>
            <Time>2026-07-29T15:06:29.000Z</Time>
            <Position>
              <LatitudeDegrees>44.28911964409053</LatitudeDegrees>
              <LongitudeDegrees>-81.59159920178354</LongitudeDegrees>
            </Position>
            <AltitudeMeters>178.0</AltitudeMeters>
            <DistanceMeters>620.5900268554688</DistanceMeters>
            <HeartRateBpm>
              <Value>122</Value>
            </HeartRateBpm>
            <Extensions>
              <ns3:TPX>
                <ns3:Speed>0.8209999799728394</ns3:Speed>
              </ns3:TPX>
            </Extensions>
          </Trackpoint>
          <Trackpoint>
            <Time>2026-07-29T15:06:35.000Z</Time>
            <Position>
              <LatitudeDegrees>44.2890471406281</LatitudeDegrees>
              <LongitudeDegrees>-81.59157590009272</LongitudeDegrees>
            </Position>
            <AltitudeMeters>178.8000030517578</AltitudeMeters>
            <DistanceMeters>628.8499755859375</DistanceMeters>
            <HeartRateBpm>
              <Value>121</Value>
            </HeartRateBpm>
            <Extensions>
              <ns3:TPX>
                <ns3:Speed>1.2319999933242798</ns3:Speed>
              </ns3:TPX>
            </Extensions>
          </Trackpoint>
          <Trackpoint>
            <Time>2026-07-29T15:06:37.000Z</Time>
            <Position>
              <LatitudeDegrees>44.28903305903077</LatitudeDegrees>
              <LongitudeDegrees>-81.59156542271376</LongitudeDegrees>
            </Position>
            <AltitudeMeters>179.39999389648438</AltitudeMeters>
            <DistanceMeters>630.6300048828125</DistanceMeters>
            <HeartRateBpm>
              <Value>121</Value>
            </HeartRateBpm>
            <Extensions>
              <ns3:TPX>
                <ns3:Speed>1.156999945640564</ns3:Speed>
              </ns3:TPX>
            </Extensions>
          </Trackpoint>
          <Trackpoint>
            <Time>2026-07-29T15:06:40.000Z</Time>
            <Position>
              <LatitudeDegrees>44.28901537321508</LatitudeDegrees>
              <LongitudeDegrees>-81.59156089648604</LongitudeDegrees>
            </Position>
            <AltitudeMeters>180.39999389648438</AltitudeMeters>
            <DistanceMeters>632.6599731445312</DistanceMeters>
            <HeartRateBpm>
              <Value>121</Value>
            </HeartRateBpm>
            <Extensions>
              <ns3:TPX>
                <ns3:Speed>0.6809999942779541</ns3:Speed>
              </ns3:TPX>
            </Extensions>
          </Trackpoint>
          <Trackpoint>
            <Time>2026-07-29T15:06:41.000Z</Time>
            <Position>
              <LatitudeDegrees>44.28901101462543</LatitudeDegrees>
              <LongitudeDegrees>-81.59156257286668</LongitudeDegrees>
            </Position>
            <AltitudeMeters>180.60000610351562</AltitudeMeters>
            <DistanceMeters>633.1599731445312</DistanceMeters>
            <HeartRateBpm>
              <Value>121</Value>
            </HeartRateBpm>
            <Extensions>
              <ns3:TPX>
                <ns3:Speed>0.5789999961853027</ns3:Speed>
              </ns3:TPX>
            </Extensions>
          </Trackpoint>
          <Trackpoint>
            <Time>2026-07-29T15:06:47.000Z</Time>
            <Position>
              <LatitudeDegrees>44.289015205577016</LatitudeDegrees>
              <LongitudeDegrees>-81.59156936220825</LongitudeDegrees>
            </Position>
            <AltitudeMeters>179.60000610351562</AltitudeMeters>
            <DistanceMeters>634.7999877929688</DistanceMeters>
            <HeartRateBpm>
              <Value>121</Value>
            </HeartRateBpm>
            <Extensions>
              <ns3:TPX>
                <ns3:Speed>0.0</ns3:Speed>
              </ns3:TPX>
            </Extensions>
          </Trackpoint>
          <Trackpoint>
            <Time>2026-07-29T15:06:49.000Z</Time>
            <Position>
              <LatitudeDegrees>44.28901394829154</LatitudeDegrees>
              <LongitudeDegrees>-81.59156776964664</LongitudeDegrees>
            </Position>
            <AltitudeMeters>179.60000610351562</AltitudeMeters>
            <DistanceMeters>634.8800048828125</DistanceMeters>
            <HeartRateBpm>
              <Value>118</Value>
            </HeartRateBpm>
            <Extensions>
              <ns3:TPX>
                <ns3:Speed>0.0</ns3:Speed>
              </ns3:TPX>
            </Extensions>
          </Trackpoint>
          <Trackpoint>
            <Time>2026-07-29T15:06:50.000Z</Time>
            <Position>
              <LatitudeDegrees>44.28901378065348</LatitudeDegrees>
              <LongitudeDegrees>-81.59156693145633</LongitudeDegrees>
            </Position>
            <AltitudeMeters>179.60000610351562</AltitudeMeters>
            <DistanceMeters>634.8800048828125</DistanceMeters>
            <HeartRateBpm>
              <Value>121</Value>
            </HeartRateBpm>
            <Extensions>
              <ns3:TPX>
                <ns3:Speed>0.0</ns3:Speed>
              </ns3:TPX>
            </Extensions>
          </Trackpoint>
          <Trackpoint>
            <Time>2026-07-29T15:06:59.000Z</Time>
            <Position>
              <LatitudeDegrees>44.28901403211057</LatitudeDegrees>
              <LongitudeDegrees>-81.59156592562795</LongitudeDegrees>
            </Position>
            <AltitudeMeters>179.8000030517578</AltitudeMeters>
            <DistanceMeters>634.9000244140625</DistanceMeters>
            <HeartRateBpm>
              <Value>118</Value>
            </HeartRateBpm>
            <Extensions>
              <ns3:TPX>
                <ns3:Speed>0.0</ns3:Speed>
              </ns3:TPX>
            </Extensions>
          </Trackpoint>
          <Trackpoint>
            <Time>2026-07-29T15:07:00.000Z</Time>
            <Position>
              <LatitudeDegrees>44.28901503793895</LatitudeDegrees>
              <LongitudeDegrees>-81.5915668476373</LongitudeDegrees>
            </Position>
            <AltitudeMeters>179.8000030517578</AltitudeMeters>
            <DistanceMeters>635.02001953125</DistanceMeters>
            <HeartRateBpm>
              <Value>118</Value>
            </HeartRateBpm>
            <Extensions>
              <ns3:TPX>
                <ns3:Speed>1.0080000162124634</ns3:Speed>
              </ns3:TPX>
            </Extensions>
          </Trackpoint>
          <Trackpoint>
            <Time>2026-07-29T15:07:05.000Z</Time>
            <Position>
              <LatitudeDegrees>44.28902710787952</LatitudeDegrees>
              <LongitudeDegrees>-81.59154245629907</LongitudeDegrees>
            </Position>
            <AltitudeMeters>180.0</AltitudeMeters>
            <DistanceMeters>637.3200073242188</DistanceMeters>
            <HeartRateBpm>
              <Value>118</Value>
            </HeartRateBpm>
            <Extensions>
              <ns3:TPX>
                <ns3:Speed>0.5690000057220459</ns3:Speed>
              </ns3:TPX>
            </Extensions>
          </Trackpoint>
          <Trackpoint>
            <Time>2026-07-29T15:07:12.000Z</Time>
            <Position>
              <LatitudeDegrees>44.28902677260339</LatitudeDegrees>
              <LongitudeDegrees>-81.59154497087002</LongitudeDegrees>
            </Position>
            <AltitudeMeters>180.0</AltitudeMeters>
            <DistanceMeters>637.4199829101562</DistanceMeters>
            <HeartRateBpm>
              <Value>115</Value>
            </HeartRateBpm>
            <Extensions>
              <ns3:TPX>
                <ns3:Speed>0.0</ns3:Speed>
              </ns3:TPX>
            </Extensions>
          </Trackpoint>
          <Trackpoint>
            <Time>2026-07-29T15:07:13.000Z</Time>
            <Position>
              <LatitudeDegrees>44.28902677260339</LatitudeDegrees>
              <LongitudeDegrees>-81.59154497087002</LongitudeDegrees>
            </Position>
            <AltitudeMeters>180.1999969482422</AltitudeMeters>
            <DistanceMeters>637.4199829101562</DistanceMeters>
            <HeartRateBpm>
              <Value>118</Value>
            </HeartRateBpm>
            <Extensions>
              <ns3:TPX>
                <ns3:Speed>0.0</ns3:Speed>
              </ns3:TPX>
            </Extensions>
          </Trackpoint>
          <Trackpoint>
            <Time>2026-07-29T15:07:38.000Z</Time>
            <Position>
              <LatitudeDegrees>44.288997100666165</LatitudeDegrees>
              <LongitudeDegrees>-81.59153332002461</LongitudeDegrees>
            </Position>
            <AltitudeMeters>180.39999389648438</AltitudeMeters>
            <DistanceMeters>640.6500244140625</DistanceMeters>
            <HeartRateBpm>
              <Value>115</Value>
            </HeartRateBpm>
            <Extensions>
              <ns3:TPX>
                <ns3:Speed>0.0</ns3:Speed>
              </ns3:TPX>
            </Extensions>
          </Trackpoint>
          <Trackpoint>
            <Time>2026-07-29T15:07:45.000Z</Time>
            <Position>
              <LatitudeDegrees>44.28898997604847</LatitudeDegrees>
              <LongitudeDegrees>-81.59152988344431</LongitudeDegrees>
            </Position>
            <AltitudeMeters>180.39999389648438</AltitudeMeters>
            <DistanceMeters>641.219970703125</DistanceMeters>
            <HeartRateBpm>
              <Value>115</Value>
            </HeartRateBpm>
            <Extensions>
              <ns3:TPX>
                <ns3:Speed>0.9049999713897705</ns3:Speed>
              </ns3:TPX>
            </Extensions>
          </Trackpoint>
          <Trackpoint>
            <Time>2026-07-29T15:07:48.000Z</Time>
            <Position>
              <LatitudeDegrees>44.288984360173345</LatitudeDegrees>
              <LongitudeDegrees>-81.59152963198721</LongitudeDegrees>
            </Position>
            <AltitudeMeters>180.1999969482422</AltitudeMeters>
            <DistanceMeters>641.7000122070312</DistanceMeters>
            <HeartRateBpm>
              <Value>115</Value>
            </HeartRateBpm>
            <Extensions>
              <ns3:TPX>
                <ns3:Speed>0.6340000033378601</ns3:Speed>
              </ns3:TPX>
            </Extensions>
          </Trackpoint>
          <Trackpoint>
            <Time>2026-07-29T15:07:52.000Z</Time>
            <Position>
              <LatitudeDegrees>44.28897061385214</LatitudeDegrees>
              <LongitudeDegrees>-81.59151756204665</LongitudeDegrees>
            </Position>
            <AltitudeMeters>179.8000030517578</AltitudeMeters>
            <DistanceMeters>643.6099853515625</DistanceMeters>
            <HeartRateBpm>
              <Value>115</Value>
            </HeartRateBpm>
            <Extensions>
              <ns3:TPX>
                <ns3:Speed>0.0</ns3:Speed>
              </ns3:TPX>
            </Extensions>
          </Trackpoint>
          <Trackpoint>
            <Time>2026-07-29T15:07:58.000Z</Time>
            <Position>
              <LatitudeDegrees>44.28896885365248</LatitudeDegrees>
              <LongitudeDegrees>-81.59151881933212</LongitudeDegrees>
            </Position>
            <AltitudeMeters>179.60000610351562</AltitudeMeters>
            <DistanceMeters>643.7899780273438</DistanceMeters>
            <HeartRateBpm>
              <Value>118</Value>
            </HeartRateBpm>
            <Extensions>
              <ns3:TPX>
                <ns3:Speed>0.0</ns3:Speed>
              </ns3:TPX>
            </Extensions>
          </Trackpoint>
          <Trackpoint>
            <Time>2026-07-29T15:08:04.000Z</Time>
            <Position>
              <LatitudeDegrees>44.28896885365248</LatitudeDegrees>
              <LongitudeDegrees>-81.5915216691792</LongitudeDegrees>
            </Position>
            <AltitudeMeters>179.60000610351562</AltitudeMeters>
            <DistanceMeters>643.7899780273438</DistanceMeters>
            <HeartRateBpm>
              <Value>115</Value>
            </HeartRateBpm>
            <Extensions>
              <ns3:TPX>
                <ns3:Speed>0.0</ns3:Speed>
              </ns3:TPX>
            </Extensions>
          </Trackpoint>
          <Trackpoint>
            <Time>2026-07-29T15:08:05.000Z</Time>
            <Position>
              <LatitudeDegrees>44.28897086530924</LatitudeDegrees>
              <LongitudeDegrees>-81.5915219206363</LongitudeDegrees>
            </Position>
            <AltitudeMeters>179.60000610351562</AltitudeMeters>
            <DistanceMeters>643.7899780273438</DistanceMeters>
            <HeartRateBpm>
              <Value>114</Value>
            </HeartRateBpm>
            <Extensions>
              <ns3:TPX>
                <ns3:Speed>0.0</ns3:Speed>
              </ns3:TPX>
            </Extensions>
          </Trackpoint>
          <Trackpoint>
            <Time>2026-07-29T15:08:08.000Z</Time>
            <Position>
              <LatitudeDegrees>44.288972122594714</LatitudeDegrees>
              <LongitudeDegrees>-81.59152544103563</LongitudeDegrees>
            </Position>
            <AltitudeMeters>179.60000610351562</AltitudeMeters>
            <DistanceMeters>643.7899780273438</DistanceMeters>
            <HeartRateBpm>
              <Value>111</Value>
            </HeartRateBpm>
            <Extensions>
              <ns3:TPX>
                <ns3:Speed>0.0</ns3:Speed>
              </ns3:TPX>
            </Extensions>
          </Trackpoint>
          <Trackpoint>
            <Time>2026-07-29T15:08:11.000Z</Time>
            <Position>
              <LatitudeDegrees>44.28897530771792</LatitudeDegrees>
              <LongitudeDegrees>-81.59152594394982</LongitudeDegrees>
            </Position>
            <AltitudeMeters>179.39999389648438</AltitudeMeters>
            <DistanceMeters>643.7899780273438</DistanceMeters>
            <HeartRateBpm>
              <Value>107</Value>
            </HeartRateBpm>
            <Extensions>
              <ns3:TPX>
                <ns3:Speed>0.0</ns3:Speed>
              </ns3:TPX>
            </Extensions>
          </Trackpoint>
          <Trackpoint>
            <Time>2026-07-29T15:08:12.000Z</Time>
            <Position>
              <LatitudeDegrees>44.28897673264146</LatitudeDegrees>
              <LongitudeDegrees>-81.59152653068304</LongitudeDegrees>
            </Position>
            <AltitudeMeters>179.39999389648438</AltitudeMeters>
            <DistanceMeters>643.7899780273438</DistanceMeters>
            <HeartRateBpm>
              <Value>104</Value>
            </HeartRateBpm>
            <Extensions>
              <ns3:TPX>
                <ns3:Speed>0.0</ns3:Speed>
              </ns3:TPX>
            </Extensions>
          </Trackpoint>
          <Trackpoint>
            <Time>2026-07-29T15:08:15.000Z</Time>
            <Position>
              <LatitudeDegrees>44.28898268379271</LatitudeDegrees>
              <LongitudeDegrees>-81.59152770414948</LongitudeDegrees>
            </Position>
            <AltitudeMeters>180.1999969482422</AltitudeMeters>
            <DistanceMeters>643.7899780273438</DistanceMeters>
            <HeartRateBpm>
              <Value>101</Value>
            </HeartRateBpm>
            <Extensions>
              <ns3:TPX>
                <ns3:Speed>0.0</ns3:Speed>
              </ns3:TPX>
            </Extensions>
          </Trackpoint>
          <Trackpoint>
            <Time>2026-07-29T15:08:19.000Z</Time>
            <Position>
              <LatitudeDegrees>44.288989221677184</LatitudeDegrees>
              <LongitudeDegrees>-81.59151026979089</LongitudeDegrees>
            </Position>
            <AltitudeMeters>180.1999969482422</AltitudeMeters>
            <DistanceMeters>645.3200073242188</DistanceMeters>
            <HeartRateBpm>
              <Value>100</Value>
            </HeartRateBpm>
            <Extensions>
              <ns3:TPX>
                <ns3:Speed>1.128999948501587</ns3:Speed>
              </ns3:TPX>
            </Extensions>
          </Trackpoint>
          <Trackpoint>
            <Time>2026-07-29T15:08:21.000Z</Time>
            <Position>
              <LatitudeDegrees>44.28898419253528</LatitudeDegrees>
              <LongitudeDegrees>-81.59148076549172</LongitudeDegrees>
            </Position>
            <AltitudeMeters>180.39999389648438</AltitudeMeters>
            <DistanceMeters>647.6699829101562</DistanceMeters>
            <HeartRateBpm>
              <Value>99</Value>
            </HeartRateBpm>
            <Extensions>
              <ns3:TPX>
                <ns3:Speed>1.2879999876022339</ns3:Speed>
              </ns3:TPX>
            </Extensions>
          </Trackpoint>
          <Trackpoint>
            <Time>2026-07-29T15:08:22.000Z</Time>
            <Position>
              <LatitudeDegrees>44.28897916339338</LatitudeDegrees>
              <LongitudeDegrees>-81.59145964309573</LongitudeDegrees>
            </Position>
            <AltitudeMeters>180.39999389648438</AltitudeMeters>
            <DistanceMeters>649.4500122070312</DistanceMeters>
            <HeartRateBpm>
              <Value>97</Value>
            </HeartRateBpm>
            <Extensions>
              <ns3:TPX>
                <ns3:Speed>1.2879999876022339</ns3:Speed>
              </ns3:TPX>
            </Extensions>
          </Trackpoint>
          <Trackpoint>
            <Time>2026-07-29T15:08:27.000Z</Time>
            <Position>
              <LatitudeDegrees>44.28898863494396</LatitudeDegrees>
              <LongitudeDegrees>-81.59138043411076</LongitudeDegrees>
            </Position>
            <AltitudeMeters>180.8000030517578</AltitudeMeters>
            <DistanceMeters>655.22998046875</DistanceMeters>
            <HeartRateBpm>
              <Value>92</Value>
            </HeartRateBpm>
            <Extensions>
              <ns3:TPX>
                <ns3:Speed>1.128999948501587</ns3:Speed>
              </ns3:TPX>
            </Extensions>
          </Trackpoint>
          <Trackpoint>
            <Time>2026-07-29T15:08:28.000Z</Time>
            <Position>
              <LatitudeDegrees>44.28898964077234</LatitudeDegrees>
              <LongitudeDegrees>-81.59136903472245</LongitudeDegrees>
            </Position>
            <AltitudeMeters>180.8000030517578</AltitudeMeters>
            <DistanceMeters>656.1199951171875</DistanceMeters>
            <HeartRateBpm>
              <Value>90</Value>
            </HeartRateBpm>
            <Extensions>
              <ns3:TPX>
                <ns3:Speed>0.9800000190734863</ns3:Speed>
              </ns3:TPX>
            </Extensions>
          </Trackpoint>
          <Trackpoint>
            <Time>2026-07-29T15:08:32.000Z</Time>
            <Position>
              <LatitudeDegrees>44.28897664882243</LatitudeDegrees>
              <LongitudeDegrees>-81.591317653656</LongitudeDegrees>
            </Position>
            <AltitudeMeters>181.39999389648438</AltitudeMeters>
            <DistanceMeters>660.47998046875</DistanceMeters>
            <HeartRateBpm>
              <Value>91</Value>
            </HeartRateBpm>
            <Extensions>
              <ns3:TPX>
                <ns3:Speed>0.7559999823570251</ns3:Speed>
              </ns3:TPX>
            </Extensions>
          </Trackpoint>
          <Trackpoint>
            <Time>2026-07-29T15:08:35.000Z</Time>
            <Position>
              <LatitudeDegrees>44.28896960802376</LatitudeDegrees>
              <LongitudeDegrees>-81.59130281768739</LongitudeDegrees>
            </Position>
            <AltitudeMeters>181.60000610351562</AltitudeMeters>
            <DistanceMeters>661.9099731445312</DistanceMeters>
            <HeartRateBpm>
              <Value>92</Value>
            </HeartRateBpm>
            <Extensions>
              <ns3:TPX>
                <ns3:Speed>0.0</ns3:Speed>
              </ns3:TPX>
            </Extensions>
          </Trackpoint>
          <Trackpoint>
            <Time>2026-07-29T15:08:42.000Z</Time>
            <Position>
              <LatitudeDegrees>44.288966758176684</LatitudeDegrees>
              <LongitudeDegrees>-81.59128546714783</LongitudeDegrees>
            </Position>
            <AltitudeMeters>181.39999389648438</AltitudeMeters>
            <DistanceMeters>663.4000244140625</DistanceMeters>
            <HeartRateBpm>
              <Value>88</Value>
            </HeartRateBpm>
            <Extensions>
              <ns3:TPX>
                <ns3:Speed>0.0</ns3:Speed>
              </ns3:TPX>
            </Extensions>
          </Trackpoint>
          <Trackpoint>
            <Time>2026-07-29T15:08:43.000Z</Time>
            <Position>
              <LatitudeDegrees>44.288967344909906</LatitudeDegrees>
              <LongitudeDegrees>-81.59128588624299</LongitudeDegrees>
            </Position>
            <AltitudeMeters>181.1999969482422</AltitudeMeters>
            <DistanceMeters>663.4000244140625</DistanceMeters>
            <HeartRateBpm>
              <Value>91</Value>
            </HeartRateBpm>
            <Extensions>
              <ns3:TPX>
                <ns3:Speed>0.0</ns3:Speed>
              </ns3:TPX>
            </Extensions>
          </Trackpoint>
          <Trackpoint>
            <Time>2026-07-29T15:08:46.000Z</Time>
            <Position>
              <LatitudeDegrees>44.2889641597867</LatitudeDegrees>
              <LongitudeDegrees>-81.59128798171878</LongitudeDegrees>
            </Position>
            <AltitudeMeters>181.39999389648438</AltitudeMeters>
            <DistanceMeters>663.9299926757812</DistanceMeters>
            <HeartRateBpm>
              <Value>94</Value>
            </HeartRateBpm>
            <Extensions>
              <ns3:TPX>
                <ns3:Speed>0.0</ns3:Speed>
              </ns3:TPX>
            </Extensions>
          </Trackpoint>
          <Trackpoint>
            <Time>2026-07-29T15:08:58.000Z</Time>
            <Position>
              <LatitudeDegrees>44.28896650671959</LatitudeDegrees>
              <LongitudeDegrees>-81.59129301086068</LongitudeDegrees>
            </Position>
            <AltitudeMeters>181.39999389648438</AltitudeMeters>
            <DistanceMeters>664.1400146484375</DistanceMeters>
            <HeartRateBpm>
              <Value>91</Value>
            </HeartRateBpm>
            <Extensions>
              <ns3:TPX>
                <ns3:Speed>0.0</ns3:Speed>
              </ns3:TPX>
            </Extensions>
          </Trackpoint>
          <Trackpoint>
            <Time>2026-07-29T15:08:59.000Z</Time>
            <Position>
              <LatitudeDegrees>44.28896650671959</LatitudeDegrees>
              <LongitudeDegrees>-81.59129301086068</LongitudeDegrees>
            </Position>
            <AltitudeMeters>181.39999389648438</AltitudeMeters>
            <DistanceMeters>664.1400146484375</DistanceMeters>
            <HeartRateBpm>
              <Value>91</Value>
            </HeartRateBpm>
            <Extensions>
              <ns3:TPX>
                <ns3:Speed>0.0</ns3:Speed>
              </ns3:TPX>
            </Extensions>
          </Trackpoint>
          <Trackpoint>
            <Time>2026-07-29T15:09:03.000Z</Time>
            <Position>
              <LatitudeDegrees>44.28896617144346</LatitudeDegrees>
              <LongitudeDegrees>-81.59129301086068</LongitudeDegrees>
            </Position>
            <AltitudeMeters>181.8000030517578</AltitudeMeters>
            <DistanceMeters>664.1599731445312</DistanceMeters>
            <HeartRateBpm>
              <Value>88</Value>
            </HeartRateBpm>
            <Extensions>
              <ns3:TPX>
                <ns3:Speed>0.0</ns3:Speed>
              </ns3:TPX>
            </Extensions>
          </Trackpoint>
          <Trackpoint>
            <Time>2026-07-29T15:09:06.000Z</Time>
            <Position>
              <LatitudeDegrees>44.2889660038054</LatitudeDegrees>
              <LongitudeDegrees>-81.59129301086068</LongitudeDegrees>
            </Position>
            <AltitudeMeters>181.8000030517578</AltitudeMeters>
            <DistanceMeters>664.1699829101562</DistanceMeters>
            <HeartRateBpm>
              <Value>84</Value>
            </HeartRateBpm>
            <Extensions>
              <ns3:TPX>
                <ns3:Speed>0.0</ns3:Speed>
              </ns3:TPX>
            </Extensions>
          </Trackpoint>
          <Trackpoint>
            <Time>2026-07-29T15:09:09.000Z</Time>
            <Position>
              <LatitudeDegrees>44.28896516561508</LatitudeDegrees>
              <LongitudeDegrees>-81.59129301086068</LongitudeDegrees>
            </Position>
            <AltitudeMeters>182.0</AltitudeMeters>
            <DistanceMeters>664.219970703125</DistanceMeters>
            <HeartRateBpm>
              <Value>81</Value>
            </HeartRateBpm>
            <Extensions>
              <ns3:TPX>
                <ns3:Speed>0.0</ns3:Speed>
              </ns3:TPX>
            </Extensions>
          </Trackpoint>
          <Trackpoint>
            <Time>2026-07-29T15:09:11.000Z</Time>
            <Position>
              <LatitudeDegrees>44.28896449506283</LatitudeDegrees>
              <LongitudeDegrees>-81.59129401668906</LongitudeDegrees>
            </Position>
            <AltitudeMeters>182.39999389648438</AltitudeMeters>
            <DistanceMeters>664.3200073242188</DistanceMeters>
            <HeartRateBpm>
              <Value>79</Value>
            </HeartRateBpm>
            <Extensions>
              <ns3:TPX>
                <ns3:Speed>0.0</ns3:Speed>
              </ns3:TPX>
            </Extensions>
          </Trackpoint>
          <Trackpoint>
            <Time>2026-07-29T15:09:13.000Z</Time>
            <Position>
              <LatitudeDegrees>44.2889641597867</LatitudeDegrees>
              <LongitudeDegrees>-81.59129468724132</LongitudeDegrees>
            </Position>
            <AltitudeMeters>181.60000610351562</AltitudeMeters>
            <DistanceMeters>664.3400268554688</DistanceMeters>
            <HeartRateBpm>
              <Value>79</Value>
            </HeartRateBpm>
            <Extensions>
              <ns3:TPX>
                <ns3:Speed>0.0</ns3:Speed>
              </ns3:TPX>
            </Extensions>
          </Trackpoint>
        </Track>
        <Extensions>
          <ns3:LX>
            <ns3:AvgSpeed>1.0989999771118164</ns3:AvgSpeed>
          </ns3:LX>
        </Extensions>
      </Lap>
      <Creator xsi:type="Device_t">
        <Name>vívoactive 4</Name>
        <UnitId>3432774097</UnitId>
        <ProductID>3225</ProductID>
        <Version>
          <VersionMajor>8</VersionMajor>
          <VersionMinor>30</VersionMinor>
          <BuildMajor>0</BuildMajor>
          <BuildMinor>0</BuildMinor>
        </Version>
      </Creator>
    </Activity>
  </Activities>
  <Author xsi:type="Application_t">
    <Name>Connect Api</Name>
    <Build>
      <Version>
        <VersionMajor>26</VersionMajor>
        <VersionMinor>15</VersionMinor>
        <BuildMajor>0</BuildMajor>
        <BuildMinor>0</BuildMinor>
      </Version>
    </Build>
    <LangID>en</LangID>
    <PartNumber>006-D2449-00</PartNumber>
  </Author>
</TrainingCenterDatabase>
