<?xml version="1.0" encoding="UTF-8"?>
<TrainingCenterDatabase
  xsi:schemaLocation="http://www.garmin.com/xmlschemas/TrainingCenterDatabase/v2 http://www.garmin.com/xmlschemas/TrainingCenterDatabasev2.xsd"
  xmlns:ns5="http://www.garmin.com/xmlschemas/ActivityGoals/v1"
  xmlns:ns3="http://www.garmin.com/xmlschemas/ActivityExtension/v2"
  xmlns:ns2="http://www.garmin.com/xmlschemas/UserProfile/v2"
  xmlns="http://www.garmin.com/xmlschemas/TrainingCenterDatabase/v2"
  xmlns:xsi="http://www.w3.org/2001/XMLSchema-instance" xmlns:ns4="http://www.garmin.com/xmlschemas/ProfileExtension/v1">
  <Activities>
    <Activity Sport="Other">
      <Id>2025-08-05T17:55:34.000Z</Id>
      <Lap StartTime="2025-08-05T17:55:34.000Z">
        <TotalTimeSeconds>819.421</TotalTimeSeconds>
        <DistanceMeters>2360.86</DistanceMeters>
        <MaximumSpeed>4.7769999504089355</MaximumSpeed>
        <Calories>231</Calories>
        <Intensity>Active</Intensity>
        <TriggerMethod>Manual</TriggerMethod>
        <Track>
          <Trackpoint>
            <Time>2025-08-05T17:55:34.000Z</Time>
            <Position>
              <LatitudeDegrees>44.289116794243455</LatitudeDegrees>
              <LongitudeDegrees>-81.59169416874647</LongitudeDegrees>
            </Position>
            <AltitudeMeters>175.0</AltitudeMeters>
            <DistanceMeters>0.0</DistanceMeters>
            <Extensions>
              <ns3:TPX>
                <ns3:Speed>0.46700000762939453</ns3:Speed>
              </ns3:TPX>
            </Extensions>
          </Trackpoint>
          <Trackpoint>
            <Time>2025-08-05T17:55:41.000Z</Time>
            <Position>
              <LatitudeDegrees>44.289104053750634</LatitudeDegrees>
              <LongitudeDegrees>-81.59167262725532</LongitudeDegrees>
            </Position>
            <AltitudeMeters>175.0</AltitudeMeters>
            <DistanceMeters>4.820000171661377</DistanceMeters>
            <Extensions>
              <ns3:TPX>
                <ns3:Speed>0.4390000104904175</ns3:Speed>
              </ns3:TPX>
            </Extensions>
          </Trackpoint>
          <Trackpoint>
            <Time>2025-08-05T17:55:50.000Z</Time>
            <Position>
              <LatitudeDegrees>44.2891142796725</LatitudeDegrees>
              <LongitudeDegrees>-81.59172057174146</LongitudeDegrees>
            </Position>
            <AltitudeMeters>175.0</AltitudeMeters>
            <DistanceMeters>8.479999542236328</DistanceMeters>
            <Extensions>
              <ns3:TPX>
                <ns3:Speed>0.4390000104904175</ns3:Speed>
              </ns3:TPX>
            </Extensions>
          </Trackpoint>
          <Trackpoint>
            <Time>2025-08-05T17:55:56.000Z</Time>
            <Position>
              <LatitudeDegrees>44.28911369293928</LatitudeDegrees>
              <LongitudeDegrees>-81.59178310073912</LongitudeDegrees>
            </Position>
            <AltitudeMeters>175.0</AltitudeMeters>
            <DistanceMeters>13.430000305175781</DistanceMeters>
            <Extensions>
              <ns3:TPX>
                <ns3:Speed>0.8489999771118164</ns3:Speed>
              </ns3:TPX>
            </Extensions>
          </Trackpoint>
          <Trackpoint>
            <Time>2025-08-05T17:55:57.000Z</Time>
            <Position>
              <LatitudeDegrees>44.28911059163511</LatitudeDegrees>
              <LongitudeDegrees>-81.59180221147835</LongitudeDegrees>
            </Position>
            <AltitudeMeters>175.0</AltitudeMeters>
            <DistanceMeters>14.989999771118164</DistanceMeters>
            <Extensions>
              <ns3:TPX>
                <ns3:Speed>1.4739999771118164</ns3:Speed>
              </ns3:TPX>
            </Extensions>
          </Trackpoint>
          <Trackpoint>
            <Time>2025-08-05T17:56:02.000Z</Time>
            <Position>
              <LatitudeDegrees>44.289100114256144</LatitudeDegrees>
              <LongitudeDegrees>-81.59191167913377</LongitudeDegrees>
            </Position>
            <AltitudeMeters>175.0</AltitudeMeters>
            <DistanceMeters>23.75</DistanceMeters>
            <Extensions>
              <ns3:TPX>
                <ns3:Speed>1.6050000190734863</ns3:Speed>
              </ns3:TPX>
            </Extensions>
          </Trackpoint>
          <Trackpoint>
            <Time>2025-08-05T17:56:13.000Z</Time>
            <Position>
              <LatitudeDegrees>44.28910732269287</LatitudeDegrees>
              <LongitudeDegrees>-81.59221493639052</LongitudeDegrees>
            </Position>
            <AltitudeMeters>174.8000030517578</AltitudeMeters>
            <DistanceMeters>48.119998931884766</DistanceMeters>
            <Extensions>
              <ns3:TPX>
                <ns3:Speed>2.2300000190734863</ns3:Speed>
              </ns3:TPX>
            </Extensions>
          </Trackpoint>
          <Trackpoint>
            <Time>2025-08-05T17:56:24.000Z</Time>
            <Position>
              <LatitudeDegrees>44.289111932739615</LatitudeDegrees>
              <LongitudeDegrees>-81.5926145017147</LongitudeDegrees>
            </Position>
            <AltitudeMeters>174.8000030517578</AltitudeMeters>
            <DistanceMeters>80.05000305175781</DistanceMeters>
            <Extensions>
              <ns3:TPX>
                <ns3:Speed>2.8269999027252197</ns3:Speed>
              </ns3:TPX>
            </Extensions>
          </Trackpoint>
          <Trackpoint>
            <Time>2025-08-05T17:56:33.000Z</Time>
            <Position>
              <LatitudeDegrees>44.28915107622743</LatitudeDegrees>
              <LongitudeDegrees>-81.59302974119782</LongitudeDegrees>
            </Position>
            <AltitudeMeters>174.8000030517578</AltitudeMeters>
            <DistanceMeters>113.5199966430664</DistanceMeters>
            <Extensions>
              <ns3:TPX>
                <ns3:Speed>3.7139999866485596</ns3:Speed>
              </ns3:TPX>
            </Extensions>
          </Trackpoint>
          <Trackpoint>
            <Time>2025-08-05T17:56:42.000Z</Time>
            <Position>
              <LatitudeDegrees>44.28920505568385</LatitudeDegrees>
              <LongitudeDegrees>-81.59341153688729</LongitudeDegrees>
            </Position>
            <AltitudeMeters>174.60000610351562</AltitudeMeters>
            <DistanceMeters>144.57000732421875</DistanceMeters>
            <Extensions>
              <ns3:TPX>
                <ns3:Speed>3.5179998874664307</ns3:Speed>
              </ns3:TPX>
            </Extensions>
          </Trackpoint>
          <Trackpoint>
            <Time>2025-08-05T17:56:49.000Z</Time>
            <Position>
              <LatitudeDegrees>44.28923824802041</LatitudeDegrees>
              <LongitudeDegrees>-81.59367389045656</LongitudeDegrees>
            </Position>
            <AltitudeMeters>174.39999389648438</AltitudeMeters>
            <DistanceMeters>165.8300018310547</DistanceMeters>
            <Extensions>
              <ns3:TPX>
                <ns3:Speed>3.1630001068115234</ns3:Speed>
              </ns3:TPX>
            </Extensions>
          </Trackpoint>
          <Trackpoint>
            <Time>2025-08-05T17:56:56.000Z</Time>
            <Position>
              <LatitudeDegrees>44.28926255553961</LatitudeDegrees>
              <LongitudeDegrees>-81.59391612745821</LongitudeDegrees>
            </Position>
            <AltitudeMeters>174.39999389648438</AltitudeMeters>
            <DistanceMeters>185.32000732421875</DistanceMeters>
            <Extensions>
              <ns3:TPX>
                <ns3:Speed>2.8269999027252197</ns3:Speed>
              </ns3:TPX>
            </Extensions>
          </Trackpoint>
          <Trackpoint>
            <Time>2025-08-05T17:57:07.000Z</Time>
            <Position>
              <LatitudeDegrees>44.28931108675897</LatitudeDegrees>
              <LongitudeDegrees>-81.5943434368819</LongitudeDegrees>
            </Position>
            <AltitudeMeters>174.1999969482422</AltitudeMeters>
            <DistanceMeters>219.86000061035156</DistanceMeters>
            <Extensions>
              <ns3:TPX>
                <ns3:Speed>3.1440000534057617</ns3:Speed>
              </ns3:TPX>
            </Extensions>
          </Trackpoint>
          <Trackpoint>
            <Time>2025-08-05T17:57:16.000Z</Time>
            <Position>
              <LatitudeDegrees>44.289332712069154</LatitudeDegrees>
              <LongitudeDegrees>-81.5946936327964</LongitudeDegrees>
            </Position>
            <AltitudeMeters>174.1999969482422</AltitudeMeters>
            <DistanceMeters>247.94000244140625</DistanceMeters>
            <Extensions>
              <ns3:TPX>
                <ns3:Speed>3.1630001068115234</ns3:Speed>
              </ns3:TPX>
            </Extensions>
          </Trackpoint>
          <Trackpoint>
            <Time>2025-08-05T17:57:23.000Z</Time>
            <Position>
              <LatitudeDegrees>44.28931527771056</LatitudeDegrees>
              <LongitudeDegrees>-81.59489069133997</LongitudeDegrees>
            </Position>
            <AltitudeMeters>174.1999969482422</AltitudeMeters>
            <DistanceMeters>263.8399963378906</DistanceMeters>
            <Extensions>
              <ns3:TPX>
                <ns3:Speed>2.3510000705718994</ns3:Speed>
              </ns3:TPX>
            </Extensions>
          </Trackpoint>
          <Trackpoint>
            <Time>2025-08-05T17:57:33.000Z</Time>
            <Position>
              <LatitudeDegrees>44.28924168460071</LatitudeDegrees>
              <LongitudeDegrees>-81.59520040266216</LongitudeDegrees>
            </Position>
            <AltitudeMeters>174.0</AltitudeMeters>
            <DistanceMeters>289.8999938964844</DistanceMeters>
            <Extensions>
              <ns3:TPX>
                <ns3:Speed>2.575000047683716</ns3:Speed>
              </ns3:TPX>
            </Extensions>
          </Trackpoint>
          <Trackpoint>
            <Time>2025-08-05T17:57:42.000Z</Time>
            <Position>
              <LatitudeDegrees>44.28916306234896</LatitudeDegrees>
              <LongitudeDegrees>-81.59545462578535</LongitudeDegrees>
            </Position>
            <AltitudeMeters>174.0</AltitudeMeters>
            <DistanceMeters>312.04998779296875</DistanceMeters>
            <Extensions>
              <ns3:TPX>
                <ns3:Speed>2.5190000534057617</ns3:Speed>
              </ns3:TPX>
            </Extensions>
          </Trackpoint>
          <Trackpoint>
            <Time>2025-08-05T17:57:43.000Z</Time>
            <Position>
              <LatitudeDegrees>44.2891610506922</LatitudeDegrees>
              <LongitudeDegrees>-81.59548396244645</LongitudeDegrees>
            </Position>
            <AltitudeMeters>174.0</AltitudeMeters>
            <DistanceMeters>314.3900146484375</DistanceMeters>
            <Extensions>
              <ns3:TPX>
                <ns3:Speed>2.509999990463257</ns3:Speed>
              </ns3:TPX>
            </Extensions>
          </Trackpoint>
          <Trackpoint>
            <Time>2025-08-05T17:57:56.000Z</Time>
            <Position>
              <LatitudeDegrees>44.289143616333604</LatitudeDegrees>
              <LongitudeDegrees>-81.5958868805319</LongitudeDegrees>
            </Position>
            <AltitudeMeters>174.0</AltitudeMeters>
            <DistanceMeters>346.6400146484375</DistanceMeters>
            <Extensions>
              <ns3:TPX>
                <ns3:Speed>2.5190000534057617</ns3:Speed>
              </ns3:TPX>
            </Extensions>
          </Trackpoint>
          <Trackpoint>
            <Time>2025-08-05T17:58:04.000Z</Time>
            <Position>
              <LatitudeDegrees>44.28910983726382</LatitudeDegrees>
              <LongitudeDegrees>-81.59611662849784</LongitudeDegrees>
            </Position>
            <AltitudeMeters>173.8000030517578</AltitudeMeters>
            <DistanceMeters>365.3599853515625</DistanceMeters>
            <Extensions>
              <ns3:TPX>
                <ns3:Speed>2.369999885559082</ns3:Speed>
              </ns3:TPX>
            </Extensions>
          </Trackpoint>
          <Trackpoint>
            <Time>2025-08-05T17:58:18.000Z</Time>
            <Position>
              <LatitudeDegrees>44.28904948756099</LatitudeDegrees>
              <LongitudeDegrees>-81.59653010778129</LongitudeDegrees>
            </Position>
            <AltitudeMeters>174.0</AltitudeMeters>
            <DistanceMeters>399.07000732421875</DistanceMeters>
            <Extensions>
              <ns3:TPX>
                <ns3:Speed>2.4630000591278076</ns3:Speed>
              </ns3:TPX>
            </Extensions>
          </Trackpoint>
          <Trackpoint>
            <Time>2025-08-05T17:58:31.000Z</Time>
            <Position>
              <LatitudeDegrees>44.28898804821074</LatitudeDegrees>
              <LongitudeDegrees>-81.59685691818595</LongitudeDegrees>
            </Position>
            <AltitudeMeters>173.8000030517578</AltitudeMeters>
            <DistanceMeters>426.0199890136719</DistanceMeters>
            <Extensions>
              <ns3:TPX>
                <ns3:Speed>2.118000030517578</ns3:Speed>
              </ns3:TPX>
            </Extensions>
          </Trackpoint>
          <Trackpoint>
            <Time>2025-08-05T17:58:39.000Z</Time>
            <Position>
              <LatitudeDegrees>44.288994669914246</LatitudeDegrees>
              <LongitudeDegrees>-81.59708322957158</LongitudeDegrees>
            </Position>
            <AltitudeMeters>174.0</AltitudeMeters>
            <DistanceMeters>444.3299865722656</DistanceMeters>
            <Extensions>
              <ns3:TPX>
                <ns3:Speed>2.183000087738037</ns3:Speed>
              </ns3:TPX>
            </Extensions>
          </Trackpoint>
          <Trackpoint>
            <Time>2025-08-05T17:58:49.000Z</Time>
            <Position>
              <LatitudeDegrees>44.289074800908566</LatitudeDegrees>
              <LongitudeDegrees>-81.59744432196021</LongitudeDegrees>
            </Position>
            <AltitudeMeters>173.8000030517578</AltitudeMeters>
            <DistanceMeters>474.510009765625</DistanceMeters>
            <Extensions>
              <ns3:TPX>
                <ns3:Speed>2.9110000133514404</ns3:Speed>
              </ns3:TPX>
            </Extensions>
          </Trackpoint>
          <Trackpoint>
            <Time>2025-08-05T17:58:58.000Z</Time>
            <Position>
              <LatitudeDegrees>44.2891404312104</LatitudeDegrees>
              <LongitudeDegrees>-81.59778068773448</LongitudeDegrees>
            </Position>
            <AltitudeMeters>173.8000030517578</AltitudeMeters>
            <DistanceMeters>502.3599853515625</DistanceMeters>
            <Extensions>
              <ns3:TPX>
                <ns3:Speed>3.25600004196167</ns3:Speed>
              </ns3:TPX>
            </Extensions>
          </Trackpoint>
          <Trackpoint>
            <Time>2025-08-05T17:59:07.000Z</Time>
            <Position>
              <LatitudeDegrees>44.2891782335937</LatitudeDegrees>
              <LongitudeDegrees>-81.5980852022767</LongitudeDegrees>
            </Position>
            <AltitudeMeters>173.8000030517578</AltitudeMeters>
            <DistanceMeters>527.02001953125</DistanceMeters>
            <Extensions>
              <ns3:TPX>
                <ns3:Speed>2.7060000896453857</ns3:Speed>
              </ns3:TPX>
            </Extensions>
          </Trackpoint>
          <Trackpoint>
            <Time>2025-08-05T17:59:19.000Z</Time>
            <Position>
              <LatitudeDegrees>44.289218382909894</LatitudeDegrees>
              <LongitudeDegrees>-81.59854084253311</LongitudeDegrees>
            </Position>
            <AltitudeMeters>173.8000030517578</AltitudeMeters>
            <DistanceMeters>563.6599731445312</DistanceMeters>
            <Extensions>
              <ns3:TPX>
                <ns3:Speed>3.0510001182556152</ns3:Speed>
              </ns3:TPX>
            </Extensions>
          </Trackpoint>
          <Trackpoint>
            <Time>2025-08-05T17:59:29.000Z</Time>
            <Position>
              <LatitudeDegrees>44.28922609426081</LatitudeDegrees>
              <LongitudeDegrees>-81.5988679882139</LongitudeDegrees>
            </Position>
            <AltitudeMeters>173.60000610351562</AltitudeMeters>
            <DistanceMeters>589.7899780273438</DistanceMeters>
            <Extensions>
              <ns3:TPX>
                <ns3:Speed>2.5940001010894775</ns3:Speed>
              </ns3:TPX>
            </Extensions>
          </Trackpoint>
          <Trackpoint>
            <Time>2025-08-05T17:59:40.000Z</Time>
            <Position>
              <LatitudeDegrees>44.289243780076504</LatitudeDegrees>
              <LongitudeDegrees>-81.59932270646095</LongitudeDegrees>
            </Position>
            <AltitudeMeters>173.8000030517578</AltitudeMeters>
            <DistanceMeters>626.1500244140625</DistanceMeters>
            <Extensions>
              <ns3:TPX>
                <ns3:Speed>3.2750000953674316</ns3:Speed>
              </ns3:TPX>
            </Extensions>
          </Trackpoint>
          <Trackpoint>
            <Time>2025-08-05T17:59:50.000Z</Time>
            <Position>
              <LatitudeDegrees>44.2892923951149</LatitudeDegrees>
              <LongitudeDegrees>-81.59969159401953</LongitudeDegrees>
            </Position>
            <AltitudeMeters>173.60000610351562</AltitudeMeters>
            <DistanceMeters>656.239990234375</DistanceMeters>
            <Extensions>
              <ns3:TPX>
                <ns3:Speed>2.7899999618530273</ns3:Speed>
              </ns3:TPX>
            </Extensions>
          </Trackpoint>
          <Trackpoint>
            <Time>2025-08-05T18:00:02.000Z</Time>
            <Position>
              <LatitudeDegrees>44.28937688469887</LatitudeDegrees>
              <LongitudeDegrees>-81.60007121041417</LongitudeDegrees>
            </Position>
            <AltitudeMeters>173.60000610351562</AltitudeMeters>
            <DistanceMeters>687.969970703125</DistanceMeters>
            <Extensions>
              <ns3:TPX>
                <ns3:Speed>2.6500000953674316</ns3:Speed>
              </ns3:TPX>
            </Extensions>
          </Trackpoint>
          <Trackpoint>
            <Time>2025-08-05T18:00:12.000Z</Time>
            <Position>
              <LatitudeDegrees>44.28941787220538</LatitudeDegrees>
              <LongitudeDegrees>-81.60035477019846</LongitudeDegrees>
            </Position>
            <AltitudeMeters>173.39999389648438</AltitudeMeters>
            <DistanceMeters>711.1799926757812</DistanceMeters>
            <Extensions>
              <ns3:TPX>
                <ns3:Speed>2.4170000553131104</ns3:Speed>
              </ns3:TPX>
            </Extensions>
          </Trackpoint>
          <Trackpoint>
            <Time>2025-08-05T18:00:23.000Z</Time>
            <Position>
              <LatitudeDegrees>44.28951082751155</LatitudeDegrees>
              <LongitudeDegrees>-81.60066984593868</LongitudeDegrees>
            </Position>
            <AltitudeMeters>173.1999969482422</AltitudeMeters>
            <DistanceMeters>738.4099731445312</DistanceMeters>
            <Extensions>
              <ns3:TPX>
                <ns3:Speed>2.4820001125335693</ns3:Speed>
              </ns3:TPX>
            </Extensions>
          </Trackpoint>
          <Trackpoint>
            <Time>2025-08-05T18:00:34.000Z</Time>
            <Position>
              <LatitudeDegrees>44.28966513834894</LatitudeDegrees>
              <LongitudeDegrees>-81.6010280046612</LongitudeDegrees>
            </Position>
            <AltitudeMeters>173.39999389648438</AltitudeMeters>
            <DistanceMeters>771.77001953125</DistanceMeters>
            <Extensions>
              <ns3:TPX>
                <ns3:Speed>3.069999933242798</ns3:Speed>
              </ns3:TPX>
            </Extensions>
          </Trackpoint>
          <Trackpoint>
            <Time>2025-08-05T18:00:40.000Z</Time>
            <Position>
              <LatitudeDegrees>44.289710987359285</LatitudeDegrees>
              <LongitudeDegrees>-81.60118835046887</LongitudeDegrees>
            </Position>
            <AltitudeMeters>173.1999969482422</AltitudeMeters>
            <DistanceMeters>785.5399780273438</DistanceMeters>
            <Extensions>
              <ns3:TPX>
                <ns3:Speed>2.4170000553131104</ns3:Speed>
              </ns3:TPX>
            </Extensions>
          </Trackpoint>
          <Trackpoint>
            <Time>2025-08-05T18:00:55.000Z</Time>
            <Position>
              <LatitudeDegrees>44.289843924343586</LatitudeDegrees>
              <LongitudeDegrees>-81.60160828381777</LongitudeDegrees>
            </Position>
            <AltitudeMeters>173.39999389648438</AltitudeMeters>
            <DistanceMeters>822.239990234375</DistanceMeters>
            <Extensions>
              <ns3:TPX>
                <ns3:Speed>2.4170000553131104</ns3:Speed>
              </ns3:TPX>
            </Extensions>
          </Trackpoint>
          <Trackpoint>
            <Time>2025-08-05T18:01:06.000Z</Time>
            <Position>
              <LatitudeDegrees>44.28993361070752</LatitudeDegrees>
              <LongitudeDegrees>-81.60198027268052</LongitudeDegrees>
            </Position>
            <AltitudeMeters>173.0</AltitudeMeters>
            <DistanceMeters>853.5900268554688</DistanceMeters>
            <Extensions>
              <ns3:TPX>
                <ns3:Speed>2.9110000133514404</ns3:Speed>
              </ns3:TPX>
            </Extensions>
          </Trackpoint>
          <Trackpoint>
            <Time>2025-08-05T18:01:16.000Z</Time>
            <Position>
              <LatitudeDegrees>44.29000594653189</LatitudeDegrees>
              <LongitudeDegrees>-81.60222527571023</LongitudeDegrees>
            </Position>
            <AltitudeMeters>173.1999969482422</AltitudeMeters>
            <DistanceMeters>874.75</DistanceMeters>
            <Extensions>
              <ns3:TPX>
                <ns3:Speed>2.1089999675750732</ns3:Speed>
              </ns3:TPX>
            </Extensions>
          </Trackpoint>
          <Trackpoint>
            <Time>2025-08-05T18:01:26.000Z</Time>
            <Position>
              <LatitudeDegrees>44.290044168010354</LatitudeDegrees>
              <LongitudeDegrees>-81.6024680994451</LongitudeDegrees>
            </Position>
            <AltitudeMeters>173.1999969482422</AltitudeMeters>
            <DistanceMeters>894.8300170898438</DistanceMeters>
            <Extensions>
              <ns3:TPX>
                <ns3:Speed>2.2019999027252197</ns3:Speed>
              </ns3:TPX>
            </Extensions>
          </Trackpoint>
          <Trackpoint>
            <Time>2025-08-05T18:01:36.000Z</Time>
            <Position>
              <LatitudeDegrees>44.29003578610718</LatitudeDegrees>
              <LongitudeDegrees>-81.602782336995</LongitudeDegrees>
            </Position>
            <AltitudeMeters>172.8000030517578</AltitudeMeters>
            <DistanceMeters>920.0499877929688</DistanceMeters>
            <Extensions>
              <ns3:TPX>
                <ns3:Speed>2.434999942779541</ns3:Speed>
              </ns3:TPX>
            </Extensions>
          </Trackpoint>
          <Trackpoint>
            <Time>2025-08-05T18:01:45.000Z</Time>
            <Position>
              <LatitudeDegrees>44.29009638726711</LatitudeDegrees>
              <LongitudeDegrees>-81.60310336388648</LongitudeDegrees>
            </Position>
            <AltitudeMeters>172.8000030517578</AltitudeMeters>
            <DistanceMeters>946.5399780273438</DistanceMeters>
            <Extensions>
              <ns3:TPX>
                <ns3:Speed>2.994999885559082</ns3:Speed>
              </ns3:TPX>
            </Extensions>
          </Trackpoint>
          <Trackpoint>
            <Time>2025-08-05T18:01:54.000Z</Time>
            <Position>
              <LatitudeDegrees>44.29012941196561</LatitudeDegrees>
              <LongitudeDegrees>-81.6033711656928</LongitudeDegrees>
            </Position>
            <AltitudeMeters>172.8000030517578</AltitudeMeters>
            <DistanceMeters>968.27001953125</DistanceMeters>
            <Extensions>
              <ns3:TPX>
                <ns3:Speed>2.3889999389648438</ns3:Speed>
              </ns3:TPX>
            </Extensions>
          </Trackpoint>
          <Trackpoint>
            <Time>2025-08-05T18:02:08.000Z</Time>
            <Position>
              <LatitudeDegrees>44.290168806910515</LatitudeDegrees>
              <LongitudeDegrees>-81.60385094583035</LongitudeDegrees>
            </Position>
            <AltitudeMeters>172.8000030517578</AltitudeMeters>
            <DistanceMeters>1006.8300170898438</DistanceMeters>
            <Extensions>
              <ns3:TPX>
                <ns3:Speed>2.9110000133514404</ns3:Speed>
              </ns3:TPX>
            </Extensions>
          </Trackpoint>
          <Trackpoint>
            <Time>2025-08-05T18:02:17.000Z</Time>
            <Position>
              <LatitudeDegrees>44.290219685062766</LatitudeDegrees>
              <LongitudeDegrees>-81.60424120724201</LongitudeDegrees>
            </Position>
            <AltitudeMeters>172.8000030517578</AltitudeMeters>
            <DistanceMeters>1038.489990234375</DistanceMeters>
            <Extensions>
              <ns3:TPX>
                <ns3:Speed>3.5360000133514404</ns3:Speed>
              </ns3:TPX>
            </Extensions>
          </Trackpoint>
          <Trackpoint>
            <Time>2025-08-05T18:02:30.000Z</Time>
            <Position>
              <LatitudeDegrees>44.29026184603572</LatitudeDegrees>
              <LongitudeDegrees>-81.60483757965267</LongitudeDegrees>
            </Position>
            <AltitudeMeters>172.8000030517578</AltitudeMeters>
            <DistanceMeters>1086.469970703125</DistanceMeters>
            <Extensions>
              <ns3:TPX>
                <ns3:Speed>3.6670000553131104</ns3:Speed>
              </ns3:TPX>
            </Extensions>
          </Trackpoint>
          <Trackpoint>
            <Time>2025-08-05T18:02:40.000Z</Time>
            <Position>
              <LatitudeDegrees>44.29024818353355</LatitudeDegrees>
              <LongitudeDegrees>-81.60535985603929</LongitudeDegrees>
            </Position>
            <AltitudeMeters>173.0</AltitudeMeters>
            <DistanceMeters>1128.25</DistanceMeters>
            <Extensions>
              <ns3:TPX>
                <ns3:Speed>4.198999881744385</ns3:Speed>
              </ns3:TPX>
            </Extensions>
          </Trackpoint>
          <Trackpoint>
            <Time>2025-08-05T18:02:48.000Z</Time>
            <Position>
              <LatitudeDegrees>44.290293864905834</LatitudeDegrees>
              <LongitudeDegrees>-81.60568809136748</LongitudeDegrees>
            </Position>
            <AltitudeMeters>173.0</AltitudeMeters>
            <DistanceMeters>1155.010009765625</DistanceMeters>
            <Extensions>
              <ns3:TPX>
                <ns3:Speed>2.6589999198913574</ns3:Speed>
              </ns3:TPX>
            </Extensions>
          </Trackpoint>
          <Trackpoint>
            <Time>2025-08-05T18:02:55.000Z</Time>
            <Position>
              <LatitudeDegrees>44.29034499451518</LatitudeDegrees>
              <LongitudeDegrees>-81.60589051432908</LongitudeDegrees>
            </Position>
            <AltitudeMeters>172.8000030517578</AltitudeMeters>
            <DistanceMeters>1172.199951171875</DistanceMeters>
            <Extensions>
              <ns3:TPX>
                <ns3:Speed>2.4539999961853027</ns3:Speed>
              </ns3:TPX>
            </Extensions>
          </Trackpoint>
          <Trackpoint>
            <Time>2025-08-05T18:03:05.000Z</Time>
            <Position>
              <LatitudeDegrees>44.290394112467766</LatitudeDegrees>
              <LongitudeDegrees>-81.60610944963992</LongitudeDegrees>
            </Position>
            <AltitudeMeters>173.0</AltitudeMeters>
            <DistanceMeters>1190.5400390625</DistanceMeters>
            <Extensions>
              <ns3:TPX>
                <ns3:Speed>0.5230000019073486</ns3:Speed>
              </ns3:TPX>
            </Extensions>
          </Trackpoint>
          <Trackpoint>
            <Time>2025-08-05T18:03:09.000Z</Time>
            <Position>
              <LatitudeDegrees>44.290407774969935</LatitudeDegrees>
              <LongitudeDegrees>-81.60610182210803</LongitudeDegrees>
            </Position>
            <AltitudeMeters>172.60000610351562</AltitudeMeters>
            <DistanceMeters>1192.5999755859375</DistanceMeters>
            <Extensions>
              <ns3:TPX>
                <ns3:Speed>0.9049999713897705</ns3:Speed>
              </ns3:TPX>
            </Extensions>
          </Trackpoint>
          <Trackpoint>
            <Time>2025-08-05T18:03:10.000Z</Time>
            <Position>
              <LatitudeDegrees>44.29041246883571</LatitudeDegrees>
              <LongitudeDegrees>-81.60609017126262</LongitudeDegrees>
            </Position>
            <AltitudeMeters>172.39999389648438</AltitudeMeters>
            <DistanceMeters>1193.6700439453125</DistanceMeters>
            <Extensions>
              <ns3:TPX>
                <ns3:Speed>0.9049999713897705</ns3:Speed>
              </ns3:TPX>
            </Extensions>
          </Trackpoint>
          <Trackpoint>
            <Time>2025-08-05T18:03:11.000Z</Time>
            <Position>
              <LatitudeDegrees>44.290413558483124</LatitudeDegrees>
              <LongitudeDegrees>-81.60607323981822</LongitudeDegrees>
            </Position>
            <AltitudeMeters>172.0</AltitudeMeters>
            <DistanceMeters>1194.97998046875</DistanceMeters>
            <Extensions>
              <ns3:TPX>
                <ns3:Speed>1.0540000200271606</ns3:Speed>
              </ns3:TPX>
            </Extensions>
          </Trackpoint>
          <Trackpoint>
            <Time>2025-08-05T18:03:12.000Z</Time>
            <Position>
              <LatitudeDegrees>44.290415151044726</LatitudeDegrees>
              <LongitudeDegrees>-81.6060533747077</LongitudeDegrees>
            </Position>
            <AltitudeMeters>172.0</AltitudeMeters>
            <DistanceMeters>1196.5699462890625</DistanceMeters>
            <Extensions>
              <ns3:TPX>
                <ns3:Speed>1.5299999713897705</ns3:Speed>
              </ns3:TPX>
            </Extensions>
          </Trackpoint>
          <Trackpoint>
            <Time>2025-08-05T18:03:16.000Z</Time>
            <Position>
              <LatitudeDegrees>44.290412133559585</LatitudeDegrees>
              <LongitudeDegrees>-81.60594667308033</LongitudeDegrees>
            </Position>
            <AltitudeMeters>172.1999969482422</AltitudeMeters>
            <DistanceMeters>1205.1300048828125</DistanceMeters>
            <Extensions>
              <ns3:TPX>
                <ns3:Speed>2.2950000762939453</ns3:Speed>
              </ns3:TPX>
            </Extensions>
          </Trackpoint>
          <Trackpoint>
            <Time>2025-08-05T18:03:25.000Z</Time>
            <Position>
              <LatitudeDegrees>44.290405344218016</LatitudeDegrees>
              <LongitudeDegrees>-81.60565255209804</LongitudeDegrees>
            </Position>
            <AltitudeMeters>172.8000030517578</AltitudeMeters>
            <DistanceMeters>1228.6500244140625</DistanceMeters>
            <Extensions>
              <ns3:TPX>
                <ns3:Speed>2.3889999389648438</ns3:Speed>
              </ns3:TPX>
            </Extensions>
          </Trackpoint>
          <Trackpoint>
            <Time>2025-08-05T18:03:33.000Z</Time>
            <Position>
              <LatitudeDegrees>44.29041188210249</LatitudeDegrees>
              <LongitudeDegrees>-81.60537661984563</LongitudeDegrees>
            </Position>
            <AltitudeMeters>172.60000610351562</AltitudeMeters>
            <DistanceMeters>1250.6700439453125</DistanceMeters>
            <Extensions>
              <ns3:TPX>
                <ns3:Speed>2.5190000534057617</ns3:Speed>
              </ns3:TPX>
            </Extensions>
          </Trackpoint>
          <Trackpoint>
            <Time>2025-08-05T18:03:43.000Z</Time>
            <Position>
              <LatitudeDegrees>44.29038790985942</LatitudeDegrees>
              <LongitudeDegrees>-81.60498895682395</LongitudeDegrees>
            </Position>
            <AltitudeMeters>172.1999969482422</AltitudeMeters>
            <DistanceMeters>1281.8699951171875</DistanceMeters>
            <Extensions>
              <ns3:TPX>
                <ns3:Speed>2.874000072479248</ns3:Speed>
              </ns3:TPX>
            </Extensions>
          </Trackpoint>
          <Trackpoint>
            <Time>2025-08-05T18:03:50.000Z</Time>
            <Position>
              <LatitudeDegrees>44.29036452434957</LatitudeDegrees>
              <LongitudeDegrees>-81.60468502901495</LongitudeDegrees>
            </Position>
            <AltitudeMeters>173.0</AltitudeMeters>
            <DistanceMeters>1306.300048828125</DistanceMeters>
            <Extensions>
              <ns3:TPX>
                <ns3:Speed>3.3589999675750732</ns3:Speed>
              </ns3:TPX>
            </Extensions>
          </Trackpoint>
          <Trackpoint>
            <Time>2025-08-05T18:03:52.000Z</Time>
            <Position>
              <LatitudeDegrees>44.29036402143538</LatitudeDegrees>
              <LongitudeDegrees>-81.60459844395518</LongitudeDegrees>
            </Position>
            <AltitudeMeters>173.1999969482422</AltitudeMeters>
            <DistanceMeters>1313.2099609375</DistanceMeters>
            <Extensions>
              <ns3:TPX>
                <ns3:Speed>3.4800000190734863</ns3:Speed>
              </ns3:TPX>
            </Extensions>
          </Trackpoint>
          <Trackpoint>
            <Time>2025-08-05T18:04:01.000Z</Time>
            <Position>
              <LatitudeDegrees>44.29031850770116</LatitudeDegrees>
              <LongitudeDegrees>-81.60420809872448</LongitudeDegrees>
            </Position>
            <AltitudeMeters>172.39999389648438</AltitudeMeters>
            <DistanceMeters>1344.7900390625</DistanceMeters>
            <Extensions>
              <ns3:TPX>
                <ns3:Speed>3.499000072479248</ns3:Speed>
              </ns3:TPX>
            </Extensions>
          </Trackpoint>
          <Trackpoint>
            <Time>2025-08-05T18:04:13.000Z</Time>
            <Position>
              <LatitudeDegrees>44.2902765981853</LatitudeDegrees>
              <LongitudeDegrees>-81.60374608822167</LongitudeDegrees>
            </Position>
            <AltitudeMeters>172.60000610351562</AltitudeMeters>
            <DistanceMeters>1381.969970703125</DistanceMeters>
            <Extensions>
              <ns3:TPX>
                <ns3:Speed>3.069999933242798</ns3:Speed>
              </ns3:TPX>
            </Extensions>
          </Trackpoint>
          <Trackpoint>
            <Time>2025-08-05T18:04:26.000Z</Time>
            <Position>
              <LatitudeDegrees>44.2902213614434</LatitudeDegrees>
              <LongitudeDegrees>-81.60323093645275</LongitudeDegrees>
            </Position>
            <AltitudeMeters>172.8000030517578</AltitudeMeters>
            <DistanceMeters>1423.5799560546875</DistanceMeters>
            <Extensions>
              <ns3:TPX>
                <ns3:Speed>3.181999921798706</ns3:Speed>
              </ns3:TPX>
            </Extensions>
          </Trackpoint>
          <Trackpoint>
            <Time>2025-08-05T18:04:36.000Z</Time>
            <Position>
              <LatitudeDegrees>44.29018523544073</LatitudeDegrees>
              <LongitudeDegrees>-81.60286297090352</LongitudeDegrees>
            </Position>
            <AltitudeMeters>173.60000610351562</AltitudeMeters>
            <DistanceMeters>1453.219970703125</DistanceMeters>
            <Extensions>
              <ns3:TPX>
                <ns3:Speed>3.0880000591278076</ns3:Speed>
              </ns3:TPX>
            </Extensions>
          </Trackpoint>
          <Trackpoint>
            <Time>2025-08-05T18:04:43.000Z</Time>
            <Position>
              <LatitudeDegrees>44.290165873244405</LatitudeDegrees>
              <LongitudeDegrees>-81.60261461511254</LongitudeDegrees>
            </Position>
            <AltitudeMeters>173.60000610351562</AltitudeMeters>
            <DistanceMeters>1473.199951171875</DistanceMeters>
            <Extensions>
              <ns3:TPX>
                <ns3:Speed>2.9210000038146973</ns3:Speed>
              </ns3:TPX>
            </Extensions>
          </Trackpoint>
          <Trackpoint>
            <Time>2025-08-05T18:04:50.000Z</Time>
            <Position>
              <LatitudeDegrees>44.29012916050851</LatitudeDegrees>
              <LongitudeDegrees>-81.60238553769886</LongitudeDegrees>
            </Position>
            <AltitudeMeters>173.39999389648438</AltitudeMeters>
            <DistanceMeters>1491.9599609375</DistanceMeters>
            <Extensions>
              <ns3:TPX>
                <ns3:Speed>2.818000078201294</ns3:Speed>
              </ns3:TPX>
            </Extensions>
          </Trackpoint>
          <Trackpoint>
            <Time>2025-08-05T18:05:00.000Z</Time>
            <Position>
              <LatitudeDegrees>44.29005020298064</LatitudeDegrees>
              <LongitudeDegrees>-81.60211170092225</LongitudeDegrees>
            </Position>
            <AltitudeMeters>173.39999389648438</AltitudeMeters>
            <DistanceMeters>1515.5</DistanceMeters>
            <Extensions>
              <ns3:TPX>
                <ns3:Speed>2.3610000610351562</ns3:Speed>
              </ns3:TPX>
            </Extensions>
          </Trackpoint>
          <Trackpoint>
            <Time>2025-08-05T18:05:08.000Z</Time>
            <Position>
              <LatitudeDegrees>44.28999253548682</LatitudeDegrees>
              <LongitudeDegrees>-81.60186527296901</LongitudeDegrees>
            </Position>
            <AltitudeMeters>173.39999389648438</AltitudeMeters>
            <DistanceMeters>1536.239990234375</DistanceMeters>
            <Extensions>
              <ns3:TPX>
                <ns3:Speed>2.556999921798706</ns3:Speed>
              </ns3:TPX>
            </Extensions>
          </Trackpoint>
          <Trackpoint>
            <Time>2025-08-05T18:05:19.000Z</Time>
            <Position>
              <LatitudeDegrees>44.289974849671125</LatitudeDegrees>
              <LongitudeDegrees>-81.60145715810359</LongitudeDegrees>
            </Position>
            <AltitudeMeters>173.60000610351562</AltitudeMeters>
            <DistanceMeters>1568.8900146484375</DistanceMeters>
            <Extensions>
              <ns3:TPX>
                <ns3:Speed>2.9670000076293945</ns3:Speed>
              </ns3:TPX>
            </Extensions>
          </Trackpoint>
          <Trackpoint>
            <Time>2025-08-05T18:05:29.000Z</Time>
            <Position>
              <LatitudeDegrees>44.28994098678231</LatitudeDegrees>
              <LongitudeDegrees>-81.60105147399008</LongitudeDegrees>
            </Position>
            <AltitudeMeters>173.8000030517578</AltitudeMeters>
            <DistanceMeters>1601.530029296875</DistanceMeters>
            <Extensions>
              <ns3:TPX>
                <ns3:Speed>3.2100000381469727</ns3:Speed>
              </ns3:TPX>
            </Extensions>
          </Trackpoint>
          <Trackpoint>
            <Time>2025-08-05T18:05:35.000Z</Time>
            <Position>
              <LatitudeDegrees>44.28992757573724</LatitudeDegrees>
              <LongitudeDegrees>-81.60078736022115</LongitudeDegrees>
            </Position>
            <AltitudeMeters>174.0</AltitudeMeters>
            <DistanceMeters>1622.699951171875</DistanceMeters>
            <Extensions>
              <ns3:TPX>
                <ns3:Speed>3.3310000896453857</ns3:Speed>
              </ns3:TPX>
            </Extensions>
          </Trackpoint>
          <Trackpoint>
            <Time>2025-08-05T18:05:41.000Z</Time>
            <Position>
              <LatitudeDegrees>44.289897652342916</LatitudeDegrees>
              <LongitudeDegrees>-81.60049885511398</LongitudeDegrees>
            </Position>
            <AltitudeMeters>174.1999969482422</AltitudeMeters>
            <DistanceMeters>1645.969970703125</DistanceMeters>
            <Extensions>
              <ns3:TPX>
                <ns3:Speed>3.806999921798706</ns3:Speed>
              </ns3:TPX>
            </Extensions>
          </Trackpoint>
          <Trackpoint>
            <Time>2025-08-05T18:05:53.000Z</Time>
            <Position>
              <LatitudeDegrees>44.28982556797564</LatitudeDegrees>
              <LongitudeDegrees>-81.59984313882887</LongitudeDegrees>
            </Position>
            <AltitudeMeters>174.1999969482422</AltitudeMeters>
            <DistanceMeters>1698.9200439453125</DistanceMeters>
            <Extensions>
              <ns3:TPX>
                <ns3:Speed>4.534999847412109</ns3:Speed>
              </ns3:TPX>
            </Extensions>
          </Trackpoint>
          <Trackpoint>
            <Time>2025-08-05T18:06:04.000Z</Time>
            <Position>
              <LatitudeDegrees>44.289743760600686</LatitudeDegrees>
              <LongitudeDegrees>-81.59921248443425</LongitudeDegrees>
            </Position>
            <AltitudeMeters>174.0</AltitudeMeters>
            <DistanceMeters>1750.0999755859375</DistanceMeters>
            <Extensions>
              <ns3:TPX>
                <ns3:Speed>4.627999782562256</ns3:Speed>
              </ns3:TPX>
            </Extensions>
          </Trackpoint>
          <Trackpoint>
            <Time>2025-08-05T18:06:05.000Z</Time>
            <Position>
              <LatitudeDegrees>44.28973671980202</LatitudeDegrees>
              <LongitudeDegrees>-81.59915666095912</LongitudeDegrees>
            </Position>
            <AltitudeMeters>174.0</AltitudeMeters>
            <DistanceMeters>1754.6199951171875</DistanceMeters>
            <Extensions>
              <ns3:TPX>
                <ns3:Speed>4.591000080108643</ns3:Speed>
              </ns3:TPX>
            </Extensions>
          </Trackpoint>
          <Trackpoint>
            <Time>2025-08-05T18:06:18.000Z</Time>
            <Position>
              <LatitudeDegrees>44.28968173451722</LatitudeDegrees>
              <LongitudeDegrees>-81.59853095188737</LongitudeDegrees>
            </Position>
            <AltitudeMeters>173.8000030517578</AltitudeMeters>
            <DistanceMeters>1804.9599609375</DistanceMeters>
            <Extensions>
              <ns3:TPX>
                <ns3:Speed>3.7320001125335693</ns3:Speed>
              </ns3:TPX>
            </Extensions>
          </Trackpoint>
          <Trackpoint>
            <Time>2025-08-05T18:06:25.000Z</Time>
            <Position>
              <LatitudeDegrees>44.289654744789004</LatitudeDegrees>
              <LongitudeDegrees>-81.5982775669545</LongitudeDegrees>
            </Position>
            <AltitudeMeters>173.60000610351562</AltitudeMeters>
            <DistanceMeters>1825.4300537109375</DistanceMeters>
            <Extensions>
              <ns3:TPX>
                <ns3:Speed>3.125999927520752</ns3:Speed>
              </ns3:TPX>
            </Extensions>
          </Trackpoint>
          <Trackpoint>
            <Time>2025-08-05T18:06:35.000Z</Time>
            <Position>
              <LatitudeDegrees>44.28962876088917</LatitudeDegrees>
              <LongitudeDegrees>-81.59794664941728</LongitudeDegrees>
            </Position>
            <AltitudeMeters>173.60000610351562</AltitudeMeters>
            <DistanceMeters>1851.97998046875</DistanceMeters>
            <Extensions>
              <ns3:TPX>
                <ns3:Speed>2.677999973297119</ns3:Speed>
              </ns3:TPX>
            </Extensions>
          </Trackpoint>
          <Trackpoint>
            <Time>2025-08-05T18:06:46.000Z</Time>
            <Position>
              <LatitudeDegrees>44.28960286080837</LatitudeDegrees>
              <LongitudeDegrees>-81.59753375686705</LongitudeDegrees>
            </Position>
            <AltitudeMeters>173.8000030517578</AltitudeMeters>
            <DistanceMeters>1885.06005859375</DistanceMeters>
            <Extensions>
              <ns3:TPX>
                <ns3:Speed>3.069999933242798</ns3:Speed>
              </ns3:TPX>
            </Extensions>
          </Trackpoint>
          <Trackpoint>
            <Time>2025-08-05T18:07:00.000Z</Time>
            <Position>
              <LatitudeDegrees>44.28956371732056</LatitudeDegrees>
              <LongitudeDegrees>-81.59700519405305</LongitudeDegrees>
            </Position>
            <AltitudeMeters>173.60000610351562</AltitudeMeters>
            <DistanceMeters>1927.5</DistanceMeters>
            <Extensions>
              <ns3:TPX>
                <ns3:Speed>3.134999990463257</ns3:Speed>
              </ns3:TPX>
            </Extensions>
          </Trackpoint>
          <Trackpoint>
            <Time>2025-08-05T18:07:10.000Z</Time>
            <Position>
              <LatitudeDegrees>44.28954837843776</LatitudeDegrees>
              <LongitudeDegrees>-81.5966847538948</LongitudeDegrees>
            </Position>
            <AltitudeMeters>173.39999389648438</AltitudeMeters>
            <DistanceMeters>1953.1500244140625</DistanceMeters>
            <Extensions>
              <ns3:TPX>
                <ns3:Speed>2.63100004196167</ns3:Speed>
              </ns3:TPX>
            </Extensions>
          </Trackpoint>
          <Trackpoint>
            <Time>2025-08-05T18:07:20.000Z</Time>
            <Position>
              <LatitudeDegrees>44.28952314890921</LatitudeDegrees>
              <LongitudeDegrees>-81.59630027599633</LongitudeDegrees>
            </Position>
            <AltitudeMeters>173.8000030517578</AltitudeMeters>
            <DistanceMeters>1984.0</DistanceMeters>
            <Extensions>
              <ns3:TPX>
                <ns3:Speed>3.2100000381469727</ns3:Speed>
              </ns3:TPX>
            </Extensions>
          </Trackpoint>
          <Trackpoint>
            <Time>2025-08-05T18:07:30.000Z</Time>
            <Position>
              <LatitudeDegrees>44.28946455940604</LatitudeDegrees>
              <LongitudeDegrees>-81.59580364823341</LongitudeDegrees>
            </Position>
            <AltitudeMeters>174.1999969482422</AltitudeMeters>
            <DistanceMeters>2024.1800537109375</DistanceMeters>
            <Extensions>
              <ns3:TPX>
                <ns3:Speed>4.002999782562256</ns3:Speed>
              </ns3:TPX>
            </Extensions>
          </Trackpoint>
          <Trackpoint>
            <Time>2025-08-05T18:07:42.000Z</Time>
            <Position>
              <LatitudeDegrees>44.28939884528518</LatitudeDegrees>
              <LongitudeDegrees>-81.59523342736065</LongitudeDegrees>
            </Position>
            <AltitudeMeters>173.8000030517578</AltitudeMeters>
            <DistanceMeters>2070.27001953125</DistanceMeters>
            <Extensions>
              <ns3:TPX>
                <ns3:Speed>3.806999921798706</ns3:Speed>
              </ns3:TPX>
            </Extensions>
          </Trackpoint>
          <Trackpoint>
            <Time>2025-08-05T18:07:53.000Z</Time>
            <Position>
              <LatitudeDegrees>44.289333298802376</LatitudeDegrees>
              <LongitudeDegrees>-81.59464317373931</LongitudeDegrees>
            </Position>
            <AltitudeMeters>174.0</AltitudeMeters>
            <DistanceMeters>2117.9599609375</DistanceMeters>
            <Extensions>
              <ns3:TPX>
                <ns3:Speed>4.236000061035156</ns3:Speed>
              </ns3:TPX>
            </Extensions>
          </Trackpoint>
          <Trackpoint>
            <Time>2025-08-05T18:08:04.000Z</Time>
            <Position>
              <LatitudeDegrees>44.289281917735934</LatitudeDegrees>
              <LongitudeDegrees>-81.59405241720378</LongitudeDegrees>
            </Position>
            <AltitudeMeters>174.1999969482422</AltitudeMeters>
            <DistanceMeters>2165.47998046875</DistanceMeters>
            <Extensions>
              <ns3:TPX>
                <ns3:Speed>4.2729997634887695</ns3:Speed>
              </ns3:TPX>
            </Extensions>
          </Trackpoint>
          <Trackpoint>
            <Time>2025-08-05T18:08:15.000Z</Time>
            <Position>
              <LatitudeDegrees>44.289242355152965</LatitudeDegrees>
              <LongitudeDegrees>-81.59349208697677</LongitudeDegrees>
            </Position>
            <AltitudeMeters>174.0</AltitudeMeters>
            <DistanceMeters>2210.43994140625</DistanceMeters>
            <Extensions>
              <ns3:TPX>
                <ns3:Speed>4.059000015258789</ns3:Speed>
              </ns3:TPX>
            </Extensions>
          </Trackpoint>
          <Trackpoint>
            <Time>2025-08-05T18:08:25.000Z</Time>
            <Position>
              <LatitudeDegrees>44.28920606151223</LatitudeDegrees>
              <LongitudeDegrees>-81.59296402707696</LongitudeDegrees>
            </Position>
            <AltitudeMeters>173.8000030517578</AltitudeMeters>
            <DistanceMeters>2252.830078125</DistanceMeters>
            <Extensions>
              <ns3:TPX>
                <ns3:Speed>4.328999996185303</ns3:Speed>
              </ns3:TPX>
            </Extensions>
          </Trackpoint>
          <Trackpoint>
            <Time>2025-08-05T18:08:31.000Z</Time>
            <Position>
              <LatitudeDegrees>44.289193572476506</LatitudeDegrees>
              <LongitudeDegrees>-81.59269454889</LongitudeDegrees>
            </Position>
            <AltitudeMeters>173.8000030517578</AltitudeMeters>
            <DistanceMeters>2274.3798828125</DistanceMeters>
            <Extensions>
              <ns3:TPX>
                <ns3:Speed>3.7880001068115234</ns3:Speed>
              </ns3:TPX>
            </Extensions>
          </Trackpoint>
          <Trackpoint>
            <Time>2025-08-05T18:08:40.000Z</Time>
            <Position>
              <LatitudeDegrees>44.2891940753907</LatitudeDegrees>
              <LongitudeDegrees>-81.59229992888868</LongitudeDegrees>
            </Position>
            <AltitudeMeters>173.0</AltitudeMeters>
            <DistanceMeters>2305.889892578125</DistanceMeters>
            <Extensions>
              <ns3:TPX>
                <ns3:Speed>3.563999891281128</ns3:Speed>
              </ns3:TPX>
            </Extensions>
          </Trackpoint>
          <Trackpoint>
            <Time>2025-08-05T18:08:41.000Z</Time>
            <Position>
              <LatitudeDegrees>44.28919139318168</LatitudeDegrees>
              <LongitudeDegrees>-81.59226254560053</LongitudeDegrees>
            </Position>
            <AltitudeMeters>172.8000030517578</AltitudeMeters>
            <DistanceMeters>2308.889892578125</DistanceMeters>
            <Extensions>
              <ns3:TPX>
                <ns3:Speed>3.507999897003174</ns3:Speed>
              </ns3:TPX>
            </Extensions>
          </Trackpoint>
          <Trackpoint>
            <Time>2025-08-05T18:08:48.000Z</Time>
            <Position>
              <LatitudeDegrees>44.2891679238528</LatitudeDegrees>
              <LongitudeDegrees>-81.59202240407467</LongitudeDegrees>
            </Position>
            <AltitudeMeters>173.1999969482422</AltitudeMeters>
            <DistanceMeters>2328.25</DistanceMeters>
            <Extensions>
              <ns3:TPX>
                <ns3:Speed>2.809000015258789</ns3:Speed>
              </ns3:TPX>
            </Extensions>
          </Trackpoint>
          <Trackpoint>
            <Time>2025-08-05T18:08:56.000Z</Time>
            <Position>
              <LatitudeDegrees>44.28914990276098</LatitudeDegrees>
              <LongitudeDegrees>-81.59180698916316</LongitudeDegrees>
            </Position>
            <AltitudeMeters>173.39999389648438</AltitudeMeters>
            <DistanceMeters>2345.659912109375</DistanceMeters>
            <Extensions>
              <ns3:TPX>
                <ns3:Speed>1.315999984741211</ns3:Speed>
              </ns3:TPX>
            </Extensions>
          </Trackpoint>
          <Trackpoint>
            <Time>2025-08-05T18:09:04.000Z</Time>
            <Position>
              <LatitudeDegrees>44.28913473151624</LatitudeDegrees>
              <LongitudeDegrees>-81.59166131168604</LongitudeDegrees>
            </Position>
            <AltitudeMeters>173.39999389648438</AltitudeMeters>
            <DistanceMeters>2357.409912109375</DistanceMeters>
            <Extensions>
              <ns3:TPX>
                <ns3:Speed>0.0</ns3:Speed>
              </ns3:TPX>
            </Extensions>
          </Trackpoint>
          <Trackpoint>
            <Time>2025-08-05T18:09:11.000Z</Time>
            <Position>
              <LatitudeDegrees>44.289146633818746</LatitudeDegrees>
              <LongitudeDegrees>-81.59163809381425</LongitudeDegrees>
            </Position>
            <AltitudeMeters>173.60000610351562</AltitudeMeters>
            <DistanceMeters>2360.1201171875</DistanceMeters>
            <Extensions>
              <ns3:TPX>
                <ns3:Speed>0.5040000081062317</ns3:Speed>
              </ns3:TPX>
            </Extensions>
          </Trackpoint>
        </Track>
        <Extensions>
          <ns3:LX>
            <ns3:AvgSpeed>2.88100004196167</ns3:AvgSpeed>
          </ns3:LX>
        </Extensions>
      </Lap>
      <Creator xsi:type="Device_t">
        <Name>vívoactive 4</Name>
        <UnitId>3432774097</UnitId>
        <ProductID>3225</ProductID>
        <Version>
          <VersionMajor>8</VersionMajor>
          <VersionMinor>30</VersionMinor>
          <BuildMajor>0</BuildMajor>
          <BuildMinor>0</BuildMinor>
        </Version>
      </Creator>
    </Activity>
  </Activities>
  <Author xsi:type="Application_t">
    <Name>Connect Api</Name>
    <Build>
      <Version>
        <VersionMajor>25</VersionMajor>
        <VersionMinor>15</VersionMinor>
        <BuildMajor>0</BuildMajor>
        <BuildMinor>0</BuildMinor>
      </Version>
    </Build>
    <LangID>en</LangID>
    <PartNumber>006-D2449-00</PartNumber>
  </Author>
</TrainingCenterDatabase>
