<?xml version="1.0" encoding="UTF-8"?>
<TrainingCenterDatabase
  xsi:schemaLocation="http://www.garmin.com/xmlschemas/TrainingCenterDatabase/v2 http://www.garmin.com/xmlschemas/TrainingCenterDatabasev2.xsd"
  xmlns:ns5="http://www.garmin.com/xmlschemas/ActivityGoals/v1"
  xmlns:ns3="http://www.garmin.com/xmlschemas/ActivityExtension/v2"
  xmlns:ns2="http://www.garmin.com/xmlschemas/UserProfile/v2"
  xmlns="http://www.garmin.com/xmlschemas/TrainingCenterDatabase/v2"
  xmlns:xsi="http://www.w3.org/2001/XMLSchema-instance" xmlns:ns4="http://www.garmin.com/xmlschemas/ProfileExtension/v1">
  <Activities>
    <Activity Sport="Other">
      <Id>2025-07-30T18:37:21.000Z</Id>
      <Lap StartTime="2025-07-30T18:37:21.000Z">
        <TotalTimeSeconds>363.14</TotalTimeSeconds>
        <DistanceMeters>1000.0</DistanceMeters>
        <MaximumSpeed>5.283999919891357</MaximumSpeed>
        <Calories>94</Calories>
        <Intensity>Active</Intensity>
        <TriggerMethod>Manual</TriggerMethod>
        <Track>
          <Trackpoint>
            <Time>2025-07-30T18:37:21.000Z</Time>
            <Position>
              <LatitudeDegrees>44.289179407060146</LatitudeDegrees>
              <LongitudeDegrees>-81.5915441326797</LongitudeDegrees>
            </Position>
            <DistanceMeters>0.47999998927116394</DistanceMeters>
            <Extensions>
              <ns3:TPX>
                <ns3:Speed>0.14000000059604645</ns3:Speed>
              </ns3:TPX>
            </Extensions>
          </Trackpoint>
          <Trackpoint>
            <Time>2025-07-30T18:37:26.000Z</Time>
            <Position>
              <LatitudeDegrees>44.28914403542876</LatitudeDegrees>
              <LongitudeDegrees>-81.59159358590841</LongitudeDegrees>
            </Position>
            <DistanceMeters>5.809999942779541</DistanceMeters>
            <Extensions>
              <ns3:TPX>
                <ns3:Speed>0.6359999775886536</ns3:Speed>
              </ns3:TPX>
            </Extensions>
          </Trackpoint>
          <Trackpoint>
            <Time>2025-07-30T18:37:32.000Z</Time>
            <Position>
              <LatitudeDegrees>44.28911151364446</LatitudeDegrees>
              <LongitudeDegrees>-81.59162040799856</LongitudeDegrees>
            </Position>
            <DistanceMeters>10.210000038146973</DistanceMeters>
            <Extensions>
              <ns3:TPX>
                <ns3:Speed>0.0</ns3:Speed>
              </ns3:TPX>
            </Extensions>
          </Trackpoint>
          <Trackpoint>
            <Time>2025-07-30T18:37:37.000Z</Time>
            <Position>
              <LatitudeDegrees>44.28914328105748</LatitudeDegrees>
              <LongitudeDegrees>-81.59162904135883</LongitudeDegrees>
            </Position>
            <DistanceMeters>14.279999732971191</DistanceMeters>
            <Extensions>
              <ns3:TPX>
                <ns3:Speed>0.7889999747276306</ns3:Speed>
              </ns3:TPX>
            </Extensions>
          </Trackpoint>
          <Trackpoint>
            <Time>2025-07-30T18:37:44.000Z</Time>
            <Position>
              <LatitudeDegrees>44.28913271985948</LatitudeDegrees>
              <LongitudeDegrees>-81.59173448570073</LongitudeDegrees>
            </Position>
            <DistanceMeters>22.8700008392334</DistanceMeters>
            <Extensions>
              <ns3:TPX>
                <ns3:Speed>1.059999942779541</ns3:Speed>
              </ns3:TPX>
            </Extensions>
          </Trackpoint>
          <Trackpoint>
            <Time>2025-07-30T18:37:45.000Z</Time>
            <Position>
              <LatitudeDegrees>44.289129953831434</LatitudeDegrees>
              <LongitudeDegrees>-81.5917460527271</LongitudeDegrees>
            </Position>
            <DistanceMeters>23.84000015258789</DistanceMeters>
            <Extensions>
              <ns3:TPX>
                <ns3:Speed>1.0729999542236328</ns3:Speed>
              </ns3:TPX>
            </Extensions>
          </Trackpoint>
          <Trackpoint>
            <Time>2025-07-30T18:37:49.000Z</Time>
            <Position>
              <LatitudeDegrees>44.28913523443043</LatitudeDegrees>
              <LongitudeDegrees>-81.59176365472376</LongitudeDegrees>
            </Position>
            <DistanceMeters>25.8700008392334</DistanceMeters>
            <Extensions>
              <ns3:TPX>
                <ns3:Speed>0.0</ns3:Speed>
              </ns3:TPX>
            </Extensions>
          </Trackpoint>
          <Trackpoint>
            <Time>2025-07-30T18:37:55.000Z</Time>
            <Position>
              <LatitudeDegrees>44.28912936709821</LatitudeDegrees>
              <LongitudeDegrees>-81.59173867665231</LongitudeDegrees>
            </Position>
            <DistanceMeters>28.350000381469727</DistanceMeters>
            <Extensions>
              <ns3:TPX>
                <ns3:Speed>0.0</ns3:Speed>
              </ns3:TPX>
            </Extensions>
          </Trackpoint>
          <Trackpoint>
            <Time>2025-07-30T18:38:23.000Z</Time>
            <Position>
              <LatitudeDegrees>44.28916088305414</LatitudeDegrees>
              <LongitudeDegrees>-81.59190438687801</LongitudeDegrees>
            </Position>
            <DistanceMeters>41.56999969482422</DistanceMeters>
            <Extensions>
              <ns3:TPX>
                <ns3:Speed>1.1859999895095825</ns3:Speed>
              </ns3:TPX>
            </Extensions>
          </Trackpoint>
          <Trackpoint>
            <Time>2025-07-30T18:38:30.000Z</Time>
            <Position>
              <LatitudeDegrees>44.2892128508538</LatitudeDegrees>
              <LongitudeDegrees>-81.59213815815747</LongitudeDegrees>
            </Position>
            <DistanceMeters>61.08000183105469</DistanceMeters>
            <Extensions>
              <ns3:TPX>
                <ns3:Speed>2.697000026702881</ns3:Speed>
              </ns3:TPX>
            </Extensions>
          </Trackpoint>
          <Trackpoint>
            <Time>2025-07-30T18:38:38.000Z</Time>
            <Position>
              <LatitudeDegrees>44.289304967969656</LatitudeDegrees>
              <LongitudeDegrees>-81.592448791489</LongitudeDegrees>
            </Position>
            <DistanceMeters>87.91000366210938</DistanceMeters>
            <Extensions>
              <ns3:TPX>
                <ns3:Speed>3.1410000324249268</ns3:Speed>
              </ns3:TPX>
            </Extensions>
          </Trackpoint>
          <Trackpoint>
            <Time>2025-07-30T18:38:44.000Z</Time>
            <Position>
              <LatitudeDegrees>44.28938786499202</LatitudeDegrees>
              <LongitudeDegrees>-81.59274970181286</LongitudeDegrees>
            </Position>
            <DistanceMeters>113.62000274658203</DistanceMeters>
            <Extensions>
              <ns3:TPX>
                <ns3:Speed>3.8589999675750732</ns3:Speed>
              </ns3:TPX>
            </Extensions>
          </Trackpoint>
          <Trackpoint>
            <Time>2025-07-30T18:38:54.000Z</Time>
            <Position>
              <LatitudeDegrees>44.28957779891789</LatitudeDegrees>
              <LongitudeDegrees>-81.59329804591835</LongitudeDegrees>
            </Position>
            <DistanceMeters>162.22000122070312</DistanceMeters>
            <Extensions>
              <ns3:TPX>
                <ns3:Speed>4.76200008392334</ns3:Speed>
              </ns3:TPX>
            </Extensions>
          </Trackpoint>
          <Trackpoint>
            <Time>2025-07-30T18:39:05.000Z</Time>
            <Position>
              <LatitudeDegrees>44.289734875783324</LatitudeDegrees>
              <LongitudeDegrees>-81.59383566118777</LongitudeDegrees>
            </Position>
            <DistanceMeters>208.6199951171875</DistanceMeters>
            <Extensions>
              <ns3:TPX>
                <ns3:Speed>4.270999908447266</ns3:Speed>
              </ns3:TPX>
            </Extensions>
          </Trackpoint>
          <Trackpoint>
            <Time>2025-07-30T18:39:13.000Z</Time>
            <Position>
              <LatitudeDegrees>44.28982523269951</LatitudeDegrees>
              <LongitudeDegrees>-81.59412785433233</LongitudeDegrees>
            </Position>
            <DistanceMeters>234.05999755859375</DistanceMeters>
            <Extensions>
              <ns3:TPX>
                <ns3:Speed>3.361999988555908</ns3:Speed>
              </ns3:TPX>
            </Extensions>
          </Trackpoint>
          <Trackpoint>
            <Time>2025-07-30T18:39:21.000Z</Time>
            <Position>
              <LatitudeDegrees>44.28986622020602</LatitudeDegrees>
              <LongitudeDegrees>-81.59444376826286</LongitudeDegrees>
            </Position>
            <DistanceMeters>259.69000244140625</DistanceMeters>
            <Extensions>
              <ns3:TPX>
                <ns3:Speed>3.180000066757202</ns3:Speed>
              </ns3:TPX>
            </Extensions>
          </Trackpoint>
          <Trackpoint>
            <Time>2025-07-30T18:39:32.000Z</Time>
            <Position>
              <LatitudeDegrees>44.289919612929225</LatitudeDegrees>
              <LongitudeDegrees>-81.59478072077036</LongitudeDegrees>
            </Position>
            <DistanceMeters>287.260009765625</DistanceMeters>
            <Extensions>
              <ns3:TPX>
                <ns3:Speed>2.5510001182556152</ns3:Speed>
              </ns3:TPX>
            </Extensions>
          </Trackpoint>
          <Trackpoint>
            <Time>2025-07-30T18:39:42.000Z</Time>
            <Position>
              <LatitudeDegrees>44.29001164622605</LatitudeDegrees>
              <LongitudeDegrees>-81.59515019506216</LongitudeDegrees>
            </Position>
            <DistanceMeters>318.4700012207031</DistanceMeters>
            <Extensions>
              <ns3:TPX>
                <ns3:Speed>3.0199999809265137</ns3:Speed>
              </ns3:TPX>
            </Extensions>
          </Trackpoint>
          <Trackpoint>
            <Time>2025-07-30T18:39:55.000Z</Time>
            <Position>
              <LatitudeDegrees>44.2901211977005</LatitudeDegrees>
              <LongitudeDegrees>-81.59560206346214</LongitudeDegrees>
            </Position>
            <DistanceMeters>356.5400085449219</DistanceMeters>
            <Extensions>
              <ns3:TPX>
                <ns3:Speed>2.8959999084472656</ns3:Speed>
              </ns3:TPX>
            </Extensions>
          </Trackpoint>
          <Trackpoint>
            <Time>2025-07-30T18:40:03.000Z</Time>
            <Position>
              <LatitudeDegrees>44.29020032286644</LatitudeDegrees>
              <LongitudeDegrees>-81.59585352055728</LongitudeDegrees>
            </Position>
            <DistanceMeters>378.5</DistanceMeters>
            <Extensions>
              <ns3:TPX>
                <ns3:Speed>2.8299999237060547</ns3:Speed>
              </ns3:TPX>
            </Extensions>
          </Trackpoint>
          <Trackpoint>
            <Time>2025-07-30T18:40:14.000Z</Time>
            <Position>
              <LatitudeDegrees>44.290284560993314</LatitudeDegrees>
              <LongitudeDegrees>-81.59617865458131</LongitudeDegrees>
            </Position>
            <DistanceMeters>406.2200012207031</DistanceMeters>
            <Extensions>
              <ns3:TPX>
                <ns3:Speed>2.5230000019073486</ns3:Speed>
              </ns3:TPX>
            </Extensions>
          </Trackpoint>
          <Trackpoint>
            <Time>2025-07-30T18:40:24.000Z</Time>
            <Position>
              <LatitudeDegrees>44.29033434949815</LatitudeDegrees>
              <LongitudeDegrees>-81.59649213775992</LongitudeDegrees>
            </Position>
            <DistanceMeters>431.8500061035156</DistanceMeters>
            <Extensions>
              <ns3:TPX>
                <ns3:Speed>2.618000030517578</ns3:Speed>
              </ns3:TPX>
            </Extensions>
          </Trackpoint>
          <Trackpoint>
            <Time>2025-07-30T18:40:36.000Z</Time>
            <Position>
              <LatitudeDegrees>44.290404757484794</LatitudeDegrees>
              <LongitudeDegrees>-81.59689052961767</LongitudeDegrees>
            </Position>
            <DistanceMeters>464.6700134277344</DistanceMeters>
            <Extensions>
              <ns3:TPX>
                <ns3:Speed>2.7360000610351562</ns3:Speed>
              </ns3:TPX>
            </Extensions>
          </Trackpoint>
          <Trackpoint>
            <Time>2025-07-30T18:40:46.000Z</Time>
            <Position>
              <LatitudeDegrees>44.2904943600297</LatitudeDegrees>
              <LongitudeDegrees>-81.59719496034086</LongitudeDegrees>
            </Position>
            <DistanceMeters>491.010009765625</DistanceMeters>
            <Extensions>
              <ns3:TPX>
                <ns3:Speed>2.6470000743865967</ns3:Speed>
              </ns3:TPX>
            </Extensions>
          </Trackpoint>
          <Trackpoint>
            <Time>2025-07-30T18:40:55.000Z</Time>
            <Position>
              <LatitudeDegrees>44.29062109440565</LatitudeDegrees>
              <LongitudeDegrees>-81.59748799167573</LongitudeDegrees>
            </Position>
            <DistanceMeters>518.4099731445312</DistanceMeters>
            <Extensions>
              <ns3:TPX>
                <ns3:Speed>2.98799991607666</ns3:Speed>
              </ns3:TPX>
            </Extensions>
          </Trackpoint>
          <Trackpoint>
            <Time>2025-07-30T18:41:05.000Z</Time>
            <Position>
              <LatitudeDegrees>44.29076920263469</LatitudeDegrees>
              <LongitudeDegrees>-81.59777725115418</LongitudeDegrees>
            </Position>
            <DistanceMeters>546.77001953125</DistanceMeters>
            <Extensions>
              <ns3:TPX>
                <ns3:Speed>2.9119999408721924</ns3:Speed>
              </ns3:TPX>
            </Extensions>
          </Trackpoint>
          <Trackpoint>
            <Time>2025-07-30T18:41:17.000Z</Time>
            <Position>
              <LatitudeDegrees>44.29096735082567</LatitudeDegrees>
              <LongitudeDegrees>-81.59809215925634</LongitudeDegrees>
            </Position>
            <DistanceMeters>580.280029296875</DistanceMeters>
            <Extensions>
              <ns3:TPX>
                <ns3:Speed>2.7939999103546143</ns3:Speed>
              </ns3:TPX>
            </Extensions>
          </Trackpoint>
          <Trackpoint>
            <Time>2025-07-30T18:41:27.000Z</Time>
            <Position>
              <LatitudeDegrees>44.291114369407296</LatitudeDegrees>
              <LongitudeDegrees>-81.5983719471842</LongitudeDegrees>
            </Position>
            <DistanceMeters>608.1300048828125</DistanceMeters>
            <Extensions>
              <ns3:TPX>
                <ns3:Speed>2.809000015258789</ns3:Speed>
              </ns3:TPX>
            </Extensions>
          </Trackpoint>
          <Trackpoint>
            <Time>2025-07-30T18:41:35.000Z</Time>
            <Position>
              <LatitudeDegrees>44.29117999970913</LatitudeDegrees>
              <LongitudeDegrees>-81.59865902736783</LongitudeDegrees>
            </Position>
            <DistanceMeters>632.3099975585938</DistanceMeters>
            <Extensions>
              <ns3:TPX>
                <ns3:Speed>3.065999984741211</ns3:Speed>
              </ns3:TPX>
            </Extensions>
          </Trackpoint>
          <Trackpoint>
            <Time>2025-07-30T18:41:43.000Z</Time>
            <Position>
              <LatitudeDegrees>44.29124881513417</LatitudeDegrees>
              <LongitudeDegrees>-81.59892523661256</LongitudeDegrees>
            </Position>
            <DistanceMeters>654.9400024414062</DistanceMeters>
            <Extensions>
              <ns3:TPX>
                <ns3:Speed>2.809999942779541</ns3:Speed>
              </ns3:TPX>
            </Extensions>
          </Trackpoint>
          <Trackpoint>
            <Time>2025-07-30T18:41:51.000Z</Time>
            <Position>
              <LatitudeDegrees>44.291278067976236</LatitudeDegrees>
              <LongitudeDegrees>-81.59921625629067</LongitudeDegrees>
            </Position>
            <DistanceMeters>678.4099731445312</DistanceMeters>
            <Extensions>
              <ns3:TPX>
                <ns3:Speed>2.9079999923706055</ns3:Speed>
              </ns3:TPX>
            </Extensions>
          </Trackpoint>
          <Trackpoint>
            <Time>2025-07-30T18:41:58.000Z</Time>
            <Position>
              <LatitudeDegrees>44.29135803133249</LatitudeDegrees>
              <LongitudeDegrees>-81.59941742196679</LongitudeDegrees>
            </Position>
            <DistanceMeters>697.0599975585938</DistanceMeters>
            <Extensions>
              <ns3:TPX>
                <ns3:Speed>2.743000030517578</ns3:Speed>
              </ns3:TPX>
            </Extensions>
          </Trackpoint>
          <Trackpoint>
            <Time>2025-07-30T18:42:05.000Z</Time>
            <Position>
              <LatitudeDegrees>44.291491471230984</LatitudeDegrees>
              <LongitudeDegrees>-81.59966871142387</LongitudeDegrees>
            </Position>
            <DistanceMeters>722.0</DistanceMeters>
            <Extensions>
              <ns3:TPX>
                <ns3:Speed>3.2139999866485596</ns3:Speed>
              </ns3:TPX>
            </Extensions>
          </Trackpoint>
          <Trackpoint>
            <Time>2025-07-30T18:42:12.000Z</Time>
            <Position>
              <LatitudeDegrees>44.29166028276086</LatitudeDegrees>
              <LongitudeDegrees>-81.5999560430646</LongitudeDegrees>
            </Position>
            <DistanceMeters>751.6300048828125</DistanceMeters>
            <Extensions>
              <ns3:TPX>
                <ns3:Speed>4.072000026702881</ns3:Speed>
              </ns3:TPX>
            </Extensions>
          </Trackpoint>
          <Trackpoint>
            <Time>2025-07-30T18:42:23.000Z</Time>
            <Position>
              <LatitudeDegrees>44.291980639100075</LatitudeDegrees>
              <LongitudeDegrees>-81.60039357841015</LongitudeDegrees>
            </Position>
            <DistanceMeters>801.5800170898438</DistanceMeters>
            <Extensions>
              <ns3:TPX>
                <ns3:Speed>4.534999847412109</ns3:Speed>
              </ns3:TPX>
            </Extensions>
          </Trackpoint>
          <Trackpoint>
            <Time>2025-07-30T18:42:35.000Z</Time>
            <Position>
              <LatitudeDegrees>44.2923279851675</LatitudeDegrees>
              <LongitudeDegrees>-81.60080697387457</LongitudeDegrees>
            </Position>
            <DistanceMeters>852.3699951171875</DistanceMeters>
            <Extensions>
              <ns3:TPX>
                <ns3:Speed>4.232999801635742</ns3:Speed>
              </ns3:TPX>
            </Extensions>
          </Trackpoint>
          <Trackpoint>
            <Time>2025-07-30T18:42:44.000Z</Time>
            <Position>
              <LatitudeDegrees>44.29254172369838</LatitudeDegrees>
              <LongitudeDegrees>-81.60109070129693</LongitudeDegrees>
            </Position>
            <DistanceMeters>885.2100219726562</DistanceMeters>
            <Extensions>
              <ns3:TPX>
                <ns3:Speed>3.803999900817871</ns3:Speed>
              </ns3:TPX>
            </Extensions>
          </Trackpoint>
          <Trackpoint>
            <Time>2025-07-30T18:42:48.000Z</Time>
            <Position>
              <LatitudeDegrees>44.29256267845631</LatitudeDegrees>
              <LongitudeDegrees>-81.60111274570227</LongitudeDegrees>
            </Position>
            <DistanceMeters>888.219970703125</DistanceMeters>
            <Extensions>
              <ns3:TPX>
                <ns3:Speed>2.6459999084472656</ns3:Speed>
              </ns3:TPX>
            </Extensions>
          </Trackpoint>
          <Trackpoint>
            <Time>2025-07-30T18:42:49.000Z</Time>
            <Position>
              <LatitudeDegrees>44.292563097551465</LatitudeDegrees>
              <LongitudeDegrees>-81.60111551173031</LongitudeDegrees>
            </Position>
            <DistanceMeters>888.3900146484375</DistanceMeters>
            <Extensions>
              <ns3:TPX>
                <ns3:Speed>0.0</ns3:Speed>
              </ns3:TPX>
            </Extensions>
          </Trackpoint>
          <Trackpoint>
            <Time>2025-07-30T18:42:53.000Z</Time>
            <Position>
              <LatitudeDegrees>44.29254272952676</LatitudeDegrees>
              <LongitudeDegrees>-81.60111433826387</LongitudeDegrees>
            </Position>
            <DistanceMeters>890.6099853515625</DistanceMeters>
            <Extensions>
              <ns3:TPX>
                <ns3:Speed>1.1230000257492065</ns3:Speed>
              </ns3:TPX>
            </Extensions>
          </Trackpoint>
          <Trackpoint>
            <Time>2025-07-30T18:42:54.000Z</Time>
            <Position>
              <LatitudeDegrees>44.292538203299046</LatitudeDegrees>
              <LongitudeDegrees>-81.60111366771162</LongitudeDegrees>
            </Position>
            <DistanceMeters>891.1099853515625</DistanceMeters>
            <Extensions>
              <ns3:TPX>
                <ns3:Speed>0.8700000047683716</ns3:Speed>
              </ns3:TPX>
            </Extensions>
          </Trackpoint>
          <Trackpoint>
            <Time>2025-07-30T18:43:00.000Z</Time>
            <Position>
              <LatitudeDegrees>44.292512303218246</LatitudeDegrees>
              <LongitudeDegrees>-81.60100143402815</LongitudeDegrees>
            </Position>
            <DistanceMeters>900.5900268554688</DistanceMeters>
            <Extensions>
              <ns3:TPX>
                <ns3:Speed>1.0490000247955322</ns3:Speed>
              </ns3:TPX>
            </Extensions>
          </Trackpoint>
          <Trackpoint>
            <Time>2025-07-30T18:43:06.000Z</Time>
            <Position>
              <LatitudeDegrees>44.29248724132776</LatitudeDegrees>
              <LongitudeDegrees>-81.60078224726021</LongitudeDegrees>
            </Position>
            <DistanceMeters>918.3400268554688</DistanceMeters>
            <Extensions>
              <ns3:TPX>
                <ns3:Speed>2.2820000648498535</ns3:Speed>
              </ns3:TPX>
            </Extensions>
          </Trackpoint>
          <Trackpoint>
            <Time>2025-07-30T18:43:15.000Z</Time>
            <Position>
              <LatitudeDegrees>44.29247584193945</LatitudeDegrees>
              <LongitudeDegrees>-81.60033389925957</LongitudeDegrees>
            </Position>
            <DistanceMeters>954.22998046875</DistanceMeters>
            <Extensions>
              <ns3:TPX>
                <ns3:Speed>3.7890000343322754</ns3:Speed>
              </ns3:TPX>
            </Extensions>
          </Trackpoint>
          <Trackpoint>
            <Time>2025-07-30T18:43:21.000Z</Time>
            <Position>
              <LatitudeDegrees>44.29241725243628</LatitudeDegrees>
              <LongitudeDegrees>-81.59992150962353</LongitudeDegrees>
            </Position>
            <DistanceMeters>987.7999877929688</DistanceMeters>
            <Extensions>
              <ns3:TPX>
                <ns3:Speed>4.88700008392334</ns3:Speed>
              </ns3:TPX>
            </Extensions>
          </Trackpoint>
          <Trackpoint>
            <Time>2025-07-30T18:43:24.000Z</Time>
            <Position>
              <LatitudeDegrees>44.29238246753812</LatitudeDegrees>
              <LongitudeDegrees>-81.59972235560417</LongitudeDegrees>
            </Position>
            <DistanceMeters>1004.1599731445312</DistanceMeters>
            <Extensions>
              <ns3:TPX>
                <ns3:Speed>5.283999919891357</ns3:Speed>
              </ns3:TPX>
            </Extensions>
          </Trackpoint>
        </Track>
        <Extensions>
          <ns3:LX>
            <ns3:AvgSpeed>2.753999948501587</ns3:AvgSpeed>
            <ns3:Steps>28</ns3:Steps>
          </ns3:LX>
        </Extensions>
      </Lap>
      <Lap StartTime="2025-07-30T18:43:25.000Z">
        <TotalTimeSeconds>229.145</TotalTimeSeconds>
        <DistanceMeters>766.07</DistanceMeters>
        <MaximumSpeed>6.664999961853027</MaximumSpeed>
        <Calories>75</Calories>
        <Intensity>Active</Intensity>
        <TriggerMethod>Manual</TriggerMethod>
        <Track>
          <Trackpoint>
            <Time>2025-07-30T18:43:28.000Z</Time>
            <Position>
              <LatitudeDegrees>44.29232790134847</LatitudeDegrees>
              <LongitudeDegrees>-81.59949411638081</LongitudeDegrees>
            </Position>
            <DistanceMeters>1023.3699951171875</DistanceMeters>
            <Extensions>
              <ns3:TPX>
                <ns3:Speed>5.3429999351501465</ns3:Speed>
              </ns3:TPX>
            </Extensions>
          </Trackpoint>
          <Trackpoint>
            <Time>2025-07-30T18:43:39.000Z</Time>
            <Position>
              <LatitudeDegrees>44.29214132018387</LatitudeDegrees>
              <LongitudeDegrees>-81.59888659603894</LongitudeDegrees>
            </Position>
            <DistanceMeters>1076.1400146484375</DistanceMeters>
            <Extensions>
              <ns3:TPX>
                <ns3:Speed>4.798999786376953</ns3:Speed>
              </ns3:TPX>
            </Extensions>
          </Trackpoint>
          <Trackpoint>
            <Time>2025-07-30T18:43:49.000Z</Time>
            <Position>
              <LatitudeDegrees>44.29193093441427</LatitudeDegrees>
              <LongitudeDegrees>-81.59832383506</LongitudeDegrees>
            </Position>
            <DistanceMeters>1126.800048828125</DistanceMeters>
            <Extensions>
              <ns3:TPX>
                <ns3:Speed>5.01800012588501</ns3:Speed>
              </ns3:TPX>
            </Extensions>
          </Trackpoint>
          <Trackpoint>
            <Time>2025-07-30T18:43:50.000Z</Time>
            <Position>
              <LatitudeDegrees>44.29191056638956</LatitudeDegrees>
              <LongitudeDegrees>-81.59827195107937</LongitudeDegrees>
            </Position>
            <DistanceMeters>1131.510009765625</DistanceMeters>
            <Extensions>
              <ns3:TPX>
                <ns3:Speed>5.007999897003174</ns3:Speed>
              </ns3:TPX>
            </Extensions>
          </Trackpoint>
          <Trackpoint>
            <Time>2025-07-30T18:43:57.000Z</Time>
            <Position>
              <LatitudeDegrees>44.2918031103909</LatitudeDegrees>
              <LongitudeDegrees>-81.5979577973485</LongitudeDegrees>
            </Position>
            <DistanceMeters>1159.3199462890625</DistanceMeters>
            <Extensions>
              <ns3:TPX>
                <ns3:Speed>4.48799991607666</ns3:Speed>
              </ns3:TPX>
            </Extensions>
          </Trackpoint>
          <Trackpoint>
            <Time>2025-07-30T18:44:03.000Z</Time>
            <Position>
              <LatitudeDegrees>44.29172373376787</LatitudeDegrees>
              <LongitudeDegrees>-81.59773324616253</LongitudeDegrees>
            </Position>
            <DistanceMeters>1179.3499755859375</DistanceMeters>
            <Extensions>
              <ns3:TPX>
                <ns3:Speed>3.5929999351501465</ns3:Speed>
              </ns3:TPX>
            </Extensions>
          </Trackpoint>
          <Trackpoint>
            <Time>2025-07-30T18:44:08.000Z</Time>
            <Position>
              <LatitudeDegrees>44.291598089039326</LatitudeDegrees>
              <LongitudeDegrees>-81.59746376797557</LongitudeDegrees>
            </Position>
            <DistanceMeters>1205.0</DistanceMeters>
            <Extensions>
              <ns3:TPX>
                <ns3:Speed>4.125999927520752</ns3:Speed>
              </ns3:TPX>
            </Extensions>
          </Trackpoint>
          <Trackpoint>
            <Time>2025-07-30T18:44:15.000Z</Time>
            <Position>
              <LatitudeDegrees>44.291387954726815</LatitudeDegrees>
              <LongitudeDegrees>-81.59695741720498</LongitudeDegrees>
            </Position>
            <DistanceMeters>1251.6800537109375</DistanceMeters>
            <Extensions>
              <ns3:TPX>
                <ns3:Speed>6.01200008392334</ns3:Speed>
              </ns3:TPX>
            </Extensions>
          </Trackpoint>
          <Trackpoint>
            <Time>2025-07-30T18:44:23.000Z</Time>
            <Position>
              <LatitudeDegrees>44.29118184372783</LatitudeDegrees>
              <LongitudeDegrees>-81.59637554548681</LongitudeDegrees>
            </Position>
            <DistanceMeters>1303.52001953125</DistanceMeters>
            <Extensions>
              <ns3:TPX>
                <ns3:Speed>6.521999835968018</ns3:Speed>
              </ns3:TPX>
            </Extensions>
          </Trackpoint>
          <Trackpoint>
            <Time>2025-07-30T18:44:25.000Z</Time>
            <Position>
              <LatitudeDegrees>44.291136749088764</LatitudeDegrees>
              <LongitudeDegrees>-81.59623925574124</LongitudeDegrees>
            </Position>
            <DistanceMeters>1315.489990234375</DistanceMeters>
            <Extensions>
              <ns3:TPX>
                <ns3:Speed>6.434999942779541</ns3:Speed>
              </ns3:TPX>
            </Extensions>
          </Trackpoint>
          <Trackpoint>
            <Time>2025-07-30T18:44:30.000Z</Time>
            <Position>
              <LatitudeDegrees>44.2910279519856</LatitudeDegrees>
              <LongitudeDegrees>-81.59594823606312</LongitudeDegrees>
            </Position>
            <DistanceMeters>1341.699951171875</DistanceMeters>
            <Extensions>
              <ns3:TPX>
                <ns3:Speed>5.993000030517578</ns3:Speed>
              </ns3:TPX>
            </Extensions>
          </Trackpoint>
          <Trackpoint>
            <Time>2025-07-30T18:44:39.000Z</Time>
            <Position>
              <LatitudeDegrees>44.29083164781332</LatitudeDegrees>
              <LongitudeDegrees>-81.59552545286715</LongitudeDegrees>
            </Position>
            <DistanceMeters>1381.8900146484375</DistanceMeters>
            <Extensions>
              <ns3:TPX>
                <ns3:Speed>4.688000202178955</ns3:Speed>
              </ns3:TPX>
            </Extensions>
          </Trackpoint>
          <Trackpoint>
            <Time>2025-07-30T18:44:48.000Z</Time>
            <Position>
              <LatitudeDegrees>44.29063970223069</LatitudeDegrees>
              <LongitudeDegrees>-81.59516771323979</LongitudeDegrees>
            </Position>
            <DistanceMeters>1417.5400390625</DistanceMeters>
            <Extensions>
              <ns3:TPX>
                <ns3:Speed>3.9660000801086426</ns3:Speed>
              </ns3:TPX>
            </Extensions>
          </Trackpoint>
          <Trackpoint>
            <Time>2025-07-30T18:44:54.000Z</Time>
            <Position>
              <LatitudeDegrees>44.29054641164839</LatitudeDegrees>
              <LongitudeDegrees>-81.59498557448387</LongitudeDegrees>
            </Position>
            <DistanceMeters>1435.3900146484375</DistanceMeters>
            <Extensions>
              <ns3:TPX>
                <ns3:Speed>3.421999931335449</ns3:Speed>
              </ns3:TPX>
            </Extensions>
          </Trackpoint>
          <Trackpoint>
            <Time>2025-07-30T18:45:05.000Z</Time>
            <Position>
              <LatitudeDegrees>44.29038371890783</LatitudeDegrees>
              <LongitudeDegrees>-81.5946817304939</LongitudeDegrees>
            </Position>
            <DistanceMeters>1465.6400146484375</DistanceMeters>
            <Extensions>
              <ns3:TPX>
                <ns3:Speed>2.7679998874664307</ns3:Speed>
              </ns3:TPX>
            </Extensions>
          </Trackpoint>
          <Trackpoint>
            <Time>2025-07-30T18:45:17.000Z</Time>
            <Position>
              <LatitudeDegrees>44.290222954005</LatitudeDegrees>
              <LongitudeDegrees>-81.59436112269759</LongitudeDegrees>
            </Position>
            <DistanceMeters>1496.8800048828125</DistanceMeters>
            <Extensions>
              <ns3:TPX>
                <ns3:Speed>2.6050000190734863</ns3:Speed>
              </ns3:TPX>
            </Extensions>
          </Trackpoint>
          <Trackpoint>
            <Time>2025-07-30T18:45:29.000Z</Time>
            <Position>
              <LatitudeDegrees>44.2900503706187</LatitudeDegrees>
              <LongitudeDegrees>-81.59401134587824</LongitudeDegrees>
            </Position>
            <DistanceMeters>1530.760009765625</DistanceMeters>
            <Extensions>
              <ns3:TPX>
                <ns3:Speed>2.8239998817443848</ns3:Speed>
              </ns3:TPX>
            </Extensions>
          </Trackpoint>
          <Trackpoint>
            <Time>2025-07-30T18:45:43.000Z</Time>
            <Position>
              <LatitudeDegrees>44.28988851606846</LatitudeDegrees>
              <LongitudeDegrees>-81.59359686076641</LongitudeDegrees>
            </Position>
            <DistanceMeters>1568.530029296875</DistanceMeters>
            <Extensions>
              <ns3:TPX>
                <ns3:Speed>2.6429998874664307</ns3:Speed>
              </ns3:TPX>
            </Extensions>
          </Trackpoint>
          <Trackpoint>
            <Time>2025-07-30T18:45:53.000Z</Time>
            <Position>
              <LatitudeDegrees>44.289747616276145</LatitudeDegrees>
              <LongitudeDegrees>-81.59331791102886</LongitudeDegrees>
            </Position>
            <DistanceMeters>1595.8499755859375</DistanceMeters>
            <Extensions>
              <ns3:TPX>
                <ns3:Speed>2.7249999046325684</ns3:Speed>
              </ns3:TPX>
            </Extensions>
          </Trackpoint>
          <Trackpoint>
            <Time>2025-07-30T18:46:04.000Z</Time>
            <Position>
              <LatitudeDegrees>44.28954376839101</LatitudeDegrees>
              <LongitudeDegrees>-81.59300199709833</LongitudeDegrees>
            </Position>
            <DistanceMeters>1629.77001953125</DistanceMeters>
            <Extensions>
              <ns3:TPX>
                <ns3:Speed>3.0299999713897705</ns3:Speed>
              </ns3:TPX>
            </Extensions>
          </Trackpoint>
          <Trackpoint>
            <Time>2025-07-30T18:46:16.000Z</Time>
            <Position>
              <LatitudeDegrees>44.289313266053796</LatitudeDegrees>
              <LongitudeDegrees>-81.59264048561454</LongitudeDegrees>
            </Position>
            <DistanceMeters>1668.4000244140625</DistanceMeters>
            <Extensions>
              <ns3:TPX>
                <ns3:Speed>3.2209999561309814</ns3:Speed>
              </ns3:TPX>
            </Extensions>
          </Trackpoint>
          <Trackpoint>
            <Time>2025-07-30T18:46:27.000Z</Time>
            <Position>
              <LatitudeDegrees>44.289179826155305</LatitudeDegrees>
              <LongitudeDegrees>-81.59228433854878</LongitudeDegrees>
            </Position>
            <DistanceMeters>1700.6199951171875</DistanceMeters>
            <Extensions>
              <ns3:TPX>
                <ns3:Speed>2.990000009536743</ns3:Speed>
              </ns3:TPX>
            </Extensions>
          </Trackpoint>
          <Trackpoint>
            <Time>2025-07-30T18:46:37.000Z</Time>
            <Position>
              <LatitudeDegrees>44.289107574149966</LatitudeDegrees>
              <LongitudeDegrees>-81.5919894631952</LongitudeDegrees>
            </Position>
            <DistanceMeters>1725.5699462890625</DistanceMeters>
            <Extensions>
              <ns3:TPX>
                <ns3:Speed>2.502000093460083</ns3:Speed>
              </ns3:TPX>
            </Extensions>
          </Trackpoint>
          <Trackpoint>
            <Time>2025-07-30T18:46:46.000Z</Time>
            <Position>
              <LatitudeDegrees>44.289091397076845</LatitudeDegrees>
              <LongitudeDegrees>-81.59167882986367</LongitudeDegrees>
            </Position>
            <DistanceMeters>1750.4300537109375</DistanceMeters>
            <Extensions>
              <ns3:TPX>
                <ns3:Speed>2.7109999656677246</ns3:Speed>
              </ns3:TPX>
            </Extensions>
          </Trackpoint>
          <Trackpoint>
            <Time>2025-07-30T18:46:49.000Z</Time>
            <Position>
              <LatitudeDegrees>44.28910380229354</LatitudeDegrees>
              <LongitudeDegrees>-81.59165401943028</LongitudeDegrees>
            </Position>
            <DistanceMeters>1753.31005859375</DistanceMeters>
            <Extensions>
              <ns3:TPX>
                <ns3:Speed>2.3259999752044678</ns3:Speed>
              </ns3:TPX>
            </Extensions>
          </Trackpoint>
          <Trackpoint>
            <Time>2025-07-30T18:46:55.000Z</Time>
            <Position>
              <LatitudeDegrees>44.28911746479571</LatitudeDegrees>
              <LongitudeDegrees>-81.59164303913713</LongitudeDegrees>
            </Position>
            <DistanceMeters>1755.4599609375</DistanceMeters>
            <Extensions>
              <ns3:TPX>
                <ns3:Speed>1.2569999694824219</ns3:Speed>
              </ns3:TPX>
            </Extensions>
          </Trackpoint>
          <Trackpoint>
            <Time>2025-07-30T18:46:56.000Z</Time>
            <Position>
              <LatitudeDegrees>44.28911553695798</LatitudeDegrees>
              <LongitudeDegrees>-81.59163180738688</LongitudeDegrees>
            </Position>
            <DistanceMeters>1756.3800048828125</DistanceMeters>
            <Extensions>
              <ns3:TPX>
                <ns3:Speed>1.0870000123977661</ns3:Speed>
              </ns3:TPX>
            </Extensions>
          </Trackpoint>
          <Trackpoint>
            <Time>2025-07-30T18:47:01.000Z</Time>
            <Position>
              <LatitudeDegrees>44.28910321556032</LatitudeDegrees>
              <LongitudeDegrees>-81.59159953705966</LongitudeDegrees>
            </Position>
            <DistanceMeters>1759.2900390625</DistanceMeters>
            <Extensions>
              <ns3:TPX>
                <ns3:Speed>0.5249999761581421</ns3:Speed>
              </ns3:TPX>
            </Extensions>
          </Trackpoint>
          <Trackpoint>
            <Time>2025-07-30T18:47:06.000Z</Time>
            <Position>
              <LatitudeDegrees>44.289131965488195</LatitudeDegrees>
              <LongitudeDegrees>-81.59159651957452</LongitudeDegrees>
            </Position>
            <DistanceMeters>1763.469970703125</DistanceMeters>
            <Extensions>
              <ns3:TPX>
                <ns3:Speed>0.7440000176429749</ns3:Speed>
              </ns3:TPX>
            </Extensions>
          </Trackpoint>
          <Trackpoint>
            <Time>2025-07-30T18:47:11.000Z</Time>
            <Position>
              <LatitudeDegrees>44.28912576287985</LatitudeDegrees>
              <LongitudeDegrees>-81.59160900861025</LongitudeDegrees>
            </Position>
            <DistanceMeters>1765.280029296875</DistanceMeters>
            <Extensions>
              <ns3:TPX>
                <ns3:Speed>0.0</ns3:Speed>
              </ns3:TPX>
            </Extensions>
          </Trackpoint>
          <Trackpoint>
            <Time>2025-07-30T18:47:13.000Z</Time>
            <Position>
              <LatitudeDegrees>44.289119224995375</LatitudeDegrees>
              <LongitudeDegrees>-81.59160590730608</LongitudeDegrees>
            </Position>
            <DistanceMeters>1766.0699462890625</DistanceMeters>
            <Extensions>
              <ns3:TPX>
                <ns3:Speed>0.5759999752044678</ns3:Speed>
              </ns3:TPX>
            </Extensions>
          </Trackpoint>
        </Track>
        <Extensions>
          <ns3:LX>
            <ns3:AvgSpeed>3.3429999351501465</ns3:AvgSpeed>
            <ns3:Steps>15</ns3:Steps>
          </ns3:LX>
        </Extensions>
      </Lap>
      <Creator xsi:type="Device_t">
        <Name>vívoactive 4</Name>
        <UnitId>3432774097</UnitId>
        <ProductID>3225</ProductID>
        <Version>
          <VersionMajor>8</VersionMajor>
          <VersionMinor>30</VersionMinor>
          <BuildMajor>0</BuildMajor>
          <BuildMinor>0</BuildMinor>
        </Version>
      </Creator>
    </Activity>
  </Activities>
  <Author xsi:type="Application_t">
    <Name>Connect Api</Name>
    <Build>
      <Version>
        <VersionMajor>25</VersionMajor>
        <VersionMinor>15</VersionMinor>
        <BuildMajor>0</BuildMajor>
        <BuildMinor>0</BuildMinor>
      </Version>
    </Build>
    <LangID>en</LangID>
    <PartNumber>006-D2449-00</PartNumber>
  </Author>
</TrainingCenterDatabase>
