<?xml version="1.0" encoding="UTF-8"?>
<TrainingCenterDatabase
  xsi:schemaLocation="http://www.garmin.com/xmlschemas/TrainingCenterDatabase/v2 http://www.garmin.com/xmlschemas/TrainingCenterDatabasev2.xsd"
  xmlns:ns5="http://www.garmin.com/xmlschemas/ActivityGoals/v1"
  xmlns:ns3="http://www.garmin.com/xmlschemas/ActivityExtension/v2"
  xmlns:ns2="http://www.garmin.com/xmlschemas/UserProfile/v2"
  xmlns="http://www.garmin.com/xmlschemas/TrainingCenterDatabase/v2"
  xmlns:xsi="http://www.w3.org/2001/XMLSchema-instance" xmlns:ns4="http://www.garmin.com/xmlschemas/ProfileExtension/v1">
  <Activities>
    <Activity Sport="Other">
      <Id>2025-07-30T17:13:36.000Z</Id>
      <Lap StartTime="2025-07-30T17:13:36.000Z">
        <TotalTimeSeconds>267.855</TotalTimeSeconds>
        <DistanceMeters>1000.0</DistanceMeters>
        <MaximumSpeed>6.157999992370606</MaximumSpeed>
        <Calories>98</Calories>
        <Intensity>Active</Intensity>
        <TriggerMethod>Manual</TriggerMethod>
        <Track>
          <Trackpoint>
            <Time>2025-07-30T17:13:36.000Z</Time>
            <DistanceMeters>0.0</DistanceMeters>
            <Extensions>
              <ns3:TPX/>
            </Extensions>
          </Trackpoint>
          <Trackpoint>
            <Time>2025-07-30T17:13:44.000Z</Time>
            <Position>
              <LatitudeDegrees>44.28908284753561</LatitudeDegrees>
              <LongitudeDegrees>-81.59159149043262</LongitudeDegrees>
            </Position>
            <DistanceMeters>2.180000066757202</DistanceMeters>
            <Extensions>
              <ns3:TPX>
                <ns3:Speed>4.730999946594238</ns3:Speed>
              </ns3:TPX>
            </Extensions>
          </Trackpoint>
          <Trackpoint>
            <Time>2025-07-30T17:13:48.000Z</Time>
            <Position>
              <LatitudeDegrees>44.28914554417133</LatitudeDegrees>
              <LongitudeDegrees>-81.59166256897151</LongitudeDegrees>
            </Position>
            <DistanceMeters>8.460000038146973</DistanceMeters>
            <Extensions>
              <ns3:TPX>
                <ns3:Speed>3.4159998893737793</ns3:Speed>
              </ns3:TPX>
            </Extensions>
          </Trackpoint>
          <Trackpoint>
            <Time>2025-07-30T17:13:53.000Z</Time>
            <Position>
              <LatitudeDegrees>44.28915384225547</LatitudeDegrees>
              <LongitudeDegrees>-81.59173197112978</LongitudeDegrees>
            </Position>
            <DistanceMeters>14.09000015258789</DistanceMeters>
            <Extensions>
              <ns3:TPX>
                <ns3:Speed>2.4700000286102295</ns3:Speed>
              </ns3:TPX>
            </Extensions>
          </Trackpoint>
          <Trackpoint>
            <Time>2025-07-30T17:13:56.000Z</Time>
            <Position>
              <LatitudeDegrees>44.28916214033961</LatitudeDegrees>
              <LongitudeDegrees>-81.59179542213678</LongitudeDegrees>
            </Position>
            <DistanceMeters>19.25</DistanceMeters>
            <Extensions>
              <ns3:TPX>
                <ns3:Speed>1.7209999561309814</ns3:Speed>
              </ns3:TPX>
            </Extensions>
          </Trackpoint>
          <Trackpoint>
            <Time>2025-07-30T17:14:04.000Z</Time>
            <Position>
              <LatitudeDegrees>44.28917177952826</LatitudeDegrees>
              <LongitudeDegrees>-81.59202366136014</LongitudeDegrees>
            </Position>
            <DistanceMeters>37.630001068115234</DistanceMeters>
            <Extensions>
              <ns3:TPX>
                <ns3:Speed>2.0880000591278076</ns3:Speed>
              </ns3:TPX>
            </Extensions>
          </Trackpoint>
          <Trackpoint>
            <Time>2025-07-30T17:14:09.000Z</Time>
            <Position>
              <LatitudeDegrees>44.2891232483089</LatitudeDegrees>
              <LongitudeDegrees>-81.59218400716782</LongitudeDegrees>
            </Position>
            <DistanceMeters>51.779998779296875</DistanceMeters>
            <Extensions>
              <ns3:TPX>
                <ns3:Speed>2.5510001182556152</ns3:Speed>
              </ns3:TPX>
            </Extensions>
          </Trackpoint>
          <Trackpoint>
            <Time>2025-07-30T17:14:14.000Z</Time>
            <Position>
              <LatitudeDegrees>44.289104640483856</LatitudeDegrees>
              <LongitudeDegrees>-81.59236388280988</LongitudeDegrees>
            </Position>
            <DistanceMeters>66.30999755859375</DistanceMeters>
            <Extensions>
              <ns3:TPX>
                <ns3:Speed>2.811000108718872</ns3:Speed>
              </ns3:TPX>
            </Extensions>
          </Trackpoint>
          <Trackpoint>
            <Time>2025-07-30T17:14:18.000Z</Time>
            <Position>
              <LatitudeDegrees>44.28911419585347</LatitudeDegrees>
              <LongitudeDegrees>-81.59256253391504</LongitudeDegrees>
            </Position>
            <DistanceMeters>82.29000091552734</DistanceMeters>
            <Extensions>
              <ns3:TPX>
                <ns3:Speed>3.257999897003174</ns3:Speed>
              </ns3:TPX>
            </Extensions>
          </Trackpoint>
          <Trackpoint>
            <Time>2025-07-30T17:14:25.000Z</Time>
            <Position>
              <LatitudeDegrees>44.28914872929454</LatitudeDegrees>
              <LongitudeDegrees>-81.59283511340618</LongitudeDegrees>
            </Position>
            <DistanceMeters>104.38999938964844</DistanceMeters>
            <Extensions>
              <ns3:TPX>
                <ns3:Speed>3.4560000896453857</ns3:Speed>
              </ns3:TPX>
            </Extensions>
          </Trackpoint>
          <Trackpoint>
            <Time>2025-07-30T17:14:35.000Z</Time>
            <Position>
              <LatitudeDegrees>44.289208659902215</LatitudeDegrees>
              <LongitudeDegrees>-81.59323744475842</LongitudeDegrees>
            </Position>
            <DistanceMeters>137.17999267578125</DistanceMeters>
            <Extensions>
              <ns3:TPX>
                <ns3:Speed>3.2160000801086426</ns3:Speed>
              </ns3:TPX>
            </Extensions>
          </Trackpoint>
          <Trackpoint>
            <Time>2025-07-30T17:14:43.000Z</Time>
            <Position>
              <LatitudeDegrees>44.289266830310225</LatitudeDegrees>
              <LongitudeDegrees>-81.59364706836641</LongitudeDegrees>
            </Position>
            <DistanceMeters>170.50999450683594</DistanceMeters>
            <Extensions>
              <ns3:TPX>
                <ns3:Speed>3.930000066757202</ns3:Speed>
              </ns3:TPX>
            </Extensions>
          </Trackpoint>
          <Trackpoint>
            <Time>2025-07-30T17:14:50.000Z</Time>
            <Position>
              <LatitudeDegrees>44.28929893299937</LatitudeDegrees>
              <LongitudeDegrees>-81.59403833560646</LongitudeDegrees>
            </Position>
            <DistanceMeters>201.97000122070312</DistanceMeters>
            <Extensions>
              <ns3:TPX>
                <ns3:Speed>4.51200008392334</ns3:Speed>
              </ns3:TPX>
            </Extensions>
          </Trackpoint>
          <Trackpoint>
            <Time>2025-07-30T17:15:01.000Z</Time>
            <Position>
              <LatitudeDegrees>44.28933992050588</LatitudeDegrees>
              <LongitudeDegrees>-81.59467091783881</LongitudeDegrees>
            </Position>
            <DistanceMeters>252.6699981689453</DistanceMeters>
            <Extensions>
              <ns3:TPX>
                <ns3:Speed>4.593999862670898</ns3:Speed>
              </ns3:TPX>
            </Extensions>
          </Trackpoint>
          <Trackpoint>
            <Time>2025-07-30T17:15:04.000Z</Time>
            <Position>
              <LatitudeDegrees>44.289364060387015</LatitudeDegrees>
              <LongitudeDegrees>-81.59487920813262</LongitudeDegrees>
            </Position>
            <DistanceMeters>269.510009765625</DistanceMeters>
            <Extensions>
              <ns3:TPX>
                <ns3:Speed>4.559000015258789</ns3:Speed>
              </ns3:TPX>
            </Extensions>
          </Trackpoint>
          <Trackpoint>
            <Time>2025-07-30T17:15:11.000Z</Time>
            <Position>
              <LatitudeDegrees>44.2893751244992</LatitudeDegrees>
              <LongitudeDegrees>-81.59520769491792</LongitudeDegrees>
            </Position>
            <DistanceMeters>295.7699890136719</DistanceMeters>
            <Extensions>
              <ns3:TPX>
                <ns3:Speed>4.03000020980835</ns3:Speed>
              </ns3:TPX>
            </Extensions>
          </Trackpoint>
          <Trackpoint>
            <Time>2025-07-30T17:15:19.000Z</Time>
            <Position>
              <LatitudeDegrees>44.28935341536999</LatitudeDegrees>
              <LongitudeDegrees>-81.59549133852124</LongitudeDegrees>
            </Position>
            <DistanceMeters>318.5400085449219</DistanceMeters>
            <Extensions>
              <ns3:TPX>
                <ns3:Speed>3.0810000896453857</ns3:Speed>
              </ns3:TPX>
            </Extensions>
          </Trackpoint>
          <Trackpoint>
            <Time>2025-07-30T17:15:29.000Z</Time>
            <Position>
              <LatitudeDegrees>44.28929935209453</LatitudeDegrees>
              <LongitudeDegrees>-81.59582116641104</LongitudeDegrees>
            </Position>
            <DistanceMeters>345.5400085449219</DistanceMeters>
            <Extensions>
              <ns3:TPX>
                <ns3:Speed>2.688999891281128</ns3:Speed>
              </ns3:TPX>
            </Extensions>
          </Trackpoint>
          <Trackpoint>
            <Time>2025-07-30T17:15:39.000Z</Time>
            <Position>
              <LatitudeDegrees>44.289210671558976</LatitudeDegrees>
              <LongitudeDegrees>-81.59614487551153</LongitudeDegrees>
            </Position>
            <DistanceMeters>373.17999267578125</DistanceMeters>
            <Extensions>
              <ns3:TPX>
                <ns3:Speed>2.7980000972747803</ns3:Speed>
              </ns3:TPX>
            </Extensions>
          </Trackpoint>
          <Trackpoint>
            <Time>2025-07-30T17:15:52.000Z</Time>
            <Position>
              <LatitudeDegrees>44.28916247561574</LatitudeDegrees>
              <LongitudeDegrees>-81.59655617550015</LongitudeDegrees>
            </Position>
            <DistanceMeters>406.69000244140625</DistanceMeters>
            <Extensions>
              <ns3:TPX>
                <ns3:Speed>2.565000057220459</ns3:Speed>
              </ns3:TPX>
            </Extensions>
          </Trackpoint>
          <Trackpoint>
            <Time>2025-07-30T17:15:59.000Z</Time>
            <Position>
              <LatitudeDegrees>44.28921729326248</LatitudeDegrees>
              <LongitudeDegrees>-81.59685507416725</LongitudeDegrees>
            </Position>
            <DistanceMeters>431.3500061035156</DistanceMeters>
            <Extensions>
              <ns3:TPX>
                <ns3:Speed>3.1089999675750732</ns3:Speed>
              </ns3:TPX>
            </Extensions>
          </Trackpoint>
          <Trackpoint>
            <Time>2025-07-30T17:16:07.000Z</Time>
            <Position>
              <LatitudeDegrees>44.289363557472825</LatitudeDegrees>
              <LongitudeDegrees>-81.59725329838693</LongitudeDegrees>
            </Position>
            <DistanceMeters>467.1600036621094</DistanceMeters>
            <Extensions>
              <ns3:TPX>
                <ns3:Speed>4.247000217437744</ns3:Speed>
              </ns3:TPX>
            </Extensions>
          </Trackpoint>
          <Trackpoint>
            <Time>2025-07-30T17:16:15.000Z</Time>
            <Position>
              <LatitudeDegrees>44.28944720886648</LatitudeDegrees>
              <LongitudeDegrees>-81.59759854897857</LongitudeDegrees>
            </Position>
            <DistanceMeters>496.42999267578125</DistanceMeters>
            <Extensions>
              <ns3:TPX>
                <ns3:Speed>4.019000053405762</ns3:Speed>
              </ns3:TPX>
            </Extensions>
          </Trackpoint>
          <Trackpoint>
            <Time>2025-07-30T17:16:22.000Z</Time>
            <Position>
              <LatitudeDegrees>44.28949632681906</LatitudeDegrees>
              <LongitudeDegrees>-81.5978716313839</LongitudeDegrees>
            </Position>
            <DistanceMeters>518.8900146484375</DistanceMeters>
            <Extensions>
              <ns3:TPX>
                <ns3:Speed>3.302000045776367</ns3:Speed>
              </ns3:TPX>
            </Extensions>
          </Trackpoint>
          <Trackpoint>
            <Time>2025-07-30T17:16:27.000Z</Time>
            <Position>
              <LatitudeDegrees>44.28955147974193</LatitudeDegrees>
              <LongitudeDegrees>-81.59816147759557</LongitudeDegrees>
            </Position>
            <DistanceMeters>542.8400268554688</DistanceMeters>
            <Extensions>
              <ns3:TPX>
                <ns3:Speed>3.868000030517578</ns3:Speed>
              </ns3:TPX>
            </Extensions>
          </Trackpoint>
          <Trackpoint>
            <Time>2025-07-30T17:16:33.000Z</Time>
            <Position>
              <LatitudeDegrees>44.289590790867805</LatitudeDegrees>
              <LongitudeDegrees>-81.59857520833611</LongitudeDegrees>
            </Position>
            <DistanceMeters>576.2100219726562</DistanceMeters>
            <Extensions>
              <ns3:TPX>
                <ns3:Speed>5.081999778747559</ns3:Speed>
              </ns3:TPX>
            </Extensions>
          </Trackpoint>
          <Trackpoint>
            <Time>2025-07-30T17:16:34.000Z</Time>
            <Position>
              <LatitudeDegrees>44.28958626464009</LatitudeDegrees>
              <LongitudeDegrees>-81.59862969070673</LongitudeDegrees>
            </Position>
            <DistanceMeters>580.5800170898438</DistanceMeters>
            <Extensions>
              <ns3:TPX>
                <ns3:Speed>5.142000198364258</ns3:Speed>
              </ns3:TPX>
            </Extensions>
          </Trackpoint>
          <Trackpoint>
            <Time>2025-07-30T17:16:43.000Z</Time>
            <Position>
              <LatitudeDegrees>44.28955843672156</LatitudeDegrees>
              <LongitudeDegrees>-81.59929353743792</LongitudeDegrees>
            </Position>
            <DistanceMeters>633.6799926757812</DistanceMeters>
            <Extensions>
              <ns3:TPX>
                <ns3:Speed>5.7820000648498535</ns3:Speed>
              </ns3:TPX>
            </Extensions>
          </Trackpoint>
          <Trackpoint>
            <Time>2025-07-30T17:16:44.000Z</Time>
            <Position>
              <LatitudeDegrees>44.28955634124577</LatitudeDegrees>
              <LongitudeDegrees>-81.59935874864459</LongitudeDegrees>
            </Position>
            <DistanceMeters>638.8900146484375</DistanceMeters>
            <Extensions>
              <ns3:TPX>
                <ns3:Speed>5.673999786376953</ns3:Speed>
              </ns3:TPX>
            </Extensions>
          </Trackpoint>
          <Trackpoint>
            <Time>2025-07-30T17:16:51.000Z</Time>
            <Position>
              <LatitudeDegrees>44.28954393602908</LatitudeDegrees>
              <LongitudeDegrees>-81.59981028176844</LongitudeDegrees>
            </Position>
            <DistanceMeters>674.97998046875</DistanceMeters>
            <Extensions>
              <ns3:TPX>
                <ns3:Speed>5.364999771118164</ns3:Speed>
              </ns3:TPX>
            </Extensions>
          </Trackpoint>
          <Trackpoint>
            <Time>2025-07-30T17:16:52.000Z</Time>
            <Position>
              <LatitudeDegrees>44.289535973221064</LatitudeDegrees>
              <LongitudeDegrees>-81.59987423568964</LongitudeDegrees>
            </Position>
            <DistanceMeters>680.1599731445312</DistanceMeters>
            <Extensions>
              <ns3:TPX>
                <ns3:Speed>5.289000034332275</ns3:Speed>
              </ns3:TPX>
            </Extensions>
          </Trackpoint>
          <Trackpoint>
            <Time>2025-07-30T17:16:57.000Z</Time>
            <Position>
              <LatitudeDegrees>44.28949439898133</LatitudeDegrees>
              <LongitudeDegrees>-81.60018738359213</LongitudeDegrees>
            </Position>
            <DistanceMeters>705.5900268554688</DistanceMeters>
            <Extensions>
              <ns3:TPX>
                <ns3:Speed>5.13100004196167</ns3:Speed>
              </ns3:TPX>
            </Extensions>
          </Trackpoint>
          <Trackpoint>
            <Time>2025-07-30T17:17:07.000Z</Time>
            <Position>
              <LatitudeDegrees>44.28946439176798</LatitudeDegrees>
              <LongitudeDegrees>-81.60088283009827</LongitudeDegrees>
            </Position>
            <DistanceMeters>761.219970703125</DistanceMeters>
            <Extensions>
              <ns3:TPX>
                <ns3:Speed>5.482999801635742</ns3:Speed>
              </ns3:TPX>
            </Extensions>
          </Trackpoint>
          <Trackpoint>
            <Time>2025-07-30T17:17:08.000Z</Time>
            <Position>
              <LatitudeDegrees>44.289460368454456</LatitudeDegrees>
              <LongitudeDegrees>-81.60095575265586</LongitudeDegrees>
            </Position>
            <DistanceMeters>767.0499877929688</DistanceMeters>
            <Extensions>
              <ns3:TPX>
                <ns3:Speed>5.557000160217285</ns3:Speed>
              </ns3:TPX>
            </Extensions>
          </Trackpoint>
          <Trackpoint>
            <Time>2025-07-30T17:17:15.000Z</Time>
            <Position>
              <LatitudeDegrees>44.2894443590194</LatitudeDegrees>
              <LongitudeDegrees>-81.6014096327126</LongitudeDegrees>
            </Position>
            <DistanceMeters>803.3400268554688</DistanceMeters>
            <Extensions>
              <ns3:TPX>
                <ns3:Speed>5.51800012588501</ns3:Speed>
              </ns3:TPX>
            </Extensions>
          </Trackpoint>
          <Trackpoint>
            <Time>2025-07-30T17:17:22.000Z</Time>
            <Position>
              <LatitudeDegrees>44.289448047056794</LatitudeDegrees>
              <LongitudeDegrees>-81.60174767486751</LongitudeDegrees>
            </Position>
            <DistanceMeters>830.3300170898438</DistanceMeters>
            <Extensions>
              <ns3:TPX>
                <ns3:Speed>4.327000141143799</ns3:Speed>
              </ns3:TPX>
            </Extensions>
          </Trackpoint>
          <Trackpoint>
            <Time>2025-07-30T17:17:30.000Z</Time>
            <Position>
              <LatitudeDegrees>44.289505714550614</LatitudeDegrees>
              <LongitudeDegrees>-81.60207591019571</LongitudeDegrees>
            </Position>
            <DistanceMeters>857.510009765625</DistanceMeters>
            <Extensions>
              <ns3:TPX>
                <ns3:Speed>3.4749999046325684</ns3:Speed>
              </ns3:TPX>
            </Extensions>
          </Trackpoint>
          <Trackpoint>
            <Time>2025-07-30T17:17:35.000Z</Time>
            <Position>
              <LatitudeDegrees>44.28959330543876</LatitudeDegrees>
              <LongitudeDegrees>-81.60234832204878</LongitudeDegrees>
            </Position>
            <DistanceMeters>881.3499755859375</DistanceMeters>
            <Extensions>
              <ns3:TPX>
                <ns3:Speed>3.9570000171661377</ns3:Speed>
              </ns3:TPX>
            </Extensions>
          </Trackpoint>
          <Trackpoint>
            <Time>2025-07-30T17:17:45.000Z</Time>
            <Position>
              <LatitudeDegrees>44.28967846557498</LatitudeDegrees>
              <LongitudeDegrees>-81.60280119627714</LongitudeDegrees>
            </Position>
            <DistanceMeters>918.739990234375</DistanceMeters>
            <Extensions>
              <ns3:TPX>
                <ns3:Speed>3.8589999675750732</ns3:Speed>
              </ns3:TPX>
            </Extensions>
          </Trackpoint>
          <Trackpoint>
            <Time>2025-07-30T17:17:54.000Z</Time>
            <Position>
              <LatitudeDegrees>44.28974216803908</LatitudeDegrees>
              <LongitudeDegrees>-81.6032054554671</LongitudeDegrees>
            </Position>
            <DistanceMeters>951.8599853515625</DistanceMeters>
            <Extensions>
              <ns3:TPX>
                <ns3:Speed>3.63100004196167</ns3:Speed>
              </ns3:TPX>
            </Extensions>
          </Trackpoint>
          <Trackpoint>
            <Time>2025-07-30T17:18:00.000Z</Time>
            <Position>
              <LatitudeDegrees>44.289869740605354</LatitudeDegrees>
              <LongitudeDegrees>-81.60356068052351</LongitudeDegrees>
            </Position>
            <DistanceMeters>983.5599975585938</DistanceMeters>
            <Extensions>
              <ns3:TPX>
                <ns3:Speed>4.539999961853027</ns3:Speed>
              </ns3:TPX>
            </Extensions>
          </Trackpoint>
          <Trackpoint>
            <Time>2025-07-30T17:18:03.000Z</Time>
            <Position>
              <LatitudeDegrees>44.28994392044842</LatitudeDegrees>
              <LongitudeDegrees>-81.60375053063035</LongitudeDegrees>
            </Position>
            <DistanceMeters>1000.8099975585938</DistanceMeters>
            <Extensions>
              <ns3:TPX>
                <ns3:Speed>5.132999897003174</ns3:Speed>
              </ns3:TPX>
            </Extensions>
          </Trackpoint>
        </Track>
        <Extensions>
          <ns3:LX>
            <ns3:AvgSpeed>3.7330000400543217</ns3:AvgSpeed>
            <ns3:Steps>16</ns3:Steps>
          </ns3:LX>
        </Extensions>
      </Lap>
      <Lap StartTime="2025-07-30T17:18:04.000Z">
        <TotalTimeSeconds>272.248</TotalTimeSeconds>
        <DistanceMeters>1000.0</DistanceMeters>
        <MaximumSpeed>5.686999797821045</MaximumSpeed>
        <Calories>98</Calories>
        <Intensity>Active</Intensity>
        <TriggerMethod>Manual</TriggerMethod>
        <Track>
          <Trackpoint>
            <Time>2025-07-30T17:18:09.000Z</Time>
            <Position>
              <LatitudeDegrees>44.29007618688047</LatitudeDegrees>
              <LongitudeDegrees>-81.60413081757724</LongitudeDegrees>
            </Position>
            <DistanceMeters>1034.56005859375</DistanceMeters>
            <Extensions>
              <ns3:TPX>
                <ns3:Speed>5.614999771118164</ns3:Speed>
              </ns3:TPX>
            </Extensions>
          </Trackpoint>
          <Trackpoint>
            <Time>2025-07-30T17:18:15.000Z</Time>
            <Position>
              <LatitudeDegrees>44.29018951021135</LatitudeDegrees>
              <LongitudeDegrees>-81.60450456663966</LongitudeDegrees>
            </Position>
            <DistanceMeters>1066.97998046875</DistanceMeters>
            <Extensions>
              <ns3:TPX>
                <ns3:Speed>5.515999794006348</ns3:Speed>
              </ns3:TPX>
            </Extensions>
          </Trackpoint>
          <Trackpoint>
            <Time>2025-07-30T17:18:16.000Z</Time>
            <Position>
              <LatitudeDegrees>44.29020753130317</LatitudeDegrees>
              <LongitudeDegrees>-81.6045541036874</LongitudeDegrees>
            </Position>
            <DistanceMeters>1071.4100341796875</DistanceMeters>
            <Extensions>
              <ns3:TPX>
                <ns3:Speed>5.418000221252441</ns3:Speed>
              </ns3:TPX>
            </Extensions>
          </Trackpoint>
          <Trackpoint>
            <Time>2025-07-30T17:18:21.000Z</Time>
            <Position>
              <LatitudeDegrees>44.2903077788651</LatitudeDegrees>
              <LongitudeDegrees>-81.60479768179357</LongitudeDegrees>
            </Position>
            <DistanceMeters>1093.8199462890625</DistanceMeters>
            <Extensions>
              <ns3:TPX>
                <ns3:Speed>4.939000129699707</ns3:Speed>
              </ns3:TPX>
            </Extensions>
          </Trackpoint>
          <Trackpoint>
            <Time>2025-07-30T17:18:22.000Z</Time>
            <Position>
              <LatitudeDegrees>44.29032487794757</LatitudeDegrees>
              <LongitudeDegrees>-81.60484755411744</LongitudeDegrees>
            </Position>
            <DistanceMeters>1098.22998046875</DistanceMeters>
            <Extensions>
              <ns3:TPX>
                <ns3:Speed>4.815999984741211</ns3:Speed>
              </ns3:TPX>
            </Extensions>
          </Trackpoint>
          <Trackpoint>
            <Time>2025-07-30T17:18:28.000Z</Time>
            <Position>
              <LatitudeDegrees>44.290387239307165</LatitudeDegrees>
              <LongitudeDegrees>-81.60510756075382</LongitudeDegrees>
            </Position>
            <DistanceMeters>1120.1300048828125</DistanceMeters>
            <Extensions>
              <ns3:TPX>
                <ns3:Speed>4.061999797821045</ns3:Speed>
              </ns3:TPX>
            </Extensions>
          </Trackpoint>
          <Trackpoint>
            <Time>2025-07-30T17:18:34.000Z</Time>
            <Position>
              <LatitudeDegrees>44.29042403586209</LatitudeDegrees>
              <LongitudeDegrees>-81.60531182773411</LongitudeDegrees>
            </Position>
            <DistanceMeters>1137.06005859375</DistanceMeters>
            <Extensions>
              <ns3:TPX>
                <ns3:Speed>3.23799991607666</ns3:Speed>
              </ns3:TPX>
            </Extensions>
          </Trackpoint>
          <Trackpoint>
            <Time>2025-07-30T17:18:43.000Z</Time>
            <Position>
              <LatitudeDegrees>44.29055797867477</LatitudeDegrees>
              <LongitudeDegrees>-81.60551592707634</LongitudeDegrees>
            </Position>
            <DistanceMeters>1159.3299560546875</DistanceMeters>
            <Extensions>
              <ns3:TPX>
                <ns3:Speed>2.4730000495910645</ns3:Speed>
              </ns3:TPX>
            </Extensions>
          </Trackpoint>
          <Trackpoint>
            <Time>2025-07-30T17:18:49.000Z</Time>
            <Position>
              <LatitudeDegrees>44.29064146243036</LatitudeDegrees>
              <LongitudeDegrees>-81.60565783269703</LongitudeDegrees>
            </Position>
            <DistanceMeters>1174.6800537109375</DistanceMeters>
            <Extensions>
              <ns3:TPX>
                <ns3:Speed>2.5959999561309814</ns3:Speed>
              </ns3:TPX>
            </Extensions>
          </Trackpoint>
          <Trackpoint>
            <Time>2025-07-30T17:18:55.000Z</Time>
            <Position>
              <LatitudeDegrees>44.290712624788284</LatitudeDegrees>
              <LongitudeDegrees>-81.60592513158917</LongitudeDegrees>
            </Position>
            <DistanceMeters>1197.47998046875</DistanceMeters>
            <Extensions>
              <ns3:TPX>
                <ns3:Speed>3.180999994277954</ns3:Speed>
              </ns3:TPX>
            </Extensions>
          </Trackpoint>
          <Trackpoint>
            <Time>2025-07-30T17:19:01.000Z</Time>
            <Position>
              <LatitudeDegrees>44.290803484618664</LatitudeDegrees>
              <LongitudeDegrees>-81.6062505170703</LongitudeDegrees>
            </Position>
            <DistanceMeters>1225.3599853515625</DistanceMeters>
            <Extensions>
              <ns3:TPX>
                <ns3:Speed>4.223999977111816</ns3:Speed>
              </ns3:TPX>
            </Extensions>
          </Trackpoint>
          <Trackpoint>
            <Time>2025-07-30T17:19:09.000Z</Time>
            <Position>
              <LatitudeDegrees>44.29090155288577</LatitudeDegrees>
              <LongitudeDegrees>-81.60670137964189</LongitudeDegrees>
            </Position>
            <DistanceMeters>1263.010009765625</DistanceMeters>
            <Extensions>
              <ns3:TPX>
                <ns3:Speed>4.7230000495910645</ns3:Speed>
              </ns3:TPX>
            </Extensions>
          </Trackpoint>
          <Trackpoint>
            <Time>2025-07-30T17:19:18.000Z</Time>
            <Position>
              <LatitudeDegrees>44.291034238412976</LatitudeDegrees>
              <LongitudeDegrees>-81.60723178647459</LongitudeDegrees>
            </Position>
            <DistanceMeters>1308.030029296875</DistanceMeters>
            <Extensions>
              <ns3:TPX>
                <ns3:Speed>4.89900016784668</ns3:Speed>
              </ns3:TPX>
            </Extensions>
          </Trackpoint>
          <Trackpoint>
            <Time>2025-07-30T17:19:21.000Z</Time>
            <Position>
              <LatitudeDegrees>44.29109735414386</LatitudeDegrees>
              <LongitudeDegrees>-81.60738861188293</LongitudeDegrees>
            </Position>
            <DistanceMeters>1322.4100341796875</DistanceMeters>
            <Extensions>
              <ns3:TPX>
                <ns3:Speed>4.951000213623047</ns3:Speed>
              </ns3:TPX>
            </Extensions>
          </Trackpoint>
          <Trackpoint>
            <Time>2025-07-30T17:19:24.000Z</Time>
            <Position>
              <LatitudeDegrees>44.291169522330165</LatitudeDegrees>
              <LongitudeDegrees>-81.60751308314502</LongitudeDegrees>
            </Position>
            <DistanceMeters>1335.1700439453125</DistanceMeters>
            <Extensions>
              <ns3:TPX>
                <ns3:Speed>4.7729997634887695</ns3:Speed>
              </ns3:TPX>
            </Extensions>
          </Trackpoint>
          <Trackpoint>
            <Time>2025-07-30T17:19:29.000Z</Time>
            <Position>
              <LatitudeDegrees>44.29130086675286</LatitudeDegrees>
              <LongitudeDegrees>-81.60771148279309</LongitudeDegrees>
            </Position>
            <DistanceMeters>1356.72998046875</DistanceMeters>
            <Extensions>
              <ns3:TPX>
                <ns3:Speed>4.51200008392334</ns3:Speed>
              </ns3:TPX>
            </Extensions>
          </Trackpoint>
          <Trackpoint>
            <Time>2025-07-30T17:19:31.000Z</Time>
            <Position>
              <LatitudeDegrees>44.29134487174451</LatitudeDegrees>
              <LongitudeDegrees>-81.60779094323516</LongitudeDegrees>
            </Position>
            <DistanceMeters>1364.72998046875</DistanceMeters>
            <Extensions>
              <ns3:TPX>
                <ns3:Speed>4.300000190734863</ns3:Speed>
              </ns3:TPX>
            </Extensions>
          </Trackpoint>
          <Trackpoint>
            <Time>2025-07-30T17:19:39.000Z</Time>
            <Position>
              <LatitudeDegrees>44.29150412790477</LatitudeDegrees>
              <LongitudeDegrees>-81.60811842419207</LongitudeDegrees>
            </Position>
            <DistanceMeters>1396.3199462890625</DistanceMeters>
            <Extensions>
              <ns3:TPX>
                <ns3:Speed>4.013000011444092</ns3:Speed>
              </ns3:TPX>
            </Extensions>
          </Trackpoint>
          <Trackpoint>
            <Time>2025-07-30T17:19:47.000Z</Time>
            <Position>
              <LatitudeDegrees>44.2916511464864</LatitudeDegrees>
              <LongitudeDegrees>-81.60838580690324</LongitudeDegrees>
            </Position>
            <DistanceMeters>1423.2099609375</DistanceMeters>
            <Extensions>
              <ns3:TPX>
                <ns3:Speed>3.5769999027252197</ns3:Speed>
              </ns3:TPX>
            </Extensions>
          </Trackpoint>
          <Trackpoint>
            <Time>2025-07-30T17:19:55.000Z</Time>
            <Position>
              <LatitudeDegrees>44.2917684931308</LatitudeDegrees>
              <LongitudeDegrees>-81.60861597396433</LongitudeDegrees>
            </Position>
            <DistanceMeters>1445.800048828125</DistanceMeters>
            <Extensions>
              <ns3:TPX>
                <ns3:Speed>2.8970000743865967</ns3:Speed>
              </ns3:TPX>
            </Extensions>
          </Trackpoint>
          <Trackpoint>
            <Time>2025-07-30T17:20:03.000Z</Time>
            <Position>
              <LatitudeDegrees>44.29194183088839</LatitudeDegrees>
              <LongitudeDegrees>-81.6088439617306</LongitudeDegrees>
            </Position>
            <DistanceMeters>1472.31005859375</DistanceMeters>
            <Extensions>
              <ns3:TPX>
                <ns3:Speed>3.2060000896453857</ns3:Speed>
              </ns3:TPX>
            </Extensions>
          </Trackpoint>
          <Trackpoint>
            <Time>2025-07-30T17:20:15.000Z</Time>
            <Position>
              <LatitudeDegrees>44.29221742786467</LatitudeDegrees>
              <LongitudeDegrees>-81.60918015986681</LongitudeDegrees>
            </Position>
            <DistanceMeters>1513.0799560546875</DistanceMeters>
            <Extensions>
              <ns3:TPX>
                <ns3:Speed>3.3980000019073486</ns3:Speed>
              </ns3:TPX>
            </Extensions>
          </Trackpoint>
          <Trackpoint>
            <Time>2025-07-30T17:20:24.000Z</Time>
            <Position>
              <LatitudeDegrees>44.29240258410573</LatitudeDegrees>
              <LongitudeDegrees>-81.60939264111221</LongitudeDegrees>
            </Position>
            <DistanceMeters>1539.8199462890625</DistanceMeters>
            <Extensions>
              <ns3:TPX>
                <ns3:Speed>2.993000030517578</ns3:Speed>
              </ns3:TPX>
            </Extensions>
          </Trackpoint>
          <Trackpoint>
            <Time>2025-07-30T17:20:28.000Z</Time>
            <Position>
              <LatitudeDegrees>44.29240811616182</LatitudeDegrees>
              <LongitudeDegrees>-81.60940546542406</LongitudeDegrees>
            </Position>
            <DistanceMeters>1541.27001953125</DistanceMeters>
            <Extensions>
              <ns3:TPX>
                <ns3:Speed>0.0</ns3:Speed>
              </ns3:TPX>
            </Extensions>
          </Trackpoint>
          <Trackpoint>
            <Time>2025-07-30T17:20:32.000Z</Time>
            <Position>
              <LatitudeDegrees>44.29240350611508</LatitudeDegrees>
              <LongitudeDegrees>-81.60938828252256</LongitudeDegrees>
            </Position>
            <DistanceMeters>1544.1700439453125</DistanceMeters>
            <Extensions>
              <ns3:TPX>
                <ns3:Speed>1.2280000448226929</ns3:Speed>
              </ns3:TPX>
            </Extensions>
          </Trackpoint>
          <Trackpoint>
            <Time>2025-07-30T17:20:34.000Z</Time>
            <Position>
              <LatitudeDegrees>44.29239084944129</LatitudeDegrees>
              <LongitudeDegrees>-81.60936162807047</LongitudeDegrees>
            </Position>
            <DistanceMeters>1546.72998046875</DistanceMeters>
            <Extensions>
              <ns3:TPX>
                <ns3:Speed>0.8989999890327454</ns3:Speed>
              </ns3:TPX>
            </Extensions>
          </Trackpoint>
          <Trackpoint>
            <Time>2025-07-30T17:20:38.000Z</Time>
            <Position>
              <LatitudeDegrees>44.292365200817585</LatitudeDegrees>
              <LongitudeDegrees>-81.60927663557231</LongitudeDegrees>
            </Position>
            <DistanceMeters>1554.0799560546875</DistanceMeters>
            <Extensions>
              <ns3:TPX>
                <ns3:Speed>1.1039999723434448</ns3:Speed>
              </ns3:TPX>
            </Extensions>
          </Trackpoint>
          <Trackpoint>
            <Time>2025-07-30T17:20:47.000Z</Time>
            <Position>
              <LatitudeDegrees>44.29232354275882</LatitudeDegrees>
              <LongitudeDegrees>-81.60904194228351</LongitudeDegrees>
            </Position>
            <DistanceMeters>1573.3800048828125</DistanceMeters>
            <Extensions>
              <ns3:TPX>
                <ns3:Speed>2.0950000286102295</ns3:Speed>
              </ns3:TPX>
            </Extensions>
          </Trackpoint>
          <Trackpoint>
            <Time>2025-07-30T17:20:55.000Z</Time>
            <Position>
              <LatitudeDegrees>44.292308539152145</LatitudeDegrees>
              <LongitudeDegrees>-81.60877916961908</LongitudeDegrees>
            </Position>
            <DistanceMeters>1594.43994140625</DistanceMeters>
            <Extensions>
              <ns3:TPX>
                <ns3:Speed>2.490000009536743</ns3:Speed>
              </ns3:TPX>
            </Extensions>
          </Trackpoint>
          <Trackpoint>
            <Time>2025-07-30T17:21:04.000Z</Time>
            <Position>
              <LatitudeDegrees>44.29227308370173</LatitudeDegrees>
              <LongitudeDegrees>-81.60845663398504</LongitudeDegrees>
            </Position>
            <DistanceMeters>1620.489990234375</DistanceMeters>
            <Extensions>
              <ns3:TPX>
                <ns3:Speed>2.8540000915527344</ns3:Speed>
              </ns3:TPX>
            </Extensions>
          </Trackpoint>
          <Trackpoint>
            <Time>2025-07-30T17:21:10.000Z</Time>
            <Position>
              <LatitudeDegrees>44.2922143265605</LatitudeDegrees>
              <LongitudeDegrees>-81.60817097872496</LongitudeDegrees>
            </Position>
            <DistanceMeters>1644.22998046875</DistanceMeters>
            <Extensions>
              <ns3:TPX>
                <ns3:Speed>3.503000020980835</ns3:Speed>
              </ns3:TPX>
            </Extensions>
          </Trackpoint>
          <Trackpoint>
            <Time>2025-07-30T17:21:18.000Z</Time>
            <Position>
              <LatitudeDegrees>44.2921728361398</LatitudeDegrees>
              <LongitudeDegrees>-81.60784299485385</LongitudeDegrees>
            </Position>
            <DistanceMeters>1670.97998046875</DistanceMeters>
            <Extensions>
              <ns3:TPX>
                <ns3:Speed>3.6050000190734863</ns3:Speed>
              </ns3:TPX>
            </Extensions>
          </Trackpoint>
          <Trackpoint>
            <Time>2025-07-30T17:21:24.000Z</Time>
            <Position>
              <LatitudeDegrees>44.29214148782194</LatitudeDegrees>
              <LongitudeDegrees>-81.60764367319643</LongitudeDegrees>
            </Position>
            <DistanceMeters>1687.27001953125</DistanceMeters>
            <Extensions>
              <ns3:TPX>
                <ns3:Speed>2.9700000286102295</ns3:Speed>
              </ns3:TPX>
            </Extensions>
          </Trackpoint>
          <Trackpoint>
            <Time>2025-07-30T17:21:31.000Z</Time>
            <Position>
              <LatitudeDegrees>44.29208289831877</LatitudeDegrees>
              <LongitudeDegrees>-81.60730814561248</LongitudeDegrees>
            </Position>
            <DistanceMeters>1714.8399658203125</DistanceMeters>
            <Extensions>
              <ns3:TPX>
                <ns3:Speed>3.450000047683716</ns3:Speed>
              </ns3:TPX>
            </Extensions>
          </Trackpoint>
          <Trackpoint>
            <Time>2025-07-30T17:21:38.000Z</Time>
            <Position>
              <LatitudeDegrees>44.29199011065066</LatitudeDegrees>
              <LongitudeDegrees>-81.60695744678378</LongitudeDegrees>
            </Position>
            <DistanceMeters>1744.8299560546875</DistanceMeters>
            <Extensions>
              <ns3:TPX>
                <ns3:Speed>4.270999908447266</ns3:Speed>
              </ns3:TPX>
            </Extensions>
          </Trackpoint>
          <Trackpoint>
            <Time>2025-07-30T17:21:46.000Z</Time>
            <Position>
              <LatitudeDegrees>44.291916182264686</LatitudeDegrees>
              <LongitudeDegrees>-81.60650532692671</LongitudeDegrees>
            </Position>
            <DistanceMeters>1781.8699951171875</DistanceMeters>
            <Extensions>
              <ns3:TPX>
                <ns3:Speed>4.517000198364258</ns3:Speed>
              </ns3:TPX>
            </Extensions>
          </Trackpoint>
          <Trackpoint>
            <Time>2025-07-30T17:21:48.000Z</Time>
            <Position>
              <LatitudeDegrees>44.291904363781214</LatitudeDegrees>
              <LongitudeDegrees>-81.60640189424157</LongitudeDegrees>
            </Position>
            <DistanceMeters>1790.22998046875</DistanceMeters>
            <Extensions>
              <ns3:TPX>
                <ns3:Speed>4.5229997634887695</ns3:Speed>
              </ns3:TPX>
            </Extensions>
          </Trackpoint>
          <Trackpoint>
            <Time>2025-07-30T17:21:51.000Z</Time>
            <Position>
              <LatitudeDegrees>44.29188709706068</LatitudeDegrees>
              <LongitudeDegrees>-81.60627583041787</LongitudeDegrees>
            </Position>
            <DistanceMeters>1800.469970703125</DistanceMeters>
            <Extensions>
              <ns3:TPX>
                <ns3:Speed>4.265999794006348</ns3:Speed>
              </ns3:TPX>
            </Extensions>
          </Trackpoint>
          <Trackpoint>
            <Time>2025-07-30T17:21:59.000Z</Time>
            <Position>
              <LatitudeDegrees>44.29182322695851</LatitudeDegrees>
              <LongitudeDegrees>-81.60596972331405</LongitudeDegrees>
            </Position>
            <DistanceMeters>1825.97998046875</DistanceMeters>
            <Extensions>
              <ns3:TPX>
                <ns3:Speed>3.313999891281128</ns3:Speed>
              </ns3:TPX>
            </Extensions>
          </Trackpoint>
          <Trackpoint>
            <Time>2025-07-30T17:22:07.000Z</Time>
            <Position>
              <LatitudeDegrees>44.29171736352146</LatitudeDegrees>
              <LongitudeDegrees>-81.60557216964662</LongitudeDegrees>
            </Position>
            <DistanceMeters>1859.8199462890625</DistanceMeters>
            <Extensions>
              <ns3:TPX>
                <ns3:Speed>3.9539999961853027</ns3:Speed>
              </ns3:TPX>
            </Extensions>
          </Trackpoint>
          <Trackpoint>
            <Time>2025-07-30T17:22:12.000Z</Time>
            <Position>
              <LatitudeDegrees>44.29165852256119</LatitudeDegrees>
              <LongitudeDegrees>-81.6053057089448</LongitudeDegrees>
            </Position>
            <DistanceMeters>1882.0799560546875</DistanceMeters>
            <Extensions>
              <ns3:TPX>
                <ns3:Speed>4.373000144958496</ns3:Speed>
              </ns3:TPX>
            </Extensions>
          </Trackpoint>
          <Trackpoint>
            <Time>2025-07-30T17:22:21.000Z</Time>
            <Position>
              <LatitudeDegrees>44.291562885046005</LatitudeDegrees>
              <LongitudeDegrees>-81.60472048446536</LongitudeDegrees>
            </Position>
            <DistanceMeters>1930.010009765625</DistanceMeters>
            <Extensions>
              <ns3:TPX>
                <ns3:Speed>5.183000087738037</ns3:Speed>
              </ns3:TPX>
            </Extensions>
          </Trackpoint>
          <Trackpoint>
            <Time>2025-07-30T17:22:28.000Z</Time>
            <Position>
              <LatitudeDegrees>44.29148401133716</LatitudeDegrees>
              <LongitudeDegrees>-81.6043059155345</LongitudeDegrees>
            </Position>
            <DistanceMeters>1964.25</DistanceMeters>
            <Extensions>
              <ns3:TPX>
                <ns3:Speed>5.099999904632568</ns3:Speed>
              </ns3:TPX>
            </Extensions>
          </Trackpoint>
          <Trackpoint>
            <Time>2025-07-30T17:22:36.000Z</Time>
            <Position>
              <LatitudeDegrees>44.291427014395595</LatitudeDegrees>
              <LongitudeDegrees>-81.6038066893816</LongitudeDegrees>
            </Position>
            <DistanceMeters>2004.6099853515625</DistanceMeters>
            <Extensions>
              <ns3:TPX>
                <ns3:Speed>4.9070000648498535</ns3:Speed>
              </ns3:TPX>
            </Extensions>
          </Trackpoint>
          <Trackpoint>
            <Time>2025-07-30T17:22:37.000Z</Time>
            <Position>
              <LatitudeDegrees>44.2914180457592</LatitudeDegrees>
              <LongitudeDegrees>-81.60374265164137</LongitudeDegrees>
            </Position>
            <DistanceMeters>2009.81005859375</DistanceMeters>
            <Extensions>
              <ns3:TPX>
                <ns3:Speed>4.927000045776367</ns3:Speed>
              </ns3:TPX>
            </Extensions>
          </Trackpoint>
        </Track>
        <Extensions>
          <ns3:LX>
            <ns3:AvgSpeed>3.6730000972747803</ns3:AvgSpeed>
            <ns3:Steps>53</ns3:Steps>
          </ns3:LX>
        </Extensions>
      </Lap>
      <Lap StartTime="2025-07-30T17:22:37.000Z">
        <TotalTimeSeconds>274.908</TotalTimeSeconds>
        <DistanceMeters>1000.0</DistanceMeters>
        <MaximumSpeed>5.589000225067139</MaximumSpeed>
        <Calories>99</Calories>
        <Intensity>Active</Intensity>
        <TriggerMethod>Manual</TriggerMethod>
        <Track>
          <Trackpoint>
            <Time>2025-07-30T17:22:37.000Z</Time>
            <Position>
              <LatitudeDegrees>44.2914180457592</LatitudeDegrees>
              <LongitudeDegrees>-81.60374265164137</LongitudeDegrees>
            </Position>
            <DistanceMeters>2009.81005859375</DistanceMeters>
            <Extensions>
              <ns3:TPX>
                <ns3:Speed>4.927000045776367</ns3:Speed>
              </ns3:TPX>
            </Extensions>
          </Trackpoint>
          <Trackpoint>
            <Time>2025-07-30T17:22:46.000Z</Time>
            <Position>
              <LatitudeDegrees>44.29133263416588</LatitudeDegrees>
              <LongitudeDegrees>-81.6031264141202</LongitudeDegrees>
            </Position>
            <DistanceMeters>2059.89990234375</DistanceMeters>
            <Extensions>
              <ns3:TPX>
                <ns3:Speed>5.4720001220703125</ns3:Speed>
              </ns3:TPX>
            </Extensions>
          </Trackpoint>
          <Trackpoint>
            <Time>2025-07-30T17:22:48.000Z</Time>
            <Position>
              <LatitudeDegrees>44.29131570272148</LatitudeDegrees>
              <LongitudeDegrees>-81.60299607552588</LongitudeDegrees>
            </Position>
            <DistanceMeters>2070.47998046875</DistanceMeters>
            <Extensions>
              <ns3:TPX>
                <ns3:Speed>5.489999771118164</ns3:Speed>
              </ns3:TPX>
            </Extensions>
          </Trackpoint>
          <Trackpoint>
            <Time>2025-07-30T17:22:53.000Z</Time>
            <Position>
              <LatitudeDegrees>44.291289215907454</LatitudeDegrees>
              <LongitudeDegrees>-81.60273456014693</LongitudeDegrees>
            </Position>
            <DistanceMeters>2091.580078125</DistanceMeters>
            <Extensions>
              <ns3:TPX>
                <ns3:Speed>4.978000164031982</ns3:Speed>
              </ns3:TPX>
            </Extensions>
          </Trackpoint>
          <Trackpoint>
            <Time>2025-07-30T17:23:00.000Z</Time>
            <Position>
              <LatitudeDegrees>44.29122677072883</LatitudeDegrees>
              <LongitudeDegrees>-81.6023142915219</LongitudeDegrees>
            </Position>
            <DistanceMeters>2125.830078125</DistanceMeters>
            <Extensions>
              <ns3:TPX>
                <ns3:Speed>4.626999855041504</ns3:Speed>
              </ns3:TPX>
            </Extensions>
          </Trackpoint>
          <Trackpoint>
            <Time>2025-07-30T17:23:08.000Z</Time>
            <Position>
              <LatitudeDegrees>44.29113213904202</LatitudeDegrees>
              <LongitudeDegrees>-81.60178229212761</LongitudeDegrees>
            </Position>
            <DistanceMeters>2169.570068359375</DistanceMeters>
            <Extensions>
              <ns3:TPX>
                <ns3:Speed>5.459000110626221</ns3:Speed>
              </ns3:TPX>
            </Extensions>
          </Trackpoint>
          <Trackpoint>
            <Time>2025-07-30T17:23:17.000Z</Time>
            <Position>
              <LatitudeDegrees>44.29101504385471</LatitudeDegrees>
              <LongitudeDegrees>-81.60117099992931</LongitudeDegrees>
            </Position>
            <DistanceMeters>2220.090087890625</DistanceMeters>
            <Extensions>
              <ns3:TPX>
                <ns3:Speed>5.565999984741211</ns3:Speed>
              </ns3:TPX>
            </Extensions>
          </Trackpoint>
          <Trackpoint>
            <Time>2025-07-30T17:23:20.000Z</Time>
            <Position>
              <LatitudeDegrees>44.2909743078053</LatitudeDegrees>
              <LongitudeDegrees>-81.6009812336415</LongitudeDegrees>
            </Position>
            <DistanceMeters>2235.889892578125</DistanceMeters>
            <Extensions>
              <ns3:TPX>
                <ns3:Speed>5.5269999504089355</ns3:Speed>
              </ns3:TPX>
            </Extensions>
          </Trackpoint>
          <Trackpoint>
            <Time>2025-07-30T17:23:27.000Z</Time>
            <Position>
              <LatitudeDegrees>44.290905157104135</LatitudeDegrees>
              <LongitudeDegrees>-81.60062952898443</LongitudeDegrees>
            </Position>
            <DistanceMeters>2264.989990234375</DistanceMeters>
            <Extensions>
              <ns3:TPX>
                <ns3:Speed>4.691999912261963</ns3:Speed>
              </ns3:TPX>
            </Extensions>
          </Trackpoint>
          <Trackpoint>
            <Time>2025-07-30T17:23:35.000Z</Time>
            <Position>
              <LatitudeDegrees>44.2908432148397</LatitudeDegrees>
              <LongitudeDegrees>-81.6003355756402</LongitudeDegrees>
            </Position>
            <DistanceMeters>2289.43994140625</DistanceMeters>
            <Extensions>
              <ns3:TPX>
                <ns3:Speed>3.2899999618530273</ns3:Speed>
              </ns3:TPX>
            </Extensions>
          </Trackpoint>
          <Trackpoint>
            <Time>2025-07-30T17:23:43.000Z</Time>
            <Position>
              <LatitudeDegrees>44.290796695277095</LatitudeDegrees>
              <LongitudeDegrees>-81.59999962896109</LongitudeDegrees>
            </Position>
            <DistanceMeters>2316.7900390625</DistanceMeters>
            <Extensions>
              <ns3:TPX>
                <ns3:Speed>3.265000104904175</ns3:Speed>
              </ns3:TPX>
            </Extensions>
          </Trackpoint>
          <Trackpoint>
            <Time>2025-07-30T17:23:53.000Z</Time>
            <Position>
              <LatitudeDegrees>44.29070751182735</LatitudeDegrees>
              <LongitudeDegrees>-81.59955128096044</LongitudeDegrees>
            </Position>
            <DistanceMeters>2353.929931640625</DistanceMeters>
            <Extensions>
              <ns3:TPX>
                <ns3:Speed>3.7039999961853027</ns3:Speed>
              </ns3:TPX>
            </Extensions>
          </Trackpoint>
          <Trackpoint>
            <Time>2025-07-30T17:23:59.000Z</Time>
            <Position>
              <LatitudeDegrees>44.290662333369255</LatitudeDegrees>
              <LongitudeDegrees>-81.59934760071337</LongitudeDegrees>
            </Position>
            <DistanceMeters>2370.929931640625</DistanceMeters>
            <Extensions>
              <ns3:TPX>
                <ns3:Speed>3.184999942779541</ns3:Speed>
              </ns3:TPX>
            </Extensions>
          </Trackpoint>
          <Trackpoint>
            <Time>2025-07-30T17:24:07.000Z</Time>
            <Position>
              <LatitudeDegrees>44.290646156296134</LatitudeDegrees>
              <LongitudeDegrees>-81.59911902621388</LongitudeDegrees>
            </Position>
            <DistanceMeters>2389.3701171875</DistanceMeters>
            <Extensions>
              <ns3:TPX>
                <ns3:Speed>2.4839999675750732</ns3:Speed>
              </ns3:TPX>
            </Extensions>
          </Trackpoint>
          <Trackpoint>
            <Time>2025-07-30T17:24:17.000Z</Time>
            <Position>
              <LatitudeDegrees>44.290623273700476</LatitudeDegrees>
              <LongitudeDegrees>-81.59884133376181</LongitudeDegrees>
            </Position>
            <DistanceMeters>2411.81005859375</DistanceMeters>
            <Extensions>
              <ns3:TPX>
                <ns3:Speed>2.196000099182129</ns3:Speed>
              </ns3:TPX>
            </Extensions>
          </Trackpoint>
          <Trackpoint>
            <Time>2025-07-30T17:24:27.000Z</Time>
            <Position>
              <LatitudeDegrees>44.29064154624939</LatitudeDegrees>
              <LongitudeDegrees>-81.59865114837885</LongitudeDegrees>
            </Position>
            <DistanceMeters>2427.169921875</DistanceMeters>
            <Extensions>
              <ns3:TPX>
                <ns3:Speed>1.5700000524520874</ns3:Speed>
              </ns3:TPX>
            </Extensions>
          </Trackpoint>
          <Trackpoint>
            <Time>2025-07-30T17:24:35.000Z</Time>
            <Position>
              <LatitudeDegrees>44.29067239165306</LatitudeDegrees>
              <LongitudeDegrees>-81.59842307679355</LongitudeDegrees>
            </Position>
            <DistanceMeters>2445.780029296875</DistanceMeters>
            <Extensions>
              <ns3:TPX>
                <ns3:Speed>2.065000057220459</ns3:Speed>
              </ns3:TPX>
            </Extensions>
          </Trackpoint>
          <Trackpoint>
            <Time>2025-07-30T17:24:41.000Z</Time>
            <Position>
              <LatitudeDegrees>44.29066929034889</LatitudeDegrees>
              <LongitudeDegrees>-81.59817153587937</LongitudeDegrees>
            </Position>
            <DistanceMeters>2466.010009765625</DistanceMeters>
            <Extensions>
              <ns3:TPX>
                <ns3:Speed>2.9159998893737793</ns3:Speed>
              </ns3:TPX>
            </Extensions>
          </Trackpoint>
          <Trackpoint>
            <Time>2025-07-30T17:24:48.000Z</Time>
            <Position>
              <LatitudeDegrees>44.29061816073954</LatitudeDegrees>
              <LongitudeDegrees>-81.59777364693582</LongitudeDegrees>
            </Position>
            <DistanceMeters>2498.27001953125</DistanceMeters>
            <Extensions>
              <ns3:TPX>
                <ns3:Speed>4.164999961853027</ns3:Speed>
              </ns3:TPX>
            </Extensions>
          </Trackpoint>
          <Trackpoint>
            <Time>2025-07-30T17:24:52.000Z</Time>
            <Position>
              <LatitudeDegrees>44.2905805259943</LatitudeDegrees>
              <LongitudeDegrees>-81.59753744490445</LongitudeDegrees>
            </Position>
            <DistanceMeters>2517.6201171875</DistanceMeters>
            <Extensions>
              <ns3:TPX>
                <ns3:Speed>4.656000137329102</ns3:Speed>
              </ns3:TPX>
            </Extensions>
          </Trackpoint>
          <Trackpoint>
            <Time>2025-07-30T17:24:55.000Z</Time>
            <Position>
              <LatitudeDegrees>44.29054716601968</LatitudeDegrees>
              <LongitudeDegrees>-81.59740065224469</LongitudeDegrees>
            </Position>
            <DistanceMeters>2529.139892578125</DistanceMeters>
            <Extensions>
              <ns3:TPX>
                <ns3:Speed>4.535999774932861</ns3:Speed>
              </ns3:TPX>
            </Extensions>
          </Trackpoint>
          <Trackpoint>
            <Time>2025-07-30T17:25:03.000Z</Time>
            <Position>
              <LatitudeDegrees>44.290459072217345</LatitudeDegrees>
              <LongitudeDegrees>-81.59708490595222</LongitudeDegrees>
            </Position>
            <DistanceMeters>2556.18994140625</DistanceMeters>
            <Extensions>
              <ns3:TPX>
                <ns3:Speed>3.6070001125335693</ns3:Speed>
              </ns3:TPX>
            </Extensions>
          </Trackpoint>
          <Trackpoint>
            <Time>2025-07-30T17:25:12.000Z</Time>
            <Position>
              <LatitudeDegrees>44.29035865701735</LatitudeDegrees>
              <LongitudeDegrees>-81.59662750549614</LongitudeDegrees>
            </Position>
            <DistanceMeters>2594.3701171875</DistanceMeters>
            <Extensions>
              <ns3:TPX>
                <ns3:Speed>4.079999923706055</ns3:Speed>
              </ns3:TPX>
            </Extensions>
          </Trackpoint>
          <Trackpoint>
            <Time>2025-07-30T17:25:21.000Z</Time>
            <Position>
              <LatitudeDegrees>44.29027408361435</LatitudeDegrees>
              <LongitudeDegrees>-81.59622668288648</LongitudeDegrees>
            </Position>
            <DistanceMeters>2627.719970703125</DistanceMeters>
            <Extensions>
              <ns3:TPX>
                <ns3:Speed>3.9820001125335693</ns3:Speed>
              </ns3:TPX>
            </Extensions>
          </Trackpoint>
          <Trackpoint>
            <Time>2025-07-30T17:25:33.000Z</Time>
            <Position>
              <LatitudeDegrees>44.29012069478631</LatitudeDegrees>
              <LongitudeDegrees>-81.59559661522508</LongitudeDegrees>
            </Position>
            <DistanceMeters>2680.830078125</DistanceMeters>
            <Extensions>
              <ns3:TPX>
                <ns3:Speed>4.426000118255615</ns3:Speed>
              </ns3:TPX>
            </Extensions>
          </Trackpoint>
          <Trackpoint>
            <Time>2025-07-30T17:25:41.000Z</Time>
            <Position>
              <LatitudeDegrees>44.29000829346478</LatitudeDegrees>
              <LongitudeDegrees>-81.59513301216066</LongitudeDegrees>
            </Position>
            <DistanceMeters>2719.909912109375</DistanceMeters>
            <Extensions>
              <ns3:TPX>
                <ns3:Speed>4.931000232696533</ns3:Speed>
              </ns3:TPX>
            </Extensions>
          </Trackpoint>
          <Trackpoint>
            <Time>2025-07-30T17:25:48.000Z</Time>
            <Position>
              <LatitudeDegrees>44.2899311799556</LatitudeDegrees>
              <LongitudeDegrees>-81.59487451426685</LongitudeDegrees>
            </Position>
            <DistanceMeters>2742.280029296875</DistanceMeters>
            <Extensions>
              <ns3:TPX>
                <ns3:Speed>3.7990000247955322</ns3:Speed>
              </ns3:TPX>
            </Extensions>
          </Trackpoint>
          <Trackpoint>
            <Time>2025-07-30T17:25:56.000Z</Time>
            <Position>
              <LatitudeDegrees>44.2898672260344</LatitudeDegrees>
              <LongitudeDegrees>-81.59462682902813</LongitudeDegrees>
            </Position>
            <DistanceMeters>2763.300048828125</DistanceMeters>
            <Extensions>
              <ns3:TPX>
                <ns3:Speed>2.740000009536743</ns3:Speed>
              </ns3:TPX>
            </Extensions>
          </Trackpoint>
          <Trackpoint>
            <Time>2025-07-30T17:26:10.000Z</Time>
            <Position>
              <LatitudeDegrees>44.28974577225745</LatitudeDegrees>
              <LongitudeDegrees>-81.59414210356772</LongitudeDegrees>
            </Position>
            <DistanceMeters>2804.31005859375</DistanceMeters>
            <Extensions>
              <ns3:TPX>
                <ns3:Speed>2.884000062942505</ns3:Speed>
              </ns3:TPX>
            </Extensions>
          </Trackpoint>
          <Trackpoint>
            <Time>2025-07-30T17:26:19.000Z</Time>
            <Position>
              <LatitudeDegrees>44.28966195322573</LatitudeDegrees>
              <LongitudeDegrees>-81.5937509201467</LongitudeDegrees>
            </Position>
            <DistanceMeters>2836.909912109375</DistanceMeters>
            <Extensions>
              <ns3:TPX>
                <ns3:Speed>3.4769999980926514</ns3:Speed>
              </ns3:TPX>
            </Extensions>
          </Trackpoint>
          <Trackpoint>
            <Time>2025-07-30T17:26:25.000Z</Time>
            <Position>
              <LatitudeDegrees>44.28961358964443</LatitudeDegrees>
              <LongitudeDegrees>-81.59342276863754</LongitudeDegrees>
            </Position>
            <DistanceMeters>2863.669921875</DistanceMeters>
            <Extensions>
              <ns3:TPX>
                <ns3:Speed>4.0960001945495605</ns3:Speed>
              </ns3:TPX>
            </Extensions>
          </Trackpoint>
          <Trackpoint>
            <Time>2025-07-30T17:26:34.000Z</Time>
            <Position>
              <LatitudeDegrees>44.28949490189552</LatitudeDegrees>
              <LongitudeDegrees>-81.59298028796911</LongitudeDegrees>
            </Position>
            <DistanceMeters>2901.449951171875</DistanceMeters>
            <Extensions>
              <ns3:TPX>
                <ns3:Speed>4.298999786376953</ns3:Speed>
              </ns3:TPX>
            </Extensions>
          </Trackpoint>
          <Trackpoint>
            <Time>2025-07-30T17:26:41.000Z</Time>
            <Position>
              <LatitudeDegrees>44.289408568292856</LatitudeDegrees>
              <LongitudeDegrees>-81.59280963242054</LongitudeDegrees>
            </Position>
            <DistanceMeters>2918.169921875</DistanceMeters>
            <Extensions>
              <ns3:TPX>
                <ns3:Speed>2.989000082015991</ns3:Speed>
              </ns3:TPX>
            </Extensions>
          </Trackpoint>
          <Trackpoint>
            <Time>2025-07-30T17:26:51.000Z</Time>
            <Position>
              <LatitudeDegrees>44.289322989061475</LatitudeDegrees>
              <LongitudeDegrees>-81.59253956750035</LongitudeDegrees>
            </Position>
            <DistanceMeters>2941.780029296875</DistanceMeters>
            <Extensions>
              <ns3:TPX>
                <ns3:Speed>2.2960000038146973</ns3:Speed>
              </ns3:TPX>
            </Extensions>
          </Trackpoint>
          <Trackpoint>
            <Time>2025-07-30T17:27:01.000Z</Time>
            <Position>
              <LatitudeDegrees>44.28923774510622</LatitudeDegrees>
              <LongitudeDegrees>-81.59215592779219</LongitudeDegrees>
            </Position>
            <DistanceMeters>2973.929931640625</DistanceMeters>
            <Extensions>
              <ns3:TPX>
                <ns3:Speed>3.0989999771118164</ns3:Speed>
              </ns3:TPX>
            </Extensions>
          </Trackpoint>
          <Trackpoint>
            <Time>2025-07-30T17:27:10.000Z</Time>
            <Position>
              <LatitudeDegrees>44.28917027078569</LatitudeDegrees>
              <LongitudeDegrees>-81.59184403717518</LongitudeDegrees>
            </Position>
            <DistanceMeters>2999.97998046875</DistanceMeters>
            <Extensions>
              <ns3:TPX>
                <ns3:Speed>3.0329999923706055</ns3:Speed>
              </ns3:TPX>
            </Extensions>
          </Trackpoint>
          <Trackpoint>
            <Time>2025-07-30T17:27:11.000Z</Time>
            <Position>
              <LatitudeDegrees>44.289164151996374</LatitudeDegrees>
              <LongitudeDegrees>-81.59182727336884</LongitudeDegrees>
            </Position>
            <DistanceMeters>3001.489990234375</DistanceMeters>
            <Extensions>
              <ns3:TPX>
                <ns3:Speed>2.861999988555908</ns3:Speed>
              </ns3:TPX>
            </Extensions>
          </Trackpoint>
        </Track>
        <Extensions>
          <ns3:LX>
            <ns3:AvgSpeed>3.638000011444092</ns3:AvgSpeed>
            <ns3:Steps>60</ns3:Steps>
          </ns3:LX>
        </Extensions>
      </Lap>
      <Lap StartTime="2025-07-30T17:27:12.000Z">
        <TotalTimeSeconds>38.311</TotalTimeSeconds>
        <DistanceMeters>30.91</DistanceMeters>
        <MaximumSpeed>2.744999885559082</MaximumSpeed>
        <Calories>2</Calories>
        <Intensity>Active</Intensity>
        <TriggerMethod>Manual</TriggerMethod>
        <Track>
          <Trackpoint>
            <Time>2025-07-30T17:27:18.000Z</Time>
            <Position>
              <LatitudeDegrees>44.289139760658145</LatitudeDegrees>
              <LongitudeDegrees>-81.5916836913675</LongitudeDegrees>
            </Position>
            <DistanceMeters>3013.280029296875</DistanceMeters>
            <Extensions>
              <ns3:TPX>
                <ns3:Speed>1.8320000171661377</ns3:Speed>
              </ns3:TPX>
            </Extensions>
          </Trackpoint>
          <Trackpoint>
            <Time>2025-07-30T17:27:23.000Z</Time>
            <Position>
              <LatitudeDegrees>44.28914135321975</LatitudeDegrees>
              <LongitudeDegrees>-81.5916635747999</LongitudeDegrees>
            </Position>
            <DistanceMeters>3014.97998046875</DistanceMeters>
            <Extensions>
              <ns3:TPX>
                <ns3:Speed>0.0</ns3:Speed>
              </ns3:TPX>
            </Extensions>
          </Trackpoint>
          <Trackpoint>
            <Time>2025-07-30T17:27:29.000Z</Time>
            <Position>
              <LatitudeDegrees>44.289119308814406</LatitudeDegrees>
              <LongitudeDegrees>-81.59163809381425</LongitudeDegrees>
            </Position>
            <DistanceMeters>3018.739990234375</DistanceMeters>
            <Extensions>
              <ns3:TPX>
                <ns3:Speed>0.5740000009536743</ns3:Speed>
              </ns3:TPX>
            </Extensions>
          </Trackpoint>
          <Trackpoint>
            <Time>2025-07-30T17:27:34.000Z</Time>
            <Position>
              <LatitudeDegrees>44.28914110176265</LatitudeDegrees>
              <LongitudeDegrees>-81.59162878990173</LongitudeDegrees>
            </Position>
            <DistanceMeters>3022.110107421875</DistanceMeters>
            <Extensions>
              <ns3:TPX>
                <ns3:Speed>0.628000020980835</ns3:Speed>
              </ns3:TPX>
            </Extensions>
          </Trackpoint>
          <Trackpoint>
            <Time>2025-07-30T17:27:40.000Z</Time>
            <Position>
              <LatitudeDegrees>44.289142023772</LatitudeDegrees>
              <LongitudeDegrees>-81.59164806827903</LongitudeDegrees>
            </Position>
            <DistanceMeters>3025.760009765625</DistanceMeters>
            <Extensions>
              <ns3:TPX>
                <ns3:Speed>0.0</ns3:Speed>
              </ns3:TPX>
            </Extensions>
          </Trackpoint>
          <Trackpoint>
            <Time>2025-07-30T17:27:47.000Z</Time>
            <Position>
              <LatitudeDegrees>44.289121152833104</LatitudeDegrees>
              <LongitudeDegrees>-81.59165762364864</LongitudeDegrees>
            </Position>
            <DistanceMeters>3028.679931640625</DistanceMeters>
            <Extensions>
              <ns3:TPX>
                <ns3:Speed>0.0</ns3:Speed>
              </ns3:TPX>
            </Extensions>
          </Trackpoint>
          <Trackpoint>
            <Time>2025-07-30T17:27:49.000Z</Time>
            <Position>
              <LatitudeDegrees>44.28910480812192</LatitudeDegrees>
              <LongitudeDegrees>-81.59164278768003</LongitudeDegrees>
            </Position>
            <DistanceMeters>3030.909912109375</DistanceMeters>
            <Extensions>
              <ns3:TPX>
                <ns3:Speed>0.5370000004768372</ns3:Speed>
              </ns3:TPX>
            </Extensions>
          </Trackpoint>
        </Track>
        <Extensions>
          <ns3:LX>
            <ns3:AvgSpeed>0.8069999814033508</ns3:AvgSpeed>
            <ns3:Steps>7</ns3:Steps>
          </ns3:LX>
        </Extensions>
      </Lap>
      <Creator xsi:type="Device_t">
        <Name>vívoactive 4</Name>
        <UnitId>3432774097</UnitId>
        <ProductID>3225</ProductID>
        <Version>
          <VersionMajor>8</VersionMajor>
          <VersionMinor>30</VersionMinor>
          <BuildMajor>0</BuildMajor>
          <BuildMinor>0</BuildMinor>
        </Version>
      </Creator>
    </Activity>
  </Activities>
  <Author xsi:type="Application_t">
    <Name>Connect Api</Name>
    <Build>
      <Version>
        <VersionMajor>25</VersionMajor>
        <VersionMinor>15</VersionMinor>
        <BuildMajor>0</BuildMajor>
        <BuildMinor>0</BuildMinor>
      </Version>
    </Build>
    <LangID>en</LangID>
    <PartNumber>006-D2449-00</PartNumber>
  </Author>
</TrainingCenterDatabase>
