<?xml version="1.0" encoding="UTF-8"?>
<TrainingCenterDatabase
  xsi:schemaLocation="http://www.garmin.com/xmlschemas/TrainingCenterDatabase/v2 http://www.garmin.com/xmlschemas/TrainingCenterDatabasev2.xsd"
  xmlns:ns5="http://www.garmin.com/xmlschemas/ActivityGoals/v1"
  xmlns:ns3="http://www.garmin.com/xmlschemas/ActivityExtension/v2"
  xmlns:ns2="http://www.garmin.com/xmlschemas/UserProfile/v2"
  xmlns="http://www.garmin.com/xmlschemas/TrainingCenterDatabase/v2"
  xmlns:xsi="http://www.w3.org/2001/XMLSchema-instance" xmlns:ns4="http://www.garmin.com/xmlschemas/ProfileExtension/v1">
  <Activities>
    <Activity Sport="Other">
      <Id>2025-08-02T17:16:19.000Z</Id>
      <Lap StartTime="2025-08-02T17:16:19.000Z">
        <TotalTimeSeconds>1003.503</TotalTimeSeconds>
        <DistanceMeters>1386.54</DistanceMeters>
        <MaximumSpeed>2.3889999389648438</MaximumSpeed>
        <Calories>90</Calories>
        <Intensity>Active</Intensity>
        <TriggerMethod>Manual</TriggerMethod>
        <Track>
          <Trackpoint>
            <Time>2025-08-02T17:16:19.000Z</Time>
            <Position>
              <LatitudeDegrees>44.28965306840837</LatitudeDegrees>
              <LongitudeDegrees>-81.5926213748753</LongitudeDegrees>
            </Position>
            <AltitudeMeters>175.0</AltitudeMeters>
            <DistanceMeters>0.0</DistanceMeters>
            <Extensions>
              <ns3:TPX>
                <ns3:Speed>0.9049999713897705</ns3:Speed>
              </ns3:TPX>
            </Extensions>
          </Trackpoint>
          <Trackpoint>
            <Time>2025-08-02T17:16:21.000Z</Time>
            <Position>
              <LatitudeDegrees>44.28947503678501</LatitudeDegrees>
              <LongitudeDegrees>-81.59237427636981</LongitudeDegrees>
            </Position>
            <AltitudeMeters>175.0</AltitudeMeters>
            <DistanceMeters>0.0</DistanceMeters>
            <Extensions>
              <ns3:TPX>
                <ns3:Speed>1.7730000019073486</ns3:Speed>
              </ns3:TPX>
            </Extensions>
          </Trackpoint>
          <Trackpoint>
            <Time>2025-08-02T17:16:22.000Z</Time>
            <Position>
              <LatitudeDegrees>44.28918108344078</LatitudeDegrees>
              <LongitudeDegrees>-81.59177304245532</LongitudeDegrees>
            </Position>
            <AltitudeMeters>175.0</AltitudeMeters>
            <DistanceMeters>57.90999984741211</DistanceMeters>
            <Extensions>
              <ns3:TPX>
                <ns3:Speed>1.5579999685287476</ns3:Speed>
              </ns3:TPX>
            </Extensions>
          </Trackpoint>
          <Trackpoint>
            <Time>2025-08-02T17:16:23.000Z</Time>
            <Position>
              <LatitudeDegrees>44.28916096687317</LatitudeDegrees>
              <LongitudeDegrees>-81.59175996668637</LongitudeDegrees>
            </Position>
            <AltitudeMeters>175.0</AltitudeMeters>
            <DistanceMeters>59.06999969482422</DistanceMeters>
            <Extensions>
              <ns3:TPX>
                <ns3:Speed>1.5579999685287476</ns3:Speed>
              </ns3:TPX>
            </Extensions>
          </Trackpoint>
          <Trackpoint>
            <Time>2025-08-02T17:16:27.000Z</Time>
            <Position>
              <LatitudeDegrees>44.28909659385681</LatitudeDegrees>
              <LongitudeDegrees>-81.59173607826233</LongitudeDegrees>
            </Position>
            <AltitudeMeters>173.8000030517578</AltitudeMeters>
            <DistanceMeters>65.66999816894531</DistanceMeters>
            <Extensions>
              <ns3:TPX>
                <ns3:Speed>0.0</ns3:Speed>
              </ns3:TPX>
            </Extensions>
          </Trackpoint>
          <Trackpoint>
            <Time>2025-08-02T17:16:32.000Z</Time>
            <Position>
              <LatitudeDegrees>44.289092822000384</LatitudeDegrees>
              <LongitudeDegrees>-81.59177337773144</LongitudeDegrees>
            </Position>
            <AltitudeMeters>173.8000030517578</AltitudeMeters>
            <DistanceMeters>68.7300033569336</DistanceMeters>
            <Extensions>
              <ns3:TPX>
                <ns3:Speed>0.9139999747276306</ns3:Speed>
              </ns3:TPX>
            </Extensions>
          </Trackpoint>
          <Trackpoint>
            <Time>2025-08-02T17:16:37.000Z</Time>
            <Position>
              <LatitudeDegrees>44.28909659385681</LatitudeDegrees>
              <LongitudeDegrees>-81.59182953648269</LongitudeDegrees>
            </Position>
            <AltitudeMeters>173.8000030517578</AltitudeMeters>
            <DistanceMeters>73.31999969482422</DistanceMeters>
            <Extensions>
              <ns3:TPX>
                <ns3:Speed>0.5600000023841858</ns3:Speed>
              </ns3:TPX>
            </Extensions>
          </Trackpoint>
          <Trackpoint>
            <Time>2025-08-02T17:16:50.000Z</Time>
            <Position>
              <LatitudeDegrees>44.28908930160105</LatitudeDegrees>
              <LongitudeDegrees>-81.59193489700556</LongitudeDegrees>
            </Position>
            <AltitudeMeters>173.8000030517578</AltitudeMeters>
            <DistanceMeters>81.72000122070312</DistanceMeters>
            <Extensions>
              <ns3:TPX>
                <ns3:Speed>0.6439999938011169</ns3:Speed>
              </ns3:TPX>
            </Extensions>
          </Trackpoint>
          <Trackpoint>
            <Time>2025-08-02T17:17:00.000Z</Time>
            <Position>
              <LatitudeDegrees>44.289095252752304</LatitudeDegrees>
              <LongitudeDegrees>-81.59197932109237</LongitudeDegrees>
            </Position>
            <AltitudeMeters>173.8000030517578</AltitudeMeters>
            <DistanceMeters>85.33999633789062</DistanceMeters>
            <Extensions>
              <ns3:TPX>
                <ns3:Speed>0.48500001430511475</ns3:Speed>
              </ns3:TPX>
            </Extensions>
          </Trackpoint>
          <Trackpoint>
            <Time>2025-08-02T17:17:07.000Z</Time>
            <Position>
              <LatitudeDegrees>44.2891007848084</LatitudeDegrees>
              <LongitudeDegrees>-81.59199231304228</LongitudeDegrees>
            </Position>
            <AltitudeMeters>173.39999389648438</AltitudeMeters>
            <DistanceMeters>87.44000244140625</DistanceMeters>
            <Extensions>
              <ns3:TPX>
                <ns3:Speed>0.7279999852180481</ns3:Speed>
              </ns3:TPX>
            </Extensions>
          </Trackpoint>
          <Trackpoint>
            <Time>2025-08-02T17:17:14.000Z</Time>
            <Position>
              <LatitudeDegrees>44.28911662660539</LatitudeDegrees>
              <LongitudeDegrees>-81.59204042516649</LongitudeDegrees>
            </Position>
            <AltitudeMeters>173.39999389648438</AltitudeMeters>
            <DistanceMeters>91.62999725341797</DistanceMeters>
            <Extensions>
              <ns3:TPX>
                <ns3:Speed>0.6809999942779541</ns3:Speed>
              </ns3:TPX>
            </Extensions>
          </Trackpoint>
          <Trackpoint>
            <Time>2025-08-02T17:17:17.000Z</Time>
            <Position>
              <LatitudeDegrees>44.289126601070166</LatitudeDegrees>
              <LongitudeDegrees>-81.5920706000179</LongitudeDegrees>
            </Position>
            <AltitudeMeters>173.39999389648438</AltitudeMeters>
            <DistanceMeters>94.2699966430664</DistanceMeters>
            <Extensions>
              <ns3:TPX>
                <ns3:Speed>0.8960000276565552</ns3:Speed>
              </ns3:TPX>
            </Extensions>
          </Trackpoint>
          <Trackpoint>
            <Time>2025-08-02T17:17:22.000Z</Time>
            <Position>
              <LatitudeDegrees>44.289147639647126</LatitudeDegrees>
              <LongitudeDegrees>-81.59211569465697</LongitudeDegrees>
            </Position>
            <AltitudeMeters>173.39999389648438</AltitudeMeters>
            <DistanceMeters>98.58000183105469</DistanceMeters>
            <Extensions>
              <ns3:TPX>
                <ns3:Speed>1.0540000200271606</ns3:Speed>
              </ns3:TPX>
            </Extensions>
          </Trackpoint>
          <Trackpoint>
            <Time>2025-08-02T17:17:30.000Z</Time>
            <Position>
              <LatitudeDegrees>44.2891681753099</LatitudeDegrees>
              <LongitudeDegrees>-81.59221149981022</LongitudeDegrees>
            </Position>
            <AltitudeMeters>173.8000030517578</AltitudeMeters>
            <DistanceMeters>106.62999725341797</DistanceMeters>
            <Extensions>
              <ns3:TPX>
                <ns3:Speed>1.1009999513626099</ns3:Speed>
              </ns3:TPX>
            </Extensions>
          </Trackpoint>
          <Trackpoint>
            <Time>2025-08-02T17:17:39.000Z</Time>
            <Position>
              <LatitudeDegrees>44.28919927217066</LatitudeDegrees>
              <LongitudeDegrees>-81.592358937487</LongitudeDegrees>
            </Position>
            <AltitudeMeters>173.39999389648438</AltitudeMeters>
            <DistanceMeters>118.9000015258789</DistanceMeters>
            <Extensions>
              <ns3:TPX>
                <ns3:Speed>1.3619999885559082</ns3:Speed>
              </ns3:TPX>
            </Extensions>
          </Trackpoint>
          <Trackpoint>
            <Time>2025-08-02T17:17:51.000Z</Time>
            <Position>
              <LatitudeDegrees>44.28926607593894</LatitudeDegrees>
              <LongitudeDegrees>-81.59256529994309</LongitudeDegrees>
            </Position>
            <AltitudeMeters>173.60000610351562</AltitudeMeters>
            <DistanceMeters>137.0</DistanceMeters>
            <Extensions>
              <ns3:TPX>
                <ns3:Speed>1.6519999504089355</ns3:Speed>
              </ns3:TPX>
            </Extensions>
          </Trackpoint>
          <Trackpoint>
            <Time>2025-08-02T17:18:02.000Z</Time>
            <Position>
              <LatitudeDegrees>44.28941116668284</LatitudeDegrees>
              <LongitudeDegrees>-81.59279672428966</LongitudeDegrees>
            </Position>
            <AltitudeMeters>173.8000030517578</AltitudeMeters>
            <DistanceMeters>161.55999755859375</DistanceMeters>
            <Extensions>
              <ns3:TPX>
                <ns3:Speed>2.3610000610351562</ns3:Speed>
              </ns3:TPX>
            </Extensions>
          </Trackpoint>
          <Trackpoint>
            <Time>2025-08-02T17:18:10.000Z</Time>
            <Position>
              <LatitudeDegrees>44.28954318165779</LatitudeDegrees>
              <LongitudeDegrees>-81.59294734708965</LongitudeDegrees>
            </Position>
            <AltitudeMeters>173.60000610351562</AltitudeMeters>
            <DistanceMeters>180.5399932861328</DistanceMeters>
            <Extensions>
              <ns3:TPX>
                <ns3:Speed>2.369999885559082</ns3:Speed>
              </ns3:TPX>
            </Extensions>
          </Trackpoint>
          <Trackpoint>
            <Time>2025-08-02T17:18:21.000Z</Time>
            <Position>
              <LatitudeDegrees>44.289717357605696</LatitudeDegrees>
              <LongitudeDegrees>-81.59310827963054</LongitudeDegrees>
            </Position>
            <AltitudeMeters>173.60000610351562</AltitudeMeters>
            <DistanceMeters>203.7899932861328</DistanceMeters>
            <Extensions>
              <ns3:TPX>
                <ns3:Speed>2.2019999027252197</ns3:Speed>
              </ns3:TPX>
            </Extensions>
          </Trackpoint>
          <Trackpoint>
            <Time>2025-08-02T17:18:30.000Z</Time>
            <Position>
              <LatitudeDegrees>44.28983587771654</LatitudeDegrees>
              <LongitudeDegrees>-81.59323576837778</LongitudeDegrees>
            </Position>
            <AltitudeMeters>173.8000030517578</AltitudeMeters>
            <DistanceMeters>220.4199981689453</DistanceMeters>
            <Extensions>
              <ns3:TPX>
                <ns3:Speed>1.9129999876022339</ns3:Speed>
              </ns3:TPX>
            </Extensions>
          </Trackpoint>
          <Trackpoint>
            <Time>2025-08-02T17:18:39.000Z</Time>
            <Position>
              <LatitudeDegrees>44.28989253938198</LatitudeDegrees>
              <LongitudeDegrees>-81.5933505166322</LongitudeDegrees>
            </Position>
            <AltitudeMeters>173.8000030517578</AltitudeMeters>
            <DistanceMeters>231.8000030517578</DistanceMeters>
            <Extensions>
              <ns3:TPX>
                <ns3:Speed>1.2879999876022339</ns3:Speed>
              </ns3:TPX>
            </Extensions>
          </Trackpoint>
          <Trackpoint>
            <Time>2025-08-02T17:18:49.000Z</Time>
            <Position>
              <LatitudeDegrees>44.289943082258105</LatitudeDegrees>
              <LongitudeDegrees>-81.59346870146692</LongitudeDegrees>
            </Position>
            <AltitudeMeters>173.8000030517578</AltitudeMeters>
            <DistanceMeters>242.77000427246094</DistanceMeters>
            <Extensions>
              <ns3:TPX>
                <ns3:Speed>1.128999948501587</ns3:Speed>
              </ns3:TPX>
            </Extensions>
          </Trackpoint>
          <Trackpoint>
            <Time>2025-08-02T17:19:00.000Z</Time>
            <Position>
              <LatitudeDegrees>44.29000183939934</LatitudeDegrees>
              <LongitudeDegrees>-81.59363030456007</LongitudeDegrees>
            </Position>
            <AltitudeMeters>173.8000030517578</AltitudeMeters>
            <DistanceMeters>257.29998779296875</DistanceMeters>
            <Extensions>
              <ns3:TPX>
                <ns3:Speed>1.277999997138977</ns3:Speed>
              </ns3:TPX>
            </Extensions>
          </Trackpoint>
          <Trackpoint>
            <Time>2025-08-02T17:19:09.000Z</Time>
            <Position>
              <LatitudeDegrees>44.29007618688047</LatitudeDegrees>
              <LongitudeDegrees>-81.59376047551632</LongitudeDegrees>
            </Position>
            <AltitudeMeters>174.0</AltitudeMeters>
            <DistanceMeters>270.6700134277344</DistanceMeters>
            <Extensions>
              <ns3:TPX>
                <ns3:Speed>1.4179999828338623</ns3:Speed>
              </ns3:TPX>
            </Extensions>
          </Trackpoint>
          <Trackpoint>
            <Time>2025-08-02T17:19:22.000Z</Time>
            <Position>
              <LatitudeDegrees>44.29023468866944</LatitudeDegrees>
              <LongitudeDegrees>-81.59396030008793</LongitudeDegrees>
            </Position>
            <AltitudeMeters>174.0</AltitudeMeters>
            <DistanceMeters>294.44000244140625</DistanceMeters>
            <Extensions>
              <ns3:TPX>
                <ns3:Speed>1.781999945640564</ns3:Speed>
              </ns3:TPX>
            </Extensions>
          </Trackpoint>
          <Trackpoint>
            <Time>2025-08-02T17:19:30.000Z</Time>
            <Position>
              <LatitudeDegrees>44.29033652879298</LatitudeDegrees>
              <LongitudeDegrees>-81.5940931532532</LongitudeDegrees>
            </Position>
            <AltitudeMeters>174.0</AltitudeMeters>
            <DistanceMeters>310.1499938964844</DistanceMeters>
            <Extensions>
              <ns3:TPX>
                <ns3:Speed>1.781999945640564</ns3:Speed>
              </ns3:TPX>
            </Extensions>
          </Trackpoint>
          <Trackpoint>
            <Time>2025-08-02T17:19:38.000Z</Time>
            <Position>
              <LatitudeDegrees>44.290399979799986</LatitudeDegrees>
              <LongitudeDegrees>-81.5942136850208</LongitudeDegrees>
            </Position>
            <AltitudeMeters>174.0</AltitudeMeters>
            <DistanceMeters>322.1700134277344</DistanceMeters>
            <Extensions>
              <ns3:TPX>
                <ns3:Speed>1.5579999685287476</ns3:Speed>
              </ns3:TPX>
            </Extensions>
          </Trackpoint>
          <Trackpoint>
            <Time>2025-08-02T17:19:40.000Z</Time>
            <Position>
              <LatitudeDegrees>44.29041590541601</LatitudeDegrees>
              <LongitudeDegrees>-81.59423623234034</LongitudeDegrees>
            </Position>
            <AltitudeMeters>174.0</AltitudeMeters>
            <DistanceMeters>324.67999267578125</DistanceMeters>
            <Extensions>
              <ns3:TPX>
                <ns3:Speed>1.5490000247955322</ns3:Speed>
              </ns3:TPX>
            </Extensions>
          </Trackpoint>
          <Trackpoint>
            <Time>2025-08-02T17:19:44.000Z</Time>
            <Position>
              <LatitudeDegrees>44.29045060649514</LatitudeDegrees>
              <LongitudeDegrees>-81.59428736194968</LongitudeDegrees>
            </Position>
            <AltitudeMeters>174.0</AltitudeMeters>
            <DistanceMeters>330.2900085449219</DistanceMeters>
            <Extensions>
              <ns3:TPX>
                <ns3:Speed>1.5399999618530273</ns3:Speed>
              </ns3:TPX>
            </Extensions>
          </Trackpoint>
          <Trackpoint>
            <Time>2025-08-02T17:19:45.000Z</Time>
            <Position>
              <LatitudeDegrees>44.29046175442636</LatitudeDegrees>
              <LongitudeDegrees>-81.59429423511028</LongitudeDegrees>
            </Position>
            <AltitudeMeters>174.0</AltitudeMeters>
            <DistanceMeters>331.6499938964844</DistanceMeters>
            <Extensions>
              <ns3:TPX>
                <ns3:Speed>1.5399999618530273</ns3:Speed>
              </ns3:TPX>
            </Extensions>
          </Trackpoint>
          <Trackpoint>
            <Time>2025-08-02T17:19:51.000Z</Time>
            <Position>
              <LatitudeDegrees>44.29054280743003</LatitudeDegrees>
              <LongitudeDegrees>-81.59435433335602</LongitudeDegrees>
            </Position>
            <AltitudeMeters>174.1999969482422</AltitudeMeters>
            <DistanceMeters>341.8699951171875</DistanceMeters>
            <Extensions>
              <ns3:TPX>
                <ns3:Speed>1.7079999446868896</ns3:Speed>
              </ns3:TPX>
            </Extensions>
          </Trackpoint>
          <Trackpoint>
            <Time>2025-08-02T17:20:01.000Z</Time>
            <Position>
              <LatitudeDegrees>44.29066451266408</LatitudeDegrees>
              <LongitudeDegrees>-81.59444837830961</LongitudeDegrees>
            </Position>
            <AltitudeMeters>174.39999389648438</AltitudeMeters>
            <DistanceMeters>357.510009765625</DistanceMeters>
            <Extensions>
              <ns3:TPX>
                <ns3:Speed>1.5210000276565552</ns3:Speed>
              </ns3:TPX>
            </Extensions>
          </Trackpoint>
          <Trackpoint>
            <Time>2025-08-02T17:20:13.000Z</Time>
            <Position>
              <LatitudeDegrees>44.29079560562968</LatitudeDegrees>
              <LongitudeDegrees>-81.59462154842913</LongitudeDegrees>
            </Position>
            <AltitudeMeters>174.1999969482422</AltitudeMeters>
            <DistanceMeters>377.5799865722656</DistanceMeters>
            <Extensions>
              <ns3:TPX>
                <ns3:Speed>1.6519999504089355</ns3:Speed>
              </ns3:TPX>
            </Extensions>
          </Trackpoint>
          <Trackpoint>
            <Time>2025-08-02T17:20:26.000Z</Time>
            <Position>
              <LatitudeDegrees>44.29092896170914</LatitudeDegrees>
              <LongitudeDegrees>-81.59483402967453</LongitudeDegrees>
            </Position>
            <AltitudeMeters>174.0</AltitudeMeters>
            <DistanceMeters>400.1000061035156</DistanceMeters>
            <Extensions>
              <ns3:TPX>
                <ns3:Speed>1.7170000076293945</ns3:Speed>
              </ns3:TPX>
            </Extensions>
          </Trackpoint>
          <Trackpoint>
            <Time>2025-08-02T17:20:40.000Z</Time>
            <Position>
              <LatitudeDegrees>44.291059551760554</LatitudeDegrees>
              <LongitudeDegrees>-81.59507350064814</LongitudeDegrees>
            </Position>
            <AltitudeMeters>174.1999969482422</AltitudeMeters>
            <DistanceMeters>424.1600036621094</DistanceMeters>
            <Extensions>
              <ns3:TPX>
                <ns3:Speed>1.8940000534057617</ns3:Speed>
              </ns3:TPX>
            </Extensions>
          </Trackpoint>
          <Trackpoint>
            <Time>2025-08-02T17:20:54.000Z</Time>
            <Position>
              <LatitudeDegrees>44.29123188368976</LatitudeDegrees>
              <LongitudeDegrees>-81.59536862745881</LongitudeDegrees>
            </Position>
            <AltitudeMeters>174.0</AltitudeMeters>
            <DistanceMeters>454.5799865722656</DistanceMeters>
            <Extensions>
              <ns3:TPX>
                <ns3:Speed>2.127000093460083</ns3:Speed>
              </ns3:TPX>
            </Extensions>
          </Trackpoint>
          <Trackpoint>
            <Time>2025-08-02T17:21:03.000Z</Time>
            <Position>
              <LatitudeDegrees>44.291340513154864</LatitudeDegrees>
              <LongitudeDegrees>-81.59554917365313</LongitudeDegrees>
            </Position>
            <AltitudeMeters>174.39999389648438</AltitudeMeters>
            <DistanceMeters>473.4200134277344</DistanceMeters>
            <Extensions>
              <ns3:TPX>
                <ns3:Speed>2.118000030517578</ns3:Speed>
              </ns3:TPX>
            </Extensions>
          </Trackpoint>
          <Trackpoint>
            <Time>2025-08-02T17:21:14.000Z</Time>
            <Position>
              <LatitudeDegrees>44.29148870520294</LatitudeDegrees>
              <LongitudeDegrees>-81.59576274454594</LongitudeDegrees>
            </Position>
            <AltitudeMeters>174.8000030517578</AltitudeMeters>
            <DistanceMeters>497.1499938964844</DistanceMeters>
            <Extensions>
              <ns3:TPX>
                <ns3:Speed>2.2109999656677246</ns3:Speed>
              </ns3:TPX>
            </Extensions>
          </Trackpoint>
          <Trackpoint>
            <Time>2025-08-02T17:21:25.000Z</Time>
            <Position>
              <LatitudeDegrees>44.291612757369876</LatitudeDegrees>
              <LongitudeDegrees>-81.5960031375289</LongitudeDegrees>
            </Position>
            <AltitudeMeters>174.8000030517578</AltitudeMeters>
            <DistanceMeters>520.8499755859375</DistanceMeters>
            <Extensions>
              <ns3:TPX>
                <ns3:Speed>2.0899999141693115</ns3:Speed>
              </ns3:TPX>
            </Extensions>
          </Trackpoint>
          <Trackpoint>
            <Time>2025-08-02T17:21:35.000Z</Time>
            <Position>
              <LatitudeDegrees>44.291717782616615</LatitudeDegrees>
              <LongitudeDegrees>-81.5962132718414</LongitudeDegrees>
            </Position>
            <AltitudeMeters>174.39999389648438</AltitudeMeters>
            <DistanceMeters>541.3300170898438</DistanceMeters>
            <Extensions>
              <ns3:TPX>
                <ns3:Speed>2.0339999198913574</ns3:Speed>
              </ns3:TPX>
            </Extensions>
          </Trackpoint>
          <Trackpoint>
            <Time>2025-08-02T17:21:44.000Z</Time>
            <Position>
              <LatitudeDegrees>44.29182322695851</LatitudeDegrees>
              <LongitudeDegrees>-81.59637403674424</LongitudeDegrees>
            </Position>
            <AltitudeMeters>174.39999389648438</AltitudeMeters>
            <DistanceMeters>558.780029296875</DistanceMeters>
            <Extensions>
              <ns3:TPX>
                <ns3:Speed>1.9589999914169312</ns3:Speed>
              </ns3:TPX>
            </Extensions>
          </Trackpoint>
          <Trackpoint>
            <Time>2025-08-02T17:21:55.000Z</Time>
            <Position>
              <LatitudeDegrees>44.2919394839555</LatitudeDegrees>
              <LongitudeDegrees>-81.5965539123863</LongitudeDegrees>
            </Position>
            <AltitudeMeters>174.60000610351562</AltitudeMeters>
            <DistanceMeters>578.3300170898438</DistanceMeters>
            <Extensions>
              <ns3:TPX>
                <ns3:Speed>1.847000002861023</ns3:Speed>
              </ns3:TPX>
            </Extensions>
          </Trackpoint>
          <Trackpoint>
            <Time>2025-08-02T17:22:03.000Z</Time>
            <Position>
              <LatitudeDegrees>44.29205875843763</LatitudeDegrees>
              <LongitudeDegrees>-81.59661836922169</LongitudeDegrees>
            </Position>
            <AltitudeMeters>174.39999389648438</AltitudeMeters>
            <DistanceMeters>592.5900268554688</DistanceMeters>
            <Extensions>
              <ns3:TPX>
                <ns3:Speed>1.7910000085830688</ns3:Speed>
              </ns3:TPX>
            </Extensions>
          </Trackpoint>
          <Trackpoint>
            <Time>2025-08-02T17:22:09.000Z</Time>
            <Position>
              <LatitudeDegrees>44.29212254472077</LatitudeDegrees>
              <LongitudeDegrees>-81.59667955711484</LongitudeDegrees>
            </Position>
            <AltitudeMeters>174.60000610351562</AltitudeMeters>
            <DistanceMeters>601.25</DistanceMeters>
            <Extensions>
              <ns3:TPX>
                <ns3:Speed>1.5119999647140503</ns3:Speed>
              </ns3:TPX>
            </Extensions>
          </Trackpoint>
          <Trackpoint>
            <Time>2025-08-02T17:22:19.000Z</Time>
            <Position>
              <LatitudeDegrees>44.292222457006574</LatitudeDegrees>
              <LongitudeDegrees>-81.59682238474488</LongitudeDegrees>
            </Position>
            <AltitudeMeters>174.39999389648438</AltitudeMeters>
            <DistanceMeters>617.219970703125</DistanceMeters>
            <Extensions>
              <ns3:TPX>
                <ns3:Speed>1.5299999713897705</ns3:Speed>
              </ns3:TPX>
            </Extensions>
          </Trackpoint>
          <Trackpoint>
            <Time>2025-08-02T17:22:29.000Z</Time>
            <Position>
              <LatitudeDegrees>44.292280627414584</LatitudeDegrees>
              <LongitudeDegrees>-81.5970010869205</LongitudeDegrees>
            </Position>
            <AltitudeMeters>174.60000610351562</AltitudeMeters>
            <DistanceMeters>632.9199829101562</DistanceMeters>
            <Extensions>
              <ns3:TPX>
                <ns3:Speed>1.5770000219345093</ns3:Speed>
              </ns3:TPX>
            </Extensions>
          </Trackpoint>
          <Trackpoint>
            <Time>2025-08-02T17:22:44.000Z</Time>
            <Position>
              <LatitudeDegrees>44.29236587136984</LatitudeDegrees>
              <LongitudeDegrees>-81.59728950820863</LongitudeDegrees>
            </Position>
            <AltitudeMeters>174.8000030517578</AltitudeMeters>
            <DistanceMeters>657.8099975585938</DistanceMeters>
            <Extensions>
              <ns3:TPX>
                <ns3:Speed>1.6139999628067017</ns3:Speed>
              </ns3:TPX>
            </Extensions>
          </Trackpoint>
          <Trackpoint>
            <Time>2025-08-02T17:22:58.000Z</Time>
            <Position>
              <LatitudeDegrees>44.29246184416115</LatitudeDegrees>
              <LongitudeDegrees>-81.59756284207106</LongitudeDegrees>
            </Position>
            <AltitudeMeters>174.39999389648438</AltitudeMeters>
            <DistanceMeters>682.0999755859375</DistanceMeters>
            <Extensions>
              <ns3:TPX>
                <ns3:Speed>1.6979999542236328</ns3:Speed>
              </ns3:TPX>
            </Extensions>
          </Trackpoint>
          <Trackpoint>
            <Time>2025-08-02T17:23:08.000Z</Time>
            <Position>
              <LatitudeDegrees>44.29250232875347</LatitudeDegrees>
              <LongitudeDegrees>-81.59769460558891</LongitudeDegrees>
            </Position>
            <AltitudeMeters>174.39999389648438</AltitudeMeters>
            <DistanceMeters>693.8300170898438</DistanceMeters>
            <Extensions>
              <ns3:TPX>
                <ns3:Speed>0.0</ns3:Speed>
              </ns3:TPX>
            </Extensions>
          </Trackpoint>
          <Trackpoint>
            <Time>2025-08-02T17:23:15.000Z</Time>
            <Position>
              <LatitudeDegrees>44.292515153065324</LatitudeDegrees>
              <LongitudeDegrees>-81.59769678488374</LongitudeDegrees>
            </Position>
            <AltitudeMeters>174.8000030517578</AltitudeMeters>
            <DistanceMeters>695.7100219726562</DistanceMeters>
            <Extensions>
              <ns3:TPX>
                <ns3:Speed>0.0</ns3:Speed>
              </ns3:TPX>
            </Extensions>
          </Trackpoint>
          <Trackpoint>
            <Time>2025-08-02T17:23:27.000Z</Time>
            <Position>
              <LatitudeDegrees>44.29253350943327</LatitudeDegrees>
              <LongitudeDegrees>-81.59767583012581</LongitudeDegrees>
            </Position>
            <AltitudeMeters>174.8000030517578</AltitudeMeters>
            <DistanceMeters>698.4600219726562</DistanceMeters>
            <Extensions>
              <ns3:TPX>
                <ns3:Speed>0.0</ns3:Speed>
              </ns3:TPX>
            </Extensions>
          </Trackpoint>
          <Trackpoint>
            <Time>2025-08-02T17:24:38.000Z</Time>
            <Position>
              <LatitudeDegrees>44.292580699548125</LatitudeDegrees>
              <LongitudeDegrees>-81.59739813767374</LongitudeDegrees>
            </Position>
            <AltitudeMeters>174.8000030517578</AltitudeMeters>
            <DistanceMeters>727.010009765625</DistanceMeters>
            <Extensions>
              <ns3:TPX>
                <ns3:Speed>1.0169999599456787</ns3:Speed>
              </ns3:TPX>
            </Extensions>
          </Trackpoint>
          <Trackpoint>
            <Time>2025-08-02T17:24:40.000Z</Time>
            <Position>
              <LatitudeDegrees>44.292542058974504</LatitudeDegrees>
              <LongitudeDegrees>-81.59735932946205</LongitudeDegrees>
            </Position>
            <AltitudeMeters>174.8000030517578</AltitudeMeters>
            <DistanceMeters>732.3099975585938</DistanceMeters>
            <Extensions>
              <ns3:TPX>
                <ns3:Speed>1.5579999685287476</ns3:Speed>
              </ns3:TPX>
            </Extensions>
          </Trackpoint>
          <Trackpoint>
            <Time>2025-08-02T17:24:45.000Z</Time>
            <Position>
              <LatitudeDegrees>44.292447343468666</LatitudeDegrees>
              <LongitudeDegrees>-81.59724231809378</LongitudeDegrees>
            </Position>
            <AltitudeMeters>174.8000030517578</AltitudeMeters>
            <DistanceMeters>746.3900146484375</DistanceMeters>
            <Extensions>
              <ns3:TPX>
                <ns3:Speed>1.6699999570846558</ns3:Speed>
              </ns3:TPX>
            </Extensions>
          </Trackpoint>
          <Trackpoint>
            <Time>2025-08-02T17:24:48.000Z</Time>
            <Position>
              <LatitudeDegrees>44.29239973425865</LatitudeDegrees>
              <LongitudeDegrees>-81.59719420596957</LongitudeDegrees>
            </Position>
            <AltitudeMeters>174.8000030517578</AltitudeMeters>
            <DistanceMeters>752.9299926757812</DistanceMeters>
            <Extensions>
              <ns3:TPX>
                <ns3:Speed>1.902999997138977</ns3:Speed>
              </ns3:TPX>
            </Extensions>
          </Trackpoint>
          <Trackpoint>
            <Time>2025-08-02T17:24:56.000Z</Time>
            <Position>
              <LatitudeDegrees>44.29227249696851</LatitudeDegrees>
              <LongitudeDegrees>-81.59709664061666</LongitudeDegrees>
            </Position>
            <AltitudeMeters>174.60000610351562</AltitudeMeters>
            <DistanceMeters>769.0999755859375</DistanceMeters>
            <Extensions>
              <ns3:TPX>
                <ns3:Speed>2.0810000896453857</ns3:Speed>
              </ns3:TPX>
            </Extensions>
          </Trackpoint>
          <Trackpoint>
            <Time>2025-08-02T17:25:06.000Z</Time>
            <Position>
              <LatitudeDegrees>44.292135117575526</LatitudeDegrees>
              <LongitudeDegrees>-81.59701257012784</LongitudeDegrees>
            </Position>
            <AltitudeMeters>174.8000030517578</AltitudeMeters>
            <DistanceMeters>785.8499755859375</DistanceMeters>
            <Extensions>
              <ns3:TPX>
                <ns3:Speed>1.6979999542236328</ns3:Speed>
              </ns3:TPX>
            </Extensions>
          </Trackpoint>
          <Trackpoint>
            <Time>2025-08-02T17:25:16.000Z</Time>
            <Position>
              <LatitudeDegrees>44.292005617171526</LatitudeDegrees>
              <LongitudeDegrees>-81.59691064618528</LongitudeDegrees>
            </Position>
            <AltitudeMeters>174.8000030517578</AltitudeMeters>
            <DistanceMeters>802.3699951171875</DistanceMeters>
            <Extensions>
              <ns3:TPX>
                <ns3:Speed>1.6979999542236328</ns3:Speed>
              </ns3:TPX>
            </Extensions>
          </Trackpoint>
          <Trackpoint>
            <Time>2025-08-02T17:25:27.000Z</Time>
            <Position>
              <LatitudeDegrees>44.291843846440315</LatitudeDegrees>
              <LongitudeDegrees>-81.59677318297327</LongitudeDegrees>
            </Position>
            <AltitudeMeters>174.60000610351562</AltitudeMeters>
            <DistanceMeters>823.4400024414062</DistanceMeters>
            <Extensions>
              <ns3:TPX>
                <ns3:Speed>1.847000002861023</ns3:Speed>
              </ns3:TPX>
            </Extensions>
          </Trackpoint>
          <Trackpoint>
            <Time>2025-08-02T17:25:37.000Z</Time>
            <Position>
              <LatitudeDegrees>44.291703114286065</LatitudeDegrees>
              <LongitudeDegrees>-81.59664577804506</LongitudeDegrees>
            </Position>
            <AltitudeMeters>174.60000610351562</AltitudeMeters>
            <DistanceMeters>842.1099853515625</DistanceMeters>
            <Extensions>
              <ns3:TPX>
                <ns3:Speed>1.8849999904632568</ns3:Speed>
              </ns3:TPX>
            </Extensions>
          </Trackpoint>
          <Trackpoint>
            <Time>2025-08-02T17:25:49.000Z</Time>
            <Position>
              <LatitudeDegrees>44.291523825377226</LatitudeDegrees>
              <LongitudeDegrees>-81.59648794680834</LongitudeDegrees>
            </Position>
            <AltitudeMeters>174.8000030517578</AltitudeMeters>
            <DistanceMeters>865.6900024414062</DistanceMeters>
            <Extensions>
              <ns3:TPX>
                <ns3:Speed>1.875</ns3:Speed>
              </ns3:TPX>
            </Extensions>
          </Trackpoint>
          <Trackpoint>
            <Time>2025-08-02T17:25:59.000Z</Time>
            <Position>
              <LatitudeDegrees>44.29138376377523</LatitudeDegrees>
              <LongitudeDegrees>-81.59637889824808</LongitudeDegrees>
            </Position>
            <AltitudeMeters>174.60000610351562</AltitudeMeters>
            <DistanceMeters>883.5800170898438</DistanceMeters>
            <Extensions>
              <ns3:TPX>
                <ns3:Speed>1.6610000133514404</ns3:Speed>
              </ns3:TPX>
            </Extensions>
          </Trackpoint>
          <Trackpoint>
            <Time>2025-08-02T17:26:14.000Z</Time>
            <Position>
              <LatitudeDegrees>44.29120992310345</LatitudeDegrees>
              <LongitudeDegrees>-81.59626934677362</LongitudeDegrees>
            </Position>
            <AltitudeMeters>174.60000610351562</AltitudeMeters>
            <DistanceMeters>904.7899780273438</DistanceMeters>
            <Extensions>
              <ns3:TPX>
                <ns3:Speed>1.4839999675750732</ns3:Speed>
              </ns3:TPX>
            </Extensions>
          </Trackpoint>
          <Trackpoint>
            <Time>2025-08-02T17:26:29.000Z</Time>
            <Position>
              <LatitudeDegrees>44.29101487621665</LatitudeDegrees>
              <LongitudeDegrees>-81.5962000284344</LongitudeDegrees>
            </Position>
            <AltitudeMeters>174.60000610351562</AltitudeMeters>
            <DistanceMeters>927.2100219726562</DistanceMeters>
            <Extensions>
              <ns3:TPX>
                <ns3:Speed>1.4930000305175781</ns3:Speed>
              </ns3:TPX>
            </Extensions>
          </Trackpoint>
          <Trackpoint>
            <Time>2025-08-02T17:26:41.000Z</Time>
            <Position>
              <LatitudeDegrees>44.290886297822</LatitudeDegrees>
              <LongitudeDegrees>-81.59612350165844</LongitudeDegrees>
            </Position>
            <AltitudeMeters>174.39999389648438</AltitudeMeters>
            <DistanceMeters>942.760009765625</DistanceMeters>
            <Extensions>
              <ns3:TPX>
                <ns3:Speed>1.2970000505447388</ns3:Speed>
              </ns3:TPX>
            </Extensions>
          </Trackpoint>
          <Trackpoint>
            <Time>2025-08-02T17:26:54.000Z</Time>
            <Position>
              <LatitudeDegrees>44.290779093280435</LatitudeDegrees>
              <LongitudeDegrees>-81.59599936567247</LongitudeDegrees>
            </Position>
            <AltitudeMeters>174.60000610351562</AltitudeMeters>
            <DistanceMeters>958.2899780273438</DistanceMeters>
            <Extensions>
              <ns3:TPX>
                <ns3:Speed>1.1660000085830688</ns3:Speed>
              </ns3:TPX>
            </Extensions>
          </Trackpoint>
          <Trackpoint>
            <Time>2025-08-02T17:27:05.000Z</Time>
            <Position>
              <LatitudeDegrees>44.29070709273219</LatitudeDegrees>
              <LongitudeDegrees>-81.59590557217598</LongitudeDegrees>
            </Position>
            <AltitudeMeters>174.60000610351562</AltitudeMeters>
            <DistanceMeters>969.25</DistanceMeters>
            <Extensions>
              <ns3:TPX>
                <ns3:Speed>0.9800000190734863</ns3:Speed>
              </ns3:TPX>
            </Extensions>
          </Trackpoint>
          <Trackpoint>
            <Time>2025-08-02T17:27:21.000Z</Time>
            <Position>
              <LatitudeDegrees>44.29059821180999</LatitudeDegrees>
              <LongitudeDegrees>-81.5957251098007</LongitudeDegrees>
            </Position>
            <AltitudeMeters>174.60000610351562</AltitudeMeters>
            <DistanceMeters>988.0900268554688</DistanceMeters>
            <Extensions>
              <ns3:TPX>
                <ns3:Speed>1.2130000591278076</ns3:Speed>
              </ns3:TPX>
            </Extensions>
          </Trackpoint>
          <Trackpoint>
            <Time>2025-08-02T17:27:35.000Z</Time>
            <Position>
              <LatitudeDegrees>44.29049695841968</LatitudeDegrees>
              <LongitudeDegrees>-81.59554716199636</LongitudeDegrees>
            </Position>
            <AltitudeMeters>174.60000610351562</AltitudeMeters>
            <DistanceMeters>1006.219970703125</DistanceMeters>
            <Extensions>
              <ns3:TPX>
                <ns3:Speed>1.3619999885559082</ns3:Speed>
              </ns3:TPX>
            </Extensions>
          </Trackpoint>
          <Trackpoint>
            <Time>2025-08-02T17:27:45.000Z</Time>
            <Position>
              <LatitudeDegrees>44.29042059928179</LatitudeDegrees>
              <LongitudeDegrees>-81.5954190865159</LongitudeDegrees>
            </Position>
            <AltitudeMeters>174.60000610351562</AltitudeMeters>
            <DistanceMeters>1019.510009765625</DistanceMeters>
            <Extensions>
              <ns3:TPX>
                <ns3:Speed>1.3250000476837158</ns3:Speed>
              </ns3:TPX>
            </Extensions>
          </Trackpoint>
          <Trackpoint>
            <Time>2025-08-02T17:27:58.000Z</Time>
            <Position>
              <LatitudeDegrees>44.2903093714267</LatitudeDegrees>
              <LongitudeDegrees>-81.59528371877968</LongitudeDegrees>
            </Position>
            <AltitudeMeters>174.60000610351562</AltitudeMeters>
            <DistanceMeters>1036.030029296875</DistanceMeters>
            <Extensions>
              <ns3:TPX>
                <ns3:Speed>1.2879999876022339</ns3:Speed>
              </ns3:TPX>
            </Extensions>
          </Trackpoint>
          <Trackpoint>
            <Time>2025-08-02T17:28:11.000Z</Time>
            <Position>
              <LatitudeDegrees>44.290179535746574</LatitudeDegrees>
              <LongitudeDegrees>-81.59523476846516</LongitudeDegrees>
            </Position>
            <AltitudeMeters>174.39999389648438</AltitudeMeters>
            <DistanceMeters>1050.989990234375</DistanceMeters>
            <Extensions>
              <ns3:TPX>
                <ns3:Speed>1.1759999990463257</ns3:Speed>
              </ns3:TPX>
            </Extensions>
          </Trackpoint>
          <Trackpoint>
            <Time>2025-08-02T17:28:23.000Z</Time>
            <Position>
              <LatitudeDegrees>44.29009152576327</LatitudeDegrees>
              <LongitudeDegrees>-81.59519713371992</LongitudeDegrees>
            </Position>
            <AltitudeMeters>174.60000610351562</AltitudeMeters>
            <DistanceMeters>1061.3499755859375</DistanceMeters>
            <Extensions>
              <ns3:TPX>
                <ns3:Speed>0.9240000247955322</ns3:Speed>
              </ns3:TPX>
            </Extensions>
          </Trackpoint>
          <Trackpoint>
            <Time>2025-08-02T17:28:36.000Z</Time>
            <Position>
              <LatitudeDegrees>44.29001851938665</LatitudeDegrees>
              <LongitudeDegrees>-81.59512085840106</LongitudeDegrees>
            </Position>
            <AltitudeMeters>174.39999389648438</AltitudeMeters>
            <DistanceMeters>1071.8900146484375</DistanceMeters>
            <Extensions>
              <ns3:TPX>
                <ns3:Speed>0.8209999799728394</ns3:Speed>
              </ns3:TPX>
            </Extensions>
          </Trackpoint>
          <Trackpoint>
            <Time>2025-08-02T17:28:46.000Z</Time>
            <Position>
              <LatitudeDegrees>44.289989518001676</LatitudeDegrees>
              <LongitudeDegrees>-81.59503125585616</LongitudeDegrees>
            </Position>
            <AltitudeMeters>174.39999389648438</AltitudeMeters>
            <DistanceMeters>1079.8499755859375</DistanceMeters>
            <Extensions>
              <ns3:TPX>
                <ns3:Speed>0.8209999799728394</ns3:Speed>
              </ns3:TPX>
            </Extensions>
          </Trackpoint>
          <Trackpoint>
            <Time>2025-08-02T17:28:53.000Z</Time>
            <Position>
              <LatitudeDegrees>44.289969401434064</LatitudeDegrees>
              <LongitudeDegrees>-81.59496814012527</LongitudeDegrees>
            </Position>
            <AltitudeMeters>174.39999389648438</AltitudeMeters>
            <DistanceMeters>1085.3299560546875</DistanceMeters>
            <Extensions>
              <ns3:TPX>
                <ns3:Speed>0.7459999918937683</ns3:Speed>
              </ns3:TPX>
            </Extensions>
          </Trackpoint>
          <Trackpoint>
            <Time>2025-08-02T17:29:08.000Z</Time>
            <Position>
              <LatitudeDegrees>44.28992833010852</LatitudeDegrees>
              <LongitudeDegrees>-81.5948043577373</LongitudeDegrees>
            </Position>
            <AltitudeMeters>174.39999389648438</AltitudeMeters>
            <DistanceMeters>1099.219970703125</DistanceMeters>
            <Extensions>
              <ns3:TPX>
                <ns3:Speed>0.9980000257492065</ns3:Speed>
              </ns3:TPX>
            </Extensions>
          </Trackpoint>
          <Trackpoint>
            <Time>2025-08-02T17:29:23.000Z</Time>
            <Position>
              <LatitudeDegrees>44.28983587771654</LatitudeDegrees>
              <LongitudeDegrees>-81.5946045331657</LongitudeDegrees>
            </Position>
            <AltitudeMeters>174.39999389648438</AltitudeMeters>
            <DistanceMeters>1118.199951171875</DistanceMeters>
            <Extensions>
              <ns3:TPX>
                <ns3:Speed>1.2879999876022339</ns3:Speed>
              </ns3:TPX>
            </Extensions>
          </Trackpoint>
          <Trackpoint>
            <Time>2025-08-02T17:29:37.000Z</Time>
            <Position>
              <LatitudeDegrees>44.28974309004843</LatitudeDegrees>
              <LongitudeDegrees>-81.59437201917171</LongitudeDegrees>
            </Position>
            <AltitudeMeters>174.1999969482422</AltitudeMeters>
            <DistanceMeters>1139.4300537109375</DistanceMeters>
            <Extensions>
              <ns3:TPX>
                <ns3:Speed>1.5490000247955322</ns3:Speed>
              </ns3:TPX>
            </Extensions>
          </Trackpoint>
          <Trackpoint>
            <Time>2025-08-02T17:29:53.000Z</Time>
            <Position>
              <LatitudeDegrees>44.28964686580002</LatitudeDegrees>
              <LongitudeDegrees>-81.59409080632031</LongitudeDegrees>
            </Position>
            <AltitudeMeters>174.39999389648438</AltitudeMeters>
            <DistanceMeters>1164.4100341796875</DistanceMeters>
            <Extensions>
              <ns3:TPX>
                <ns3:Speed>1.4739999771118164</ns3:Speed>
              </ns3:TPX>
            </Extensions>
          </Trackpoint>
          <Trackpoint>
            <Time>2025-08-02T17:30:07.000Z</Time>
            <Position>
              <LatitudeDegrees>44.289588863030076</LatitudeDegrees>
              <LongitudeDegrees>-81.59385208971798</LongitudeDegrees>
            </Position>
            <AltitudeMeters>174.39999389648438</AltitudeMeters>
            <DistanceMeters>1184.530029296875</DistanceMeters>
            <Extensions>
              <ns3:TPX>
                <ns3:Speed>1.437000036239624</ns3:Speed>
              </ns3:TPX>
            </Extensions>
          </Trackpoint>
          <Trackpoint>
            <Time>2025-08-02T17:30:19.000Z</Time>
            <Position>
              <LatitudeDegrees>44.289527758955956</LatitudeDegrees>
              <LongitudeDegrees>-81.59366182051599</LongitudeDegrees>
            </Position>
            <AltitudeMeters>174.1999969482422</AltitudeMeters>
            <DistanceMeters>1201.1700439453125</DistanceMeters>
            <Extensions>
              <ns3:TPX>
                <ns3:Speed>1.3619999885559082</ns3:Speed>
              </ns3:TPX>
            </Extensions>
          </Trackpoint>
          <Trackpoint>
            <Time>2025-08-02T17:30:33.000Z</Time>
            <Position>
              <LatitudeDegrees>44.28947361186147</LatitudeDegrees>
              <LongitudeDegrees>-81.59344464540482</LongitudeDegrees>
            </Position>
            <AltitudeMeters>174.1999969482422</AltitudeMeters>
            <DistanceMeters>1219.52001953125</DistanceMeters>
            <Extensions>
              <ns3:TPX>
                <ns3:Speed>1.277999997138977</ns3:Speed>
              </ns3:TPX>
            </Extensions>
          </Trackpoint>
          <Trackpoint>
            <Time>2025-08-02T17:30:42.000Z</Time>
            <Position>
              <LatitudeDegrees>44.28944201208651</LatitudeDegrees>
              <LongitudeDegrees>-81.5933211799711</LongitudeDegrees>
            </Position>
            <AltitudeMeters>174.1999969482422</AltitudeMeters>
            <DistanceMeters>1230.010009765625</DistanceMeters>
            <Extensions>
              <ns3:TPX>
                <ns3:Speed>1.194000005722046</ns3:Speed>
              </ns3:TPX>
            </Extensions>
          </Trackpoint>
          <Trackpoint>
            <Time>2025-08-02T17:30:59.000Z</Time>
            <Position>
              <LatitudeDegrees>44.28937805816531</LatitudeDegrees>
              <LongitudeDegrees>-81.59309478476644</LongitudeDegrees>
            </Position>
            <AltitudeMeters>174.1999969482422</AltitudeMeters>
            <DistanceMeters>1249.4599609375</DistanceMeters>
            <Extensions>
              <ns3:TPX>
                <ns3:Speed>1.1380000114440918</ns3:Speed>
              </ns3:TPX>
            </Extensions>
          </Trackpoint>
          <Trackpoint>
            <Time>2025-08-02T17:31:14.000Z</Time>
            <Position>
              <LatitudeDegrees>44.28933606483042</LatitudeDegrees>
              <LongitudeDegrees>-81.59285933710635</LongitudeDegrees>
            </Position>
            <AltitudeMeters>174.1999969482422</AltitudeMeters>
            <DistanceMeters>1268.800048828125</DistanceMeters>
            <Extensions>
              <ns3:TPX>
                <ns3:Speed>1.2599999904632568</ns3:Speed>
              </ns3:TPX>
            </Extensions>
          </Trackpoint>
          <Trackpoint>
            <Time>2025-08-02T17:31:27.000Z</Time>
            <Position>
              <LatitudeDegrees>44.2893008608371</LatitudeDegrees>
              <LongitudeDegrees>-81.59265222027898</LongitudeDegrees>
            </Position>
            <AltitudeMeters>174.1999969482422</AltitudeMeters>
            <DistanceMeters>1285.7900390625</DistanceMeters>
            <Extensions>
              <ns3:TPX>
                <ns3:Speed>1.315999984741211</ns3:Speed>
              </ns3:TPX>
            </Extensions>
          </Trackpoint>
          <Trackpoint>
            <Time>2025-08-02T17:31:43.000Z</Time>
            <Position>
              <LatitudeDegrees>44.28925375454128</LatitudeDegrees>
              <LongitudeDegrees>-81.59238299354911</LongitudeDegrees>
            </Position>
            <AltitudeMeters>174.0</AltitudeMeters>
            <DistanceMeters>1307.9200439453125</DistanceMeters>
            <Extensions>
              <ns3:TPX>
                <ns3:Speed>1.315999984741211</ns3:Speed>
              </ns3:TPX>
            </Extensions>
          </Trackpoint>
          <Trackpoint>
            <Time>2025-08-02T17:31:55.000Z</Time>
            <Position>
              <LatitudeDegrees>44.289213018491864</LatitudeDegrees>
              <LongitudeDegrees>-81.5921726077795</LongitudeDegrees>
            </Position>
            <AltitudeMeters>174.0</AltitudeMeters>
            <DistanceMeters>1325.3299560546875</DistanceMeters>
            <Extensions>
              <ns3:TPX>
                <ns3:Speed>1.4930000305175781</ns3:Speed>
              </ns3:TPX>
            </Extensions>
          </Trackpoint>
          <Trackpoint>
            <Time>2025-08-02T17:32:09.000Z</Time>
            <Position>
              <LatitudeDegrees>44.28915845230222</LatitudeDegrees>
              <LongitudeDegrees>-81.59191436134279</LongitudeDegrees>
            </Position>
            <AltitudeMeters>174.0</AltitudeMeters>
            <DistanceMeters>1346.8499755859375</DistanceMeters>
            <Extensions>
              <ns3:TPX>
                <ns3:Speed>1.6139999628067017</ns3:Speed>
              </ns3:TPX>
            </Extensions>
          </Trackpoint>
          <Trackpoint>
            <Time>2025-08-02T17:32:18.000Z</Time>
            <Position>
              <LatitudeDegrees>44.289132887497544</LatitudeDegrees>
              <LongitudeDegrees>-81.5917476452887</LongitudeDegrees>
            </Position>
            <AltitudeMeters>174.1999969482422</AltitudeMeters>
            <DistanceMeters>1360.5400390625</DistanceMeters>
            <Extensions>
              <ns3:TPX>
                <ns3:Speed>1.5579999685287476</ns3:Speed>
              </ns3:TPX>
            </Extensions>
          </Trackpoint>
          <Trackpoint>
            <Time>2025-08-02T17:32:26.000Z</Time>
            <Position>
              <LatitudeDegrees>44.289115872234106</LatitudeDegrees>
              <LongitudeDegrees>-81.59168972633779</LongitudeDegrees>
            </Position>
            <AltitudeMeters>174.0</AltitudeMeters>
            <DistanceMeters>1365.6700439453125</DistanceMeters>
            <Extensions>
              <ns3:TPX>
                <ns3:Speed>0.0</ns3:Speed>
              </ns3:TPX>
            </Extensions>
          </Trackpoint>
          <Trackpoint>
            <Time>2025-08-02T17:32:29.000Z</Time>
            <Position>
              <LatitudeDegrees>44.28911067545414</LatitudeDegrees>
              <LongitudeDegrees>-81.59167086705565</LongitudeDegrees>
            </Position>
            <AltitudeMeters>173.8000030517578</AltitudeMeters>
            <DistanceMeters>1367.31005859375</DistanceMeters>
            <Extensions>
              <ns3:TPX>
                <ns3:Speed>0.7089999914169312</ns3:Speed>
              </ns3:TPX>
            </Extensions>
          </Trackpoint>
          <Trackpoint>
            <Time>2025-08-02T17:32:32.000Z</Time>
            <Position>
              <LatitudeDegrees>44.28910966962576</LatitudeDegrees>
              <LongitudeDegrees>-81.5916598867625</LongitudeDegrees>
            </Position>
            <AltitudeMeters>174.0</AltitudeMeters>
            <DistanceMeters>1368.300048828125</DistanceMeters>
            <Extensions>
              <ns3:TPX>
                <ns3:Speed>0.0</ns3:Speed>
              </ns3:TPX>
            </Extensions>
          </Trackpoint>
          <Trackpoint>
            <Time>2025-08-02T17:32:42.000Z</Time>
            <Position>
              <LatitudeDegrees>44.28909466601908</LatitudeDegrees>
              <LongitudeDegrees>-81.5916147083044</LongitudeDegrees>
            </Position>
            <AltitudeMeters>175.0</AltitudeMeters>
            <DistanceMeters>1372.47998046875</DistanceMeters>
            <Extensions>
              <ns3:TPX>
                <ns3:Speed>0.0</ns3:Speed>
              </ns3:TPX>
            </Extensions>
          </Trackpoint>
          <Trackpoint>
            <Time>2025-08-02T17:32:49.000Z</Time>
            <Position>
              <LatitudeDegrees>44.289067424833775</LatitudeDegrees>
              <LongitudeDegrees>-81.59165871329606</LongitudeDegrees>
            </Position>
            <AltitudeMeters>175.0</AltitudeMeters>
            <DistanceMeters>1377.81005859375</DistanceMeters>
            <Extensions>
              <ns3:TPX>
                <ns3:Speed>0.7369999885559082</ns3:Speed>
              </ns3:TPX>
            </Extensions>
          </Trackpoint>
          <Trackpoint>
            <Time>2025-08-02T17:32:50.000Z</Time>
            <Position>
              <LatitudeDegrees>44.28907563909888</LatitudeDegrees>
              <LongitudeDegrees>-81.59166667610407</LongitudeDegrees>
            </Position>
            <AltitudeMeters>175.0</AltitudeMeters>
            <DistanceMeters>1378.9000244140625</DistanceMeters>
            <Extensions>
              <ns3:TPX>
                <ns3:Speed>1.0920000076293945</ns3:Speed>
              </ns3:TPX>
            </Extensions>
          </Trackpoint>
          <Trackpoint>
            <Time>2025-08-02T17:32:53.000Z</Time>
            <Position>
              <LatitudeDegrees>44.28908712230623</LatitudeDegrees>
              <LongitudeDegrees>-81.59165770746768</LongitudeDegrees>
            </Position>
            <AltitudeMeters>174.60000610351562</AltitudeMeters>
            <DistanceMeters>1380.4000244140625</DistanceMeters>
            <Extensions>
              <ns3:TPX>
                <ns3:Speed>0.0</ns3:Speed>
              </ns3:TPX>
            </Extensions>
          </Trackpoint>
          <Trackpoint>
            <Time>2025-08-02T17:32:57.000Z</Time>
            <Position>
              <LatitudeDegrees>44.28906767629087</LatitudeDegrees>
              <LongitudeDegrees>-81.59165443852544</LongitudeDegrees>
            </Position>
            <AltitudeMeters>174.60000610351562</AltitudeMeters>
            <DistanceMeters>1382.4599609375</DistanceMeters>
            <Extensions>
              <ns3:TPX>
                <ns3:Speed>0.9610000252723694</ns3:Speed>
              </ns3:TPX>
            </Extensions>
          </Trackpoint>
          <Trackpoint>
            <Time>2025-08-02T17:33:00.000Z</Time>
            <Position>
              <LatitudeDegrees>44.28903926163912</LatitudeDegrees>
              <LongitudeDegrees>-81.59163482487202</LongitudeDegrees>
            </Position>
            <AltitudeMeters>174.8000030517578</AltitudeMeters>
            <DistanceMeters>1385.989990234375</DistanceMeters>
            <Extensions>
              <ns3:TPX>
                <ns3:Speed>0.9890000224113464</ns3:Speed>
              </ns3:TPX>
            </Extensions>
          </Trackpoint>
        </Track>
        <Extensions>
          <ns3:LX>
            <ns3:AvgSpeed>1.3819999694824219</ns3:AvgSpeed>
          </ns3:LX>
        </Extensions>
      </Lap>
      <Creator xsi:type="Device_t">
        <Name>vívoactive 4</Name>
        <UnitId>3432774097</UnitId>
        <ProductID>3225</ProductID>
        <Version>
          <VersionMajor>8</VersionMajor>
          <VersionMinor>30</VersionMinor>
          <BuildMajor>0</BuildMajor>
          <BuildMinor>0</BuildMinor>
        </Version>
      </Creator>
    </Activity>
  </Activities>
  <Author xsi:type="Application_t">
    <Name>Connect Api</Name>
    <Build>
      <Version>
        <VersionMajor>25</VersionMajor>
        <VersionMinor>15</VersionMinor>
        <BuildMajor>0</BuildMajor>
        <BuildMinor>0</BuildMinor>
      </Version>
    </Build>
    <LangID>en</LangID>
    <PartNumber>006-D2449-00</PartNumber>
  </Author>
</TrainingCenterDatabase>
