<?xml version="1.0" encoding="UTF-8"?>
<TrainingCenterDatabase
  xsi:schemaLocation="http://www.garmin.com/xmlschemas/TrainingCenterDatabase/v2 http://www.garmin.com/xmlschemas/TrainingCenterDatabasev2.xsd"
  xmlns:ns5="http://www.garmin.com/xmlschemas/ActivityGoals/v1"
  xmlns:ns3="http://www.garmin.com/xmlschemas/ActivityExtension/v2"
  xmlns:ns2="http://www.garmin.com/xmlschemas/UserProfile/v2"
  xmlns="http://www.garmin.com/xmlschemas/TrainingCenterDatabase/v2"
  xmlns:xsi="http://www.w3.org/2001/XMLSchema-instance" xmlns:ns4="http://www.garmin.com/xmlschemas/ProfileExtension/v1">
  <Activities>
    <Activity Sport="Other">
      <Id>2025-08-05T16:08:44.000Z</Id>
      <Lap StartTime="2025-08-05T16:08:44.000Z">
        <TotalTimeSeconds>1277.911</TotalTimeSeconds>
        <DistanceMeters>2145.69</DistanceMeters>
        <MaximumSpeed>3.806999921798706</MaximumSpeed>
        <Calories>187</Calories>
        <Intensity>Active</Intensity>
        <TriggerMethod>Manual</TriggerMethod>
        <Track>
          <Trackpoint>
            <Time>2025-08-05T16:08:44.000Z</Time>
            <Position>
              <LatitudeDegrees>44.28852687589824</LatitudeDegrees>
              <LongitudeDegrees>-81.59105270169675</LongitudeDegrees>
            </Position>
            <AltitudeMeters>171.60000610351562</AltitudeMeters>
            <DistanceMeters>0.0</DistanceMeters>
            <Extensions>
              <ns3:TPX>
                <ns3:Speed>0.0</ns3:Speed>
              </ns3:TPX>
            </Extensions>
          </Trackpoint>
          <Trackpoint>
            <Time>2025-08-05T16:08:48.000Z</Time>
            <Position>
              <LatitudeDegrees>44.2888917401433</LatitudeDegrees>
              <LongitudeDegrees>-81.59134020097554</LongitudeDegrees>
            </Position>
            <AltitudeMeters>171.60000610351562</AltitudeMeters>
            <DistanceMeters>7.079999923706055</DistanceMeters>
            <Extensions>
              <ns3:TPX>
                <ns3:Speed>2.4260001182556152</ns3:Speed>
              </ns3:TPX>
            </Extensions>
          </Trackpoint>
          <Trackpoint>
            <Time>2025-08-05T16:08:50.000Z</Time>
            <Position>
              <LatitudeDegrees>44.28900497965515</LatitudeDegrees>
              <LongitudeDegrees>-81.59143189899623</LongitudeDegrees>
            </Position>
            <AltitudeMeters>171.60000610351562</AltitudeMeters>
            <DistanceMeters>14.739999771118164</DistanceMeters>
            <Extensions>
              <ns3:TPX>
                <ns3:Speed>2.3420000076293945</ns3:Speed>
              </ns3:TPX>
            </Extensions>
          </Trackpoint>
          <Trackpoint>
            <Time>2025-08-05T16:08:53.000Z</Time>
            <Position>
              <LatitudeDegrees>44.28907941095531</LatitudeDegrees>
              <LongitudeDegrees>-81.5914909914136</LongitudeDegrees>
            </Position>
            <AltitudeMeters>171.39999389648438</AltitudeMeters>
            <DistanceMeters>16.3700008392334</DistanceMeters>
            <Extensions>
              <ns3:TPX>
                <ns3:Speed>1.7730000019073486</ns3:Speed>
              </ns3:TPX>
            </Extensions>
          </Trackpoint>
          <Trackpoint>
            <Time>2025-08-05T16:08:54.000Z</Time>
            <Position>
              <LatitudeDegrees>44.28907027468085</LatitudeDegrees>
              <LongitudeDegrees>-81.5914838667959</LongitudeDegrees>
            </Position>
            <AltitudeMeters>171.1999969482422</AltitudeMeters>
            <DistanceMeters>17.450000762939453</DistanceMeters>
            <Extensions>
              <ns3:TPX>
                <ns3:Speed>2.1089999675750732</ns3:Speed>
              </ns3:TPX>
            </Extensions>
          </Trackpoint>
          <Trackpoint>
            <Time>2025-08-05T16:08:59.000Z</Time>
            <Position>
              <LatitudeDegrees>44.28906809538603</LatitudeDegrees>
              <LongitudeDegrees>-81.59150490537286</LongitudeDegrees>
            </Position>
            <AltitudeMeters>171.60000610351562</AltitudeMeters>
            <DistanceMeters>18.06999969482422</DistanceMeters>
            <Extensions>
              <ns3:TPX>
                <ns3:Speed>0.4569999873638153</ns3:Speed>
              </ns3:TPX>
            </Extensions>
          </Trackpoint>
          <Trackpoint>
            <Time>2025-08-05T16:09:03.000Z</Time>
            <Position>
              <LatitudeDegrees>44.28907060995698</LatitudeDegrees>
              <LongitudeDegrees>-81.59154329448938</LongitudeDegrees>
            </Position>
            <AltitudeMeters>171.8000030517578</AltitudeMeters>
            <DistanceMeters>20.93000030517578</DistanceMeters>
            <Extensions>
              <ns3:TPX>
                <ns3:Speed>0.6809999942779541</ns3:Speed>
              </ns3:TPX>
            </Extensions>
          </Trackpoint>
          <Trackpoint>
            <Time>2025-08-05T16:09:05.000Z</Time>
            <Position>
              <LatitudeDegrees>44.28907781839371</LatitudeDegrees>
              <LongitudeDegrees>-81.59156433306634</LongitudeDegrees>
            </Position>
            <AltitudeMeters>171.8000030517578</AltitudeMeters>
            <DistanceMeters>22.780000686645508</DistanceMeters>
            <Extensions>
              <ns3:TPX>
                <ns3:Speed>1.0360000133514404</ns3:Speed>
              </ns3:TPX>
            </Extensions>
          </Trackpoint>
          <Trackpoint>
            <Time>2025-08-05T16:09:09.000Z</Time>
            <Position>
              <LatitudeDegrees>44.28909701295197</LatitudeDegrees>
              <LongitudeDegrees>-81.59163616597652</LongitudeDegrees>
            </Position>
            <AltitudeMeters>171.60000610351562</AltitudeMeters>
            <DistanceMeters>28.780000686645508</DistanceMeters>
            <Extensions>
              <ns3:TPX>
                <ns3:Speed>0.7739999890327454</ns3:Speed>
              </ns3:TPX>
            </Extensions>
          </Trackpoint>
          <Trackpoint>
            <Time>2025-08-05T16:09:15.000Z</Time>
            <Position>
              <LatitudeDegrees>44.28911201655865</LatitudeDegrees>
              <LongitudeDegrees>-81.59168637357652</LongitudeDegrees>
            </Position>
            <AltitudeMeters>171.0</AltitudeMeters>
            <DistanceMeters>33.22999954223633</DistanceMeters>
            <Extensions>
              <ns3:TPX>
                <ns3:Speed>0.0</ns3:Speed>
              </ns3:TPX>
            </Extensions>
          </Trackpoint>
          <Trackpoint>
            <Time>2025-08-05T16:09:21.000Z</Time>
            <Position>
              <LatitudeDegrees>44.28911704570055</LatitudeDegrees>
              <LongitudeDegrees>-81.59173004329205</LongitudeDegrees>
            </Position>
            <AltitudeMeters>171.1999969482422</AltitudeMeters>
            <DistanceMeters>37.13999938964844</DistanceMeters>
            <Extensions>
              <ns3:TPX>
                <ns3:Speed>1.371999979019165</ns3:Speed>
              </ns3:TPX>
            </Extensions>
          </Trackpoint>
          <Trackpoint>
            <Time>2025-08-05T16:09:23.000Z</Time>
            <Position>
              <LatitudeDegrees>44.289118302986026</LatitudeDegrees>
              <LongitudeDegrees>-81.59176063723862</LongitudeDegrees>
            </Position>
            <AltitudeMeters>171.1999969482422</AltitudeMeters>
            <DistanceMeters>39.59000015258789</DistanceMeters>
            <Extensions>
              <ns3:TPX>
                <ns3:Speed>1.4739999771118164</ns3:Speed>
              </ns3:TPX>
            </Extensions>
          </Trackpoint>
          <Trackpoint>
            <Time>2025-08-05T16:09:26.000Z</Time>
            <Position>
              <LatitudeDegrees>44.289112351834774</LatitudeDegrees>
              <LongitudeDegrees>-81.5917758923024</LongitudeDegrees>
            </Position>
            <AltitudeMeters>171.0</AltitudeMeters>
            <DistanceMeters>41.2599983215332</DistanceMeters>
            <Extensions>
              <ns3:TPX>
                <ns3:Speed>0.7739999890327454</ns3:Speed>
              </ns3:TPX>
            </Extensions>
          </Trackpoint>
          <Trackpoint>
            <Time>2025-08-05T16:09:34.000Z</Time>
            <Position>
              <LatitudeDegrees>44.2891145311296</LatitudeDegrees>
              <LongitudeDegrees>-81.59195752814412</LongitudeDegrees>
            </Position>
            <AltitudeMeters>171.39999389648438</AltitudeMeters>
            <DistanceMeters>55.52000045776367</DistanceMeters>
            <Extensions>
              <ns3:TPX>
                <ns3:Speed>1.5859999656677246</ns3:Speed>
              </ns3:TPX>
            </Extensions>
          </Trackpoint>
          <Trackpoint>
            <Time>2025-08-05T16:09:43.000Z</Time>
            <Position>
              <LatitudeDegrees>44.28911738097668</LatitudeDegrees>
              <LongitudeDegrees>-81.59219942986965</LongitudeDegrees>
            </Position>
            <AltitudeMeters>171.39999389648438</AltitudeMeters>
            <DistanceMeters>74.9000015258789</DistanceMeters>
            <Extensions>
              <ns3:TPX>
                <ns3:Speed>2.0429999828338623</ns3:Speed>
              </ns3:TPX>
            </Extensions>
          </Trackpoint>
          <Trackpoint>
            <Time>2025-08-05T16:09:53.000Z</Time>
            <Position>
              <LatitudeDegrees>44.28911008872092</LatitudeDegrees>
              <LongitudeDegrees>-81.5924818161875</LongitudeDegrees>
            </Position>
            <AltitudeMeters>171.39999389648438</AltitudeMeters>
            <DistanceMeters>97.58999633789062</DistanceMeters>
            <Extensions>
              <ns3:TPX>
                <ns3:Speed>2.0989999771118164</ns3:Speed>
              </ns3:TPX>
            </Extensions>
          </Trackpoint>
          <Trackpoint>
            <Time>2025-08-05T16:10:03.000Z</Time>
            <Position>
              <LatitudeDegrees>44.28911159746349</LatitudeDegrees>
              <LongitudeDegrees>-81.59272841177881</LongitudeDegrees>
            </Position>
            <AltitudeMeters>171.1999969482422</AltitudeMeters>
            <DistanceMeters>117.20999908447266</DistanceMeters>
            <Extensions>
              <ns3:TPX>
                <ns3:Speed>1.940999984741211</ns3:Speed>
              </ns3:TPX>
            </Extensions>
          </Trackpoint>
          <Trackpoint>
            <Time>2025-08-05T16:10:10.000Z</Time>
            <Position>
              <LatitudeDegrees>44.289106987416744</LatitudeDegrees>
              <LongitudeDegrees>-81.59289269708097</LongitudeDegrees>
            </Position>
            <AltitudeMeters>171.1999969482422</AltitudeMeters>
            <DistanceMeters>130.36000061035156</DistanceMeters>
            <Extensions>
              <ns3:TPX>
                <ns3:Speed>1.8660000562667847</ns3:Speed>
              </ns3:TPX>
            </Extensions>
          </Trackpoint>
          <Trackpoint>
            <Time>2025-08-05T16:10:18.000Z</Time>
            <Position>
              <LatitudeDegrees>44.28909952752292</LatitudeDegrees>
              <LongitudeDegrees>-81.59307877533138</LongitudeDegrees>
            </Position>
            <AltitudeMeters>171.1999969482422</AltitudeMeters>
            <DistanceMeters>145.22000122070312</DistanceMeters>
            <Extensions>
              <ns3:TPX>
                <ns3:Speed>1.847000002861023</ns3:Speed>
              </ns3:TPX>
            </Extensions>
          </Trackpoint>
          <Trackpoint>
            <Time>2025-08-05T16:10:31.000Z</Time>
            <Position>
              <LatitudeDegrees>44.289103634655476</LatitudeDegrees>
              <LongitudeDegrees>-81.59340240061283</LongitudeDegrees>
            </Position>
            <AltitudeMeters>171.0</AltitudeMeters>
            <DistanceMeters>171.22999572753906</DistanceMeters>
            <Extensions>
              <ns3:TPX>
                <ns3:Speed>2.00600004196167</ns3:Speed>
              </ns3:TPX>
            </Extensions>
          </Trackpoint>
          <Trackpoint>
            <Time>2025-08-05T16:10:40.000Z</Time>
            <Position>
              <LatitudeDegrees>44.28909692913294</LatitudeDegrees>
              <LongitudeDegrees>-81.5936200786382</LongitudeDegrees>
            </Position>
            <AltitudeMeters>171.0</AltitudeMeters>
            <DistanceMeters>188.64999389648438</DistanceMeters>
            <Extensions>
              <ns3:TPX>
                <ns3:Speed>1.902999997138977</ns3:Speed>
              </ns3:TPX>
            </Extensions>
          </Trackpoint>
          <Trackpoint>
            <Time>2025-08-05T16:10:50.000Z</Time>
            <Position>
              <LatitudeDegrees>44.289072873070836</LatitudeDegrees>
              <LongitudeDegrees>-81.59385762177408</LongitudeDegrees>
            </Position>
            <AltitudeMeters>170.8000030517578</AltitudeMeters>
            <DistanceMeters>207.80999755859375</DistanceMeters>
            <Extensions>
              <ns3:TPX>
                <ns3:Speed>1.9220000505447388</ns3:Speed>
              </ns3:TPX>
            </Extensions>
          </Trackpoint>
          <Trackpoint>
            <Time>2025-08-05T16:11:01.000Z</Time>
            <Position>
              <LatitudeDegrees>44.28903440013528</LatitudeDegrees>
              <LongitudeDegrees>-81.59417470917106</LongitudeDegrees>
            </Position>
            <AltitudeMeters>170.8000030517578</AltitudeMeters>
            <DistanceMeters>233.47000122070312</DistanceMeters>
            <Extensions>
              <ns3:TPX>
                <ns3:Speed>2.3889999389648438</ns3:Speed>
              </ns3:TPX>
            </Extensions>
          </Trackpoint>
          <Trackpoint>
            <Time>2025-08-05T16:11:13.000Z</Time>
            <Position>
              <LatitudeDegrees>44.289010763168335</LatitudeDegrees>
              <LongitudeDegrees>-81.594518115744</LongitudeDegrees>
            </Position>
            <AltitudeMeters>170.8000030517578</AltitudeMeters>
            <DistanceMeters>261.0199890136719</DistanceMeters>
            <Extensions>
              <ns3:TPX>
                <ns3:Speed>2.2300000190734863</ns3:Speed>
              </ns3:TPX>
            </Extensions>
          </Trackpoint>
          <Trackpoint>
            <Time>2025-08-05T16:11:21.000Z</Time>
            <Position>
              <LatitudeDegrees>44.28899081423879</LatitudeDegrees>
              <LongitudeDegrees>-81.59472699277103</LongitudeDegrees>
            </Position>
            <AltitudeMeters>170.8000030517578</AltitudeMeters>
            <DistanceMeters>277.8500061035156</DistanceMeters>
            <Extensions>
              <ns3:TPX>
                <ns3:Speed>2.183000087738037</ns3:Speed>
              </ns3:TPX>
            </Extensions>
          </Trackpoint>
          <Trackpoint>
            <Time>2025-08-05T16:11:27.000Z</Time>
            <Position>
              <LatitudeDegrees>44.288984360173345</LatitudeDegrees>
              <LongitudeDegrees>-81.59488289617002</LongitudeDegrees>
            </Position>
            <AltitudeMeters>170.39999389648438</AltitudeMeters>
            <DistanceMeters>290.30999755859375</DistanceMeters>
            <Extensions>
              <ns3:TPX>
                <ns3:Speed>2.1089999675750732</ns3:Speed>
              </ns3:TPX>
            </Extensions>
          </Trackpoint>
          <Trackpoint>
            <Time>2025-08-05T16:11:30.000Z</Time>
            <Position>
              <LatitudeDegrees>44.28897522389889</LatitudeDegrees>
              <LongitudeDegrees>-81.59495087340474</LongitudeDegrees>
            </Position>
            <AltitudeMeters>170.39999389648438</AltitudeMeters>
            <DistanceMeters>295.8299865722656</DistanceMeters>
            <Extensions>
              <ns3:TPX>
                <ns3:Speed>2.0429999828338623</ns3:Speed>
              </ns3:TPX>
            </Extensions>
          </Trackpoint>
          <Trackpoint>
            <Time>2025-08-05T16:11:44.000Z</Time>
            <Position>
              <LatitudeDegrees>44.28890448063612</LatitudeDegrees>
              <LongitudeDegrees>-81.59530291333795</LongitudeDegrees>
            </Position>
            <AltitudeMeters>170.60000610351562</AltitudeMeters>
            <DistanceMeters>325.1199951171875</DistanceMeters>
            <Extensions>
              <ns3:TPX>
                <ns3:Speed>2.1549999713897705</ns3:Speed>
              </ns3:TPX>
            </Extensions>
          </Trackpoint>
          <Trackpoint>
            <Time>2025-08-05T16:11:57.000Z</Time>
            <Position>
              <LatitudeDegrees>44.28879224695265</LatitudeDegrees>
              <LongitudeDegrees>-81.59560239873827</LongitudeDegrees>
            </Position>
            <AltitudeMeters>170.60000610351562</AltitudeMeters>
            <DistanceMeters>352.05999755859375</DistanceMeters>
            <Extensions>
              <ns3:TPX>
                <ns3:Speed>2.0810000896453857</ns3:Speed>
              </ns3:TPX>
            </Extensions>
          </Trackpoint>
          <Trackpoint>
            <Time>2025-08-05T16:12:08.000Z</Time>
            <Position>
              <LatitudeDegrees>44.28871446289122</LatitudeDegrees>
              <LongitudeDegrees>-81.59581345506012</LongitudeDegrees>
            </Position>
            <AltitudeMeters>170.60000610351562</AltitudeMeters>
            <DistanceMeters>371.05999755859375</DistanceMeters>
            <Extensions>
              <ns3:TPX>
                <ns3:Speed>1.6419999599456787</ns3:Speed>
              </ns3:TPX>
            </Extensions>
          </Trackpoint>
          <Trackpoint>
            <Time>2025-08-05T16:12:19.000Z</Time>
            <Position>
              <LatitudeDegrees>44.28867431357503</LatitudeDegrees>
              <LongitudeDegrees>-81.59602417610586</LongitudeDegrees>
            </Position>
            <AltitudeMeters>170.60000610351562</AltitudeMeters>
            <DistanceMeters>388.54998779296875</DistanceMeters>
            <Extensions>
              <ns3:TPX>
                <ns3:Speed>1.6239999532699585</ns3:Speed>
              </ns3:TPX>
            </Extensions>
          </Trackpoint>
          <Trackpoint>
            <Time>2025-08-05T16:12:30.000Z</Time>
            <Position>
              <LatitudeDegrees>44.28867490030825</LatitudeDegrees>
              <LongitudeDegrees>-81.59630186855793</LongitudeDegrees>
            </Position>
            <AltitudeMeters>170.39999389648438</AltitudeMeters>
            <DistanceMeters>410.7799987792969</DistanceMeters>
            <Extensions>
              <ns3:TPX>
                <ns3:Speed>2.015000104904175</ns3:Speed>
              </ns3:TPX>
            </Extensions>
          </Trackpoint>
          <Trackpoint>
            <Time>2025-08-05T16:12:40.000Z</Time>
            <Position>
              <LatitudeDegrees>44.288688730448484</LatitudeDegrees>
              <LongitudeDegrees>-81.59656656906009</LongitudeDegrees>
            </Position>
            <AltitudeMeters>170.39999389648438</AltitudeMeters>
            <DistanceMeters>432.04998779296875</DistanceMeters>
            <Extensions>
              <ns3:TPX>
                <ns3:Speed>2.062000036239624</ns3:Speed>
              </ns3:TPX>
            </Extensions>
          </Trackpoint>
          <Trackpoint>
            <Time>2025-08-05T16:12:51.000Z</Time>
            <Position>
              <LatitudeDegrees>44.28869920782745</LatitudeDegrees>
              <LongitudeDegrees>-81.59684526734054</LongitudeDegrees>
            </Position>
            <AltitudeMeters>170.39999389648438</AltitudeMeters>
            <DistanceMeters>454.32000732421875</DistanceMeters>
            <Extensions>
              <ns3:TPX>
                <ns3:Speed>1.9780000448226929</ns3:Speed>
              </ns3:TPX>
            </Extensions>
          </Trackpoint>
          <Trackpoint>
            <Time>2025-08-05T16:13:04.000Z</Time>
            <Position>
              <LatitudeDegrees>44.28871991112828</LatitudeDegrees>
              <LongitudeDegrees>-81.59709865227342</LongitudeDegrees>
            </Position>
            <AltitudeMeters>170.1999969482422</AltitudeMeters>
            <DistanceMeters>474.70001220703125</DistanceMeters>
            <Extensions>
              <ns3:TPX>
                <ns3:Speed>1.5579999685287476</ns3:Speed>
              </ns3:TPX>
            </Extensions>
          </Trackpoint>
          <Trackpoint>
            <Time>2025-08-05T16:13:15.000Z</Time>
            <Position>
              <LatitudeDegrees>44.28870767354965</LatitudeDegrees>
              <LongitudeDegrees>-81.597298393026</LongitudeDegrees>
            </Position>
            <AltitudeMeters>170.1999969482422</AltitudeMeters>
            <DistanceMeters>491.25</DistanceMeters>
            <Extensions>
              <ns3:TPX>
                <ns3:Speed>1.4839999675750732</ns3:Speed>
              </ns3:TPX>
            </Extensions>
          </Trackpoint>
          <Trackpoint>
            <Time>2025-08-05T16:13:26.000Z</Time>
            <Position>
              <LatitudeDegrees>44.28864019922912</LatitudeDegrees>
              <LongitudeDegrees>-81.5975534543395</LongitudeDegrees>
            </Position>
            <AltitudeMeters>170.0</AltitudeMeters>
            <DistanceMeters>512.9500122070312</DistanceMeters>
            <Extensions>
              <ns3:TPX>
                <ns3:Speed>2.0429999828338623</ns3:Speed>
              </ns3:TPX>
            </Extensions>
          </Trackpoint>
          <Trackpoint>
            <Time>2025-08-05T16:13:38.000Z</Time>
            <Position>
              <LatitudeDegrees>44.28853550925851</LatitudeDegrees>
              <LongitudeDegrees>-81.59787523560226</LongitudeDegrees>
            </Position>
            <AltitudeMeters>170.0</AltitudeMeters>
            <DistanceMeters>541.1699829101562</DistanceMeters>
            <Extensions>
              <ns3:TPX>
                <ns3:Speed>2.322999954223633</ns3:Speed>
              </ns3:TPX>
            </Extensions>
          </Trackpoint>
          <Trackpoint>
            <Time>2025-08-05T16:13:51.000Z</Time>
            <Position>
              <LatitudeDegrees>44.28835588507354</LatitudeDegrees>
              <LongitudeDegrees>-81.59829206764698</LongitudeDegrees>
            </Position>
            <AltitudeMeters>170.0</AltitudeMeters>
            <DistanceMeters>579.969970703125</DistanceMeters>
            <Extensions>
              <ns3:TPX>
                <ns3:Speed>3.1440000534057617</ns3:Speed>
              </ns3:TPX>
            </Extensions>
          </Trackpoint>
          <Trackpoint>
            <Time>2025-08-05T16:14:04.000Z</Time>
            <Position>
              <LatitudeDegrees>44.28816075436771</LatitudeDegrees>
              <LongitudeDegrees>-81.59869917668402</LongitudeDegrees>
            </Position>
            <AltitudeMeters>170.0</AltitudeMeters>
            <DistanceMeters>619.1099853515625</DistanceMeters>
            <Extensions>
              <ns3:TPX>
                <ns3:Speed>2.8269999027252197</ns3:Speed>
              </ns3:TPX>
            </Extensions>
          </Trackpoint>
          <Trackpoint>
            <Time>2025-08-05T16:14:18.000Z</Time>
            <Position>
              <LatitudeDegrees>44.287900663912296</LatitudeDegrees>
              <LongitudeDegrees>-81.59917342476547</LongitudeDegrees>
            </Position>
            <AltitudeMeters>170.0</AltitudeMeters>
            <DistanceMeters>666.72998046875</DistanceMeters>
            <Extensions>
              <ns3:TPX>
                <ns3:Speed>3.5829999446868896</ns3:Speed>
              </ns3:TPX>
            </Extensions>
          </Trackpoint>
          <Trackpoint>
            <Time>2025-08-05T16:14:31.000Z</Time>
            <Position>
              <LatitudeDegrees>44.28761593066156</LatitudeDegrees>
              <LongitudeDegrees>-81.59965085797012</LongitudeDegrees>
            </Position>
            <AltitudeMeters>169.8000030517578</AltitudeMeters>
            <DistanceMeters>716.260009765625</DistanceMeters>
            <Extensions>
              <ns3:TPX>
                <ns3:Speed>3.7790000438690186</ns3:Speed>
              </ns3:TPX>
            </Extensions>
          </Trackpoint>
          <Trackpoint>
            <Time>2025-08-05T16:14:44.000Z</Time>
            <Position>
              <LatitudeDegrees>44.287370424717665</LatitudeDegrees>
              <LongitudeDegrees>-81.60014413297176</LongitudeDegrees>
            </Position>
            <AltitudeMeters>170.0</AltitudeMeters>
            <DistanceMeters>764.1799926757812</DistanceMeters>
            <Extensions>
              <ns3:TPX>
                <ns3:Speed>3.6670000553131104</ns3:Speed>
              </ns3:TPX>
            </Extensions>
          </Trackpoint>
          <Trackpoint>
            <Time>2025-08-05T16:14:54.000Z</Time>
            <Position>
              <LatitudeDegrees>44.28722030483186</LatitudeDegrees>
              <LongitudeDegrees>-81.600530622527</LongitudeDegrees>
            </Position>
            <AltitudeMeters>170.0</AltitudeMeters>
            <DistanceMeters>799.47998046875</DistanceMeters>
            <Extensions>
              <ns3:TPX>
                <ns3:Speed>3.490000009536743</ns3:Speed>
              </ns3:TPX>
            </Extensions>
          </Trackpoint>
          <Trackpoint>
            <Time>2025-08-05T16:15:03.000Z</Time>
            <Position>
              <LatitudeDegrees>44.28716984577477</LatitudeDegrees>
              <LongitudeDegrees>-81.60083932802081</LongitudeDegrees>
            </Position>
            <AltitudeMeters>169.8000030517578</AltitudeMeters>
            <DistanceMeters>824.75</DistanceMeters>
            <Extensions>
              <ns3:TPX>
                <ns3:Speed>2.7709999084472656</ns3:Speed>
              </ns3:TPX>
            </Extensions>
          </Trackpoint>
          <Trackpoint>
            <Time>2025-08-05T16:15:14.000Z</Time>
            <Position>
              <LatitudeDegrees>44.287112429738045</LatitudeDegrees>
              <LongitudeDegrees>-81.60119279287755</LongitudeDegrees>
            </Position>
            <AltitudeMeters>170.0</AltitudeMeters>
            <DistanceMeters>853.7000122070312</DistanceMeters>
            <Extensions>
              <ns3:TPX>
                <ns3:Speed>2.6500000953674316</ns3:Speed>
              </ns3:TPX>
            </Extensions>
          </Trackpoint>
          <Trackpoint>
            <Time>2025-08-05T16:15:25.000Z</Time>
            <Position>
              <LatitudeDegrees>44.28708493709564</LatitudeDegrees>
              <LongitudeDegrees>-81.60156545229256</LongitudeDegrees>
            </Position>
            <AltitudeMeters>169.8000030517578</AltitudeMeters>
            <DistanceMeters>883.6500244140625</DistanceMeters>
            <Extensions>
              <ns3:TPX>
                <ns3:Speed>2.7809998989105225</ns3:Speed>
              </ns3:TPX>
            </Extensions>
          </Trackpoint>
          <Trackpoint>
            <Time>2025-08-05T16:15:37.000Z</Time>
            <Position>
              <LatitudeDegrees>44.28700329735875</LatitudeDegrees>
              <LongitudeDegrees>-81.60203115083277</LongitudeDegrees>
            </Position>
            <AltitudeMeters>169.8000030517578</AltitudeMeters>
            <DistanceMeters>921.989990234375</DistanceMeters>
            <Extensions>
              <ns3:TPX>
                <ns3:Speed>3.246999979019165</ns3:Speed>
              </ns3:TPX>
            </Extensions>
          </Trackpoint>
          <Trackpoint>
            <Time>2025-08-05T16:15:47.000Z</Time>
            <Position>
              <LatitudeDegrees>44.286889135837555</LatitudeDegrees>
              <LongitudeDegrees>-81.60241713747382</LongitudeDegrees>
            </Position>
            <AltitudeMeters>169.8000030517578</AltitudeMeters>
            <DistanceMeters>955.3699951171875</DistanceMeters>
            <Extensions>
              <ns3:TPX>
                <ns3:Speed>3.3310000896453857</ns3:Speed>
              </ns3:TPX>
            </Extensions>
          </Trackpoint>
          <Trackpoint>
            <Time>2025-08-05T16:15:57.000Z</Time>
            <Position>
              <LatitudeDegrees>44.28676189854741</LatitudeDegrees>
              <LongitudeDegrees>-81.60274302586913</LongitudeDegrees>
            </Position>
            <AltitudeMeters>169.8000030517578</AltitudeMeters>
            <DistanceMeters>984.97998046875</DistanceMeters>
            <Extensions>
              <ns3:TPX>
                <ns3:Speed>2.9579999446868896</ns3:Speed>
              </ns3:TPX>
            </Extensions>
          </Trackpoint>
          <Trackpoint>
            <Time>2025-08-05T16:16:05.000Z</Time>
            <Position>
              <LatitudeDegrees>44.286653604358435</LatitudeDegrees>
              <LongitudeDegrees>-81.6029845084995</LongitudeDegrees>
            </Position>
            <AltitudeMeters>169.8000030517578</AltitudeMeters>
            <DistanceMeters>1007.760009765625</DistanceMeters>
            <Extensions>
              <ns3:TPX>
                <ns3:Speed>2.8459999561309814</ns3:Speed>
              </ns3:TPX>
            </Extensions>
          </Trackpoint>
          <Trackpoint>
            <Time>2025-08-05T16:16:14.000Z</Time>
            <Position>
              <LatitudeDegrees>44.28655561991036</LatitudeDegrees>
              <LongitudeDegrees>-81.60319807939231</LongitudeDegrees>
            </Position>
            <AltitudeMeters>170.0</AltitudeMeters>
            <DistanceMeters>1028.219970703125</DistanceMeters>
            <Extensions>
              <ns3:TPX>
                <ns3:Speed>2.3980000019073486</ns3:Speed>
              </ns3:TPX>
            </Extensions>
          </Trackpoint>
          <Trackpoint>
            <Time>2025-08-05T16:16:18.000Z</Time>
            <Position>
              <LatitudeDegrees>44.286554446443915</LatitudeDegrees>
              <LongitudeDegrees>-81.60323764197528</LongitudeDegrees>
            </Position>
            <AltitudeMeters>170.1999969482422</AltitudeMeters>
            <DistanceMeters>1031.3499755859375</DistanceMeters>
            <Extensions>
              <ns3:TPX>
                <ns3:Speed>0.0</ns3:Speed>
              </ns3:TPX>
            </Extensions>
          </Trackpoint>
          <Trackpoint>
            <Time>2025-08-05T16:16:25.000Z</Time>
            <Position>
              <LatitudeDegrees>44.286564672365785</LatitudeDegrees>
              <LongitudeDegrees>-81.6032556630671</LongitudeDegrees>
            </Position>
            <AltitudeMeters>170.1999969482422</AltitudeMeters>
            <DistanceMeters>1033.719970703125</DistanceMeters>
            <Extensions>
              <ns3:TPX>
                <ns3:Speed>0.5130000114440918</ns3:Speed>
              </ns3:TPX>
            </Extensions>
          </Trackpoint>
          <Trackpoint>
            <Time>2025-08-05T16:16:31.000Z</Time>
            <Position>
              <LatitudeDegrees>44.28656014613807</LatitudeDegrees>
              <LongitudeDegrees>-81.60323026590049</LongitudeDegrees>
            </Position>
            <AltitudeMeters>170.1999969482422</AltitudeMeters>
            <DistanceMeters>1036.030029296875</DistanceMeters>
            <Extensions>
              <ns3:TPX>
                <ns3:Speed>0.4480000138282776</ns3:Speed>
              </ns3:TPX>
            </Extensions>
          </Trackpoint>
          <Trackpoint>
            <Time>2025-08-05T16:16:35.000Z</Time>
            <Position>
              <LatitudeDegrees>44.28657322190702</LatitudeDegrees>
              <LongitudeDegrees>-81.60317586734891</LongitudeDegrees>
            </Position>
            <AltitudeMeters>170.1999969482422</AltitudeMeters>
            <DistanceMeters>1040.5699462890625</DistanceMeters>
            <Extensions>
              <ns3:TPX>
                <ns3:Speed>1.5490000247955322</ns3:Speed>
              </ns3:TPX>
            </Extensions>
          </Trackpoint>
          <Trackpoint>
            <Time>2025-08-05T16:16:37.000Z</Time>
            <Position>
              <LatitudeDegrees>44.286592500284314</LatitudeDegrees>
              <LongitudeDegrees>-81.60314762033522</LongitudeDegrees>
            </Position>
            <AltitudeMeters>170.1999969482422</AltitudeMeters>
            <DistanceMeters>1043.7099609375</DistanceMeters>
            <Extensions>
              <ns3:TPX>
                <ns3:Speed>1.5959999561309814</ns3:Speed>
              </ns3:TPX>
            </Extensions>
          </Trackpoint>
          <Trackpoint>
            <Time>2025-08-05T16:16:44.000Z</Time>
            <Position>
              <LatitudeDegrees>44.2867021355778</LatitudeDegrees>
              <LongitudeDegrees>-81.60305885598063</LongitudeDegrees>
            </Position>
            <AltitudeMeters>170.0</AltitudeMeters>
            <DistanceMeters>1057.7900390625</DistanceMeters>
            <Extensions>
              <ns3:TPX>
                <ns3:Speed>2.3889999389648438</ns3:Speed>
              </ns3:TPX>
            </Extensions>
          </Trackpoint>
          <Trackpoint>
            <Time>2025-08-05T16:16:51.000Z</Time>
            <Position>
              <LatitudeDegrees>44.286845130845904</LatitudeDegrees>
              <LongitudeDegrees>-81.60295223817229</LongitudeDegrees>
            </Position>
            <AltitudeMeters>169.8000030517578</AltitudeMeters>
            <DistanceMeters>1075.9000244140625</DistanceMeters>
            <Extensions>
              <ns3:TPX>
                <ns3:Speed>2.4820001125335693</ns3:Speed>
              </ns3:TPX>
            </Extensions>
          </Trackpoint>
          <Trackpoint>
            <Time>2025-08-05T16:16:59.000Z</Time>
            <Position>
              <LatitudeDegrees>44.28698116913438</LatitudeDegrees>
              <LongitudeDegrees>-81.60277898423374</LongitudeDegrees>
            </Position>
            <AltitudeMeters>170.1999969482422</AltitudeMeters>
            <DistanceMeters>1096.4000244140625</DistanceMeters>
            <Extensions>
              <ns3:TPX>
                <ns3:Speed>2.4820001125335693</ns3:Speed>
              </ns3:TPX>
            </Extensions>
          </Trackpoint>
          <Trackpoint>
            <Time>2025-08-05T16:17:08.000Z</Time>
            <Position>
              <LatitudeDegrees>44.28714947775006</LatitudeDegrees>
              <LongitudeDegrees>-81.60260765813291</LongitudeDegrees>
            </Position>
            <AltitudeMeters>170.1999969482422</AltitudeMeters>
            <DistanceMeters>1119.5799560546875</DistanceMeters>
            <Extensions>
              <ns3:TPX>
                <ns3:Speed>2.4820001125335693</ns3:Speed>
              </ns3:TPX>
            </Extensions>
          </Trackpoint>
          <Trackpoint>
            <Time>2025-08-05T16:17:16.000Z</Time>
            <Position>
              <LatitudeDegrees>44.287289790809155</LatitudeDegrees>
              <LongitudeDegrees>-81.60244228318334</LongitudeDegrees>
            </Position>
            <AltitudeMeters>170.60000610351562</AltitudeMeters>
            <DistanceMeters>1140.1300048828125</DistanceMeters>
            <Extensions>
              <ns3:TPX>
                <ns3:Speed>2.5380001068115234</ns3:Speed>
              </ns3:TPX>
            </Extensions>
          </Trackpoint>
          <Trackpoint>
            <Time>2025-08-05T16:17:27.000Z</Time>
            <Position>
              <LatitudeDegrees>44.28748006001115</LatitudeDegrees>
              <LongitudeDegrees>-81.60221848636866</LongitudeDegrees>
            </Position>
            <AltitudeMeters>170.8000030517578</AltitudeMeters>
            <DistanceMeters>1167.8599853515625</DistanceMeters>
            <Extensions>
              <ns3:TPX>
                <ns3:Speed>2.565999984741211</ns3:Speed>
              </ns3:TPX>
            </Extensions>
          </Trackpoint>
          <Trackpoint>
            <Time>2025-08-05T16:17:39.000Z</Time>
            <Position>
              <LatitudeDegrees>44.287700252607465</LatitudeDegrees>
              <LongitudeDegrees>-81.60198463127017</LongitudeDegrees>
            </Position>
            <AltitudeMeters>170.60000610351562</AltitudeMeters>
            <DistanceMeters>1198.6400146484375</DistanceMeters>
            <Extensions>
              <ns3:TPX>
                <ns3:Speed>2.61299991607666</ns3:Speed>
              </ns3:TPX>
            </Extensions>
          </Trackpoint>
          <Trackpoint>
            <Time>2025-08-05T16:17:46.000Z</Time>
            <Position>
              <LatitudeDegrees>44.28782011382282</LatitudeDegrees>
              <LongitudeDegrees>-81.60177315585315</LongitudeDegrees>
            </Position>
            <AltitudeMeters>170.8000030517578</AltitudeMeters>
            <DistanceMeters>1220.1800537109375</DistanceMeters>
            <Extensions>
              <ns3:TPX>
                <ns3:Speed>2.8929998874664307</ns3:Speed>
              </ns3:TPX>
            </Extensions>
          </Trackpoint>
          <Trackpoint>
            <Time>2025-08-05T16:17:54.000Z</Time>
            <Position>
              <LatitudeDegrees>44.28792463615537</LatitudeDegrees>
              <LongitudeDegrees>-81.60147501155734</LongitudeDegrees>
            </Position>
            <AltitudeMeters>171.39999389648438</AltitudeMeters>
            <DistanceMeters>1246.6700439453125</DistanceMeters>
            <Extensions>
              <ns3:TPX>
                <ns3:Speed>3.246999979019165</ns3:Speed>
              </ns3:TPX>
            </Extensions>
          </Trackpoint>
          <Trackpoint>
            <Time>2025-08-05T16:18:05.000Z</Time>
            <Position>
              <LatitudeDegrees>44.288103925064206</LatitudeDegrees>
              <LongitudeDegrees>-81.60108843818307</LongitudeDegrees>
            </Position>
            <AltitudeMeters>171.1999969482422</AltitudeMeters>
            <DistanceMeters>1283.6099853515625</DistanceMeters>
            <Extensions>
              <ns3:TPX>
                <ns3:Speed>2.7339999675750732</ns3:Speed>
              </ns3:TPX>
            </Extensions>
          </Trackpoint>
          <Trackpoint>
            <Time>2025-08-05T16:18:12.000Z</Time>
            <Position>
              <LatitudeDegrees>44.28821699693799</LatitudeDegrees>
              <LongitudeDegrees>-81.60094242542982</LongitudeDegrees>
            </Position>
            <AltitudeMeters>171.39999389648438</AltitudeMeters>
            <DistanceMeters>1300.7900390625</DistanceMeters>
            <Extensions>
              <ns3:TPX>
                <ns3:Speed>2.5190000534057617</ns3:Speed>
              </ns3:TPX>
            </Extensions>
          </Trackpoint>
          <Trackpoint>
            <Time>2025-08-05T16:18:14.000Z</Time>
            <Position>
              <LatitudeDegrees>44.288247507065535</LatitudeDegrees>
              <LongitudeDegrees>-81.60089339129627</LongitudeDegrees>
            </Position>
            <AltitudeMeters>171.60000610351562</AltitudeMeters>
            <DistanceMeters>1305.949951171875</DistanceMeters>
            <Extensions>
              <ns3:TPX>
                <ns3:Speed>2.509999990463257</ns3:Speed>
              </ns3:TPX>
            </Extensions>
          </Trackpoint>
          <Trackpoint>
            <Time>2025-08-05T16:18:18.000Z</Time>
            <Position>
              <LatitudeDegrees>44.28832252509892</LatitudeDegrees>
              <LongitudeDegrees>-81.60081636160612</LongitudeDegrees>
            </Position>
            <AltitudeMeters>172.1999969482422</AltitudeMeters>
            <DistanceMeters>1316.3499755859375</DistanceMeters>
            <Extensions>
              <ns3:TPX>
                <ns3:Speed>2.5190000534057617</ns3:Speed>
              </ns3:TPX>
            </Extensions>
          </Trackpoint>
          <Trackpoint>
            <Time>2025-08-05T16:18:30.000Z</Time>
            <Position>
              <LatitudeDegrees>44.28853961639106</LatitudeDegrees>
              <LongitudeDegrees>-81.60060337744653</LongitudeDegrees>
            </Position>
            <AltitudeMeters>172.1999969482422</AltitudeMeters>
            <DistanceMeters>1345.8599853515625</DistanceMeters>
            <Extensions>
              <ns3:TPX>
                <ns3:Speed>2.500999927520752</ns3:Speed>
              </ns3:TPX>
            </Extensions>
          </Trackpoint>
          <Trackpoint>
            <Time>2025-08-05T16:18:40.000Z</Time>
            <Position>
              <LatitudeDegrees>44.288726365193725</LatitudeDegrees>
              <LongitudeDegrees>-81.60039014182985</LongitudeDegrees>
            </Position>
            <AltitudeMeters>171.60000610351562</AltitudeMeters>
            <DistanceMeters>1372.760009765625</DistanceMeters>
            <Extensions>
              <ns3:TPX>
                <ns3:Speed>2.5940001010894775</ns3:Speed>
              </ns3:TPX>
            </Extensions>
          </Trackpoint>
          <Trackpoint>
            <Time>2025-08-05T16:18:48.000Z</Time>
            <Position>
              <LatitudeDegrees>44.28885460831225</LatitudeDegrees>
              <LongitudeDegrees>-81.60017615184188</LongitudeDegrees>
            </Position>
            <AltitudeMeters>171.60000610351562</AltitudeMeters>
            <DistanceMeters>1395.199951171875</DistanceMeters>
            <Extensions>
              <ns3:TPX>
                <ns3:Speed>2.7990000247955322</ns3:Speed>
              </ns3:TPX>
            </Extensions>
          </Trackpoint>
          <Trackpoint>
            <Time>2025-08-05T16:18:55.000Z</Time>
            <Position>
              <LatitudeDegrees>44.288881262764335</LatitudeDegrees>
              <LongitudeDegrees>-81.599898962304</LongitudeDegrees>
            </Position>
            <AltitudeMeters>172.1999969482422</AltitudeMeters>
            <DistanceMeters>1417.6500244140625</DistanceMeters>
            <Extensions>
              <ns3:TPX>
                <ns3:Speed>3.0880000591278076</ns3:Speed>
              </ns3:TPX>
            </Extensions>
          </Trackpoint>
          <Trackpoint>
            <Time>2025-08-05T16:19:09.000Z</Time>
            <Position>
              <LatitudeDegrees>44.288913533091545</LatitudeDegrees>
              <LongitudeDegrees>-81.59939906559885</LongitudeDegrees>
            </Position>
            <AltitudeMeters>172.39999389648438</AltitudeMeters>
            <DistanceMeters>1457.72998046875</DistanceMeters>
            <Extensions>
              <ns3:TPX>
                <ns3:Speed>2.7339999675750732</ns3:Speed>
              </ns3:TPX>
            </Extensions>
          </Trackpoint>
          <Trackpoint>
            <Time>2025-08-05T16:19:11.000Z</Time>
            <Position>
              <LatitudeDegrees>44.288920406252146</LatitudeDegrees>
              <LongitudeDegrees>-81.59933435730636</LongitudeDegrees>
            </Position>
            <AltitudeMeters>172.60000610351562</AltitudeMeters>
            <DistanceMeters>1462.949951171875</DistanceMeters>
            <Extensions>
              <ns3:TPX>
                <ns3:Speed>2.6410000324249268</ns3:Speed>
              </ns3:TPX>
            </Extensions>
          </Trackpoint>
          <Trackpoint>
            <Time>2025-08-05T16:19:19.000Z</Time>
            <Position>
              <LatitudeDegrees>44.2889451328665</LatitudeDegrees>
              <LongitudeDegrees>-81.59907778725028</LongitudeDegrees>
            </Position>
            <AltitudeMeters>172.39999389648438</AltitudeMeters>
            <DistanceMeters>1483.6500244140625</DistanceMeters>
            <Extensions>
              <ns3:TPX>
                <ns3:Speed>2.5190000534057617</ns3:Speed>
              </ns3:TPX>
            </Extensions>
          </Trackpoint>
          <Trackpoint>
            <Time>2025-08-05T16:19:32.000Z</Time>
            <Position>
              <LatitudeDegrees>44.28900011815131</LatitudeDegrees>
              <LongitudeDegrees>-81.59868467599154</LongitudeDegrees>
            </Position>
            <AltitudeMeters>172.8000030517578</AltitudeMeters>
            <DistanceMeters>1515.5999755859375</DistanceMeters>
            <Extensions>
              <ns3:TPX>
                <ns3:Speed>2.61299991607666</ns3:Speed>
              </ns3:TPX>
            </Extensions>
          </Trackpoint>
          <Trackpoint>
            <Time>2025-08-05T16:19:45.000Z</Time>
            <Position>
              <LatitudeDegrees>44.289047392085195</LatitudeDegrees>
              <LongitudeDegrees>-81.59827496856451</LongitudeDegrees>
            </Position>
            <AltitudeMeters>172.60000610351562</AltitudeMeters>
            <DistanceMeters>1548.72998046875</DistanceMeters>
            <Extensions>
              <ns3:TPX>
                <ns3:Speed>2.546999931335449</ns3:Speed>
              </ns3:TPX>
            </Extensions>
          </Trackpoint>
          <Trackpoint>
            <Time>2025-08-05T16:19:57.000Z</Time>
            <Position>
              <LatitudeDegrees>44.28906851448119</LatitudeDegrees>
              <LongitudeDegrees>-81.5979059971869</LongitudeDegrees>
            </Position>
            <AltitudeMeters>172.8000030517578</AltitudeMeters>
            <DistanceMeters>1578.280029296875</DistanceMeters>
            <Extensions>
              <ns3:TPX>
                <ns3:Speed>2.4630000591278076</ns3:Speed>
              </ns3:TPX>
            </Extensions>
          </Trackpoint>
          <Trackpoint>
            <Time>2025-08-05T16:19:58.000Z</Time>
            <Position>
              <LatitudeDegrees>44.28906851448119</LatitudeDegrees>
              <LongitudeDegrees>-81.59787791781127</LongitudeDegrees>
            </Position>
            <AltitudeMeters>172.8000030517578</AltitudeMeters>
            <DistanceMeters>1578.280029296875</DistanceMeters>
            <Extensions>
              <ns3:TPX>
                <ns3:Speed>2.4260001182556152</ns3:Speed>
              </ns3:TPX>
            </Extensions>
          </Trackpoint>
          <Trackpoint>
            <Time>2025-08-05T16:20:08.000Z</Time>
            <Position>
              <LatitudeDegrees>44.28905510343611</LatitudeDegrees>
              <LongitudeDegrees>-81.59759745933115</LongitudeDegrees>
            </Position>
            <AltitudeMeters>172.8000030517578</AltitudeMeters>
            <DistanceMeters>1600.8599853515625</DistanceMeters>
            <Extensions>
              <ns3:TPX>
                <ns3:Speed>2.2209999561309814</ns3:Speed>
              </ns3:TPX>
            </Extensions>
          </Trackpoint>
          <Trackpoint>
            <Time>2025-08-05T16:20:23.000Z</Time>
            <Position>
              <LatitudeDegrees>44.28900254890323</LatitudeDegrees>
              <LongitudeDegrees>-81.59722077660263</LongitudeDegrees>
            </Position>
            <AltitudeMeters>172.8000030517578</AltitudeMeters>
            <DistanceMeters>1631.510009765625</DistanceMeters>
            <Extensions>
              <ns3:TPX>
                <ns3:Speed>2.015000104904175</ns3:Speed>
              </ns3:TPX>
            </Extensions>
          </Trackpoint>
          <Trackpoint>
            <Time>2025-08-05T16:20:34.000Z</Time>
            <Position>
              <LatitudeDegrees>44.28897983394563</LatitudeDegrees>
              <LongitudeDegrees>-81.59697216935456</LongitudeDegrees>
            </Position>
            <AltitudeMeters>172.39999389648438</AltitudeMeters>
            <DistanceMeters>1651.93994140625</DistanceMeters>
            <Extensions>
              <ns3:TPX>
                <ns3:Speed>1.9220000505447388</ns3:Speed>
              </ns3:TPX>
            </Extensions>
          </Trackpoint>
          <Trackpoint>
            <Time>2025-08-05T16:20:43.000Z</Time>
            <Position>
              <LatitudeDegrees>44.28900087252259</LatitudeDegrees>
              <LongitudeDegrees>-81.59670646302402</LongitudeDegrees>
            </Position>
            <AltitudeMeters>172.39999389648438</AltitudeMeters>
            <DistanceMeters>1673.27001953125</DistanceMeters>
            <Extensions>
              <ns3:TPX>
                <ns3:Speed>2.3610000610351562</ns3:Speed>
              </ns3:TPX>
            </Extensions>
          </Trackpoint>
          <Trackpoint>
            <Time>2025-08-05T16:20:54.000Z</Time>
            <Position>
              <LatitudeDegrees>44.28902702406049</LatitudeDegrees>
              <LongitudeDegrees>-81.59639884717762</LongitudeDegrees>
            </Position>
            <AltitudeMeters>172.39999389648438</AltitudeMeters>
            <DistanceMeters>1698.0</DistanceMeters>
            <Extensions>
              <ns3:TPX>
                <ns3:Speed>2.239000082015991</ns3:Speed>
              </ns3:TPX>
            </Extensions>
          </Trackpoint>
          <Trackpoint>
            <Time>2025-08-05T16:21:06.000Z</Time>
            <Position>
              <LatitudeDegrees>44.289057618007064</LatitudeDegrees>
              <LongitudeDegrees>-81.5960872080177</LongitudeDegrees>
            </Position>
            <AltitudeMeters>172.60000610351562</AltitudeMeters>
            <DistanceMeters>1723.1700439453125</DistanceMeters>
            <Extensions>
              <ns3:TPX>
                <ns3:Speed>2.0989999771118164</ns3:Speed>
              </ns3:TPX>
            </Extensions>
          </Trackpoint>
          <Trackpoint>
            <Time>2025-08-05T16:21:17.000Z</Time>
            <Position>
              <LatitudeDegrees>44.28908511064947</LatitudeDegrees>
              <LongitudeDegrees>-81.59581119194627</LongitudeDegrees>
            </Position>
            <AltitudeMeters>172.1999969482422</AltitudeMeters>
            <DistanceMeters>1745.4300537109375</DistanceMeters>
            <Extensions>
              <ns3:TPX>
                <ns3:Speed>1.996999979019165</ns3:Speed>
              </ns3:TPX>
            </Extensions>
          </Trackpoint>
          <Trackpoint>
            <Time>2025-08-05T16:21:32.000Z</Time>
            <Position>
              <LatitudeDegrees>44.28912735544145</LatitudeDegrees>
              <LongitudeDegrees>-81.59542512148619</LongitudeDegrees>
            </Position>
            <AltitudeMeters>172.60000610351562</AltitudeMeters>
            <DistanceMeters>1776.5799560546875</DistanceMeters>
            <Extensions>
              <ns3:TPX>
                <ns3:Speed>2.1089999675750732</ns3:Speed>
              </ns3:TPX>
            </Extensions>
          </Trackpoint>
          <Trackpoint>
            <Time>2025-08-05T16:21:42.000Z</Time>
            <Position>
              <LatitudeDegrees>44.28913665935397</LatitudeDegrees>
              <LongitudeDegrees>-81.59512697719038</LongitudeDegrees>
            </Position>
            <AltitudeMeters>172.39999389648438</AltitudeMeters>
            <DistanceMeters>1800.469970703125</DistanceMeters>
            <Extensions>
              <ns3:TPX>
                <ns3:Speed>2.4539999961853027</ns3:Speed>
              </ns3:TPX>
            </Extensions>
          </Trackpoint>
          <Trackpoint>
            <Time>2025-08-05T16:21:53.000Z</Time>
            <Position>
              <LatitudeDegrees>44.28915727883577</LatitudeDegrees>
              <LongitudeDegrees>-81.59482908435166</LongitudeDegrees>
            </Position>
            <AltitudeMeters>172.60000610351562</AltitudeMeters>
            <DistanceMeters>1824.3599853515625</DistanceMeters>
            <Extensions>
              <ns3:TPX>
                <ns3:Speed>2.183000087738037</ns3:Speed>
              </ns3:TPX>
            </Extensions>
          </Trackpoint>
          <Trackpoint>
            <Time>2025-08-05T16:22:07.000Z</Time>
            <Position>
              <LatitudeDegrees>44.28918267600238</LatitudeDegrees>
              <LongitudeDegrees>-81.59448768943548</LongitudeDegrees>
            </Position>
            <AltitudeMeters>172.60000610351562</AltitudeMeters>
            <DistanceMeters>1851.800048828125</DistanceMeters>
            <Extensions>
              <ns3:TPX>
                <ns3:Speed>1.8849999904632568</ns3:Speed>
              </ns3:TPX>
            </Extensions>
          </Trackpoint>
          <Trackpoint>
            <Time>2025-08-05T16:22:13.000Z</Time>
            <Position>
              <LatitudeDegrees>44.28919482976198</LatitudeDegrees>
              <LongitudeDegrees>-81.59438350237906</LongitudeDegrees>
            </Position>
            <AltitudeMeters>172.60000610351562</AltitudeMeters>
            <DistanceMeters>1860.239990234375</DistanceMeters>
            <Extensions>
              <ns3:TPX>
                <ns3:Speed>1.5490000247955322</ns3:Speed>
              </ns3:TPX>
            </Extensions>
          </Trackpoint>
          <Trackpoint>
            <Time>2025-08-05T16:22:24.000Z</Time>
            <Position>
              <LatitudeDegrees>44.2892231605947</LatitudeDegrees>
              <LongitudeDegrees>-81.59423539415002</LongitudeDegrees>
            </Position>
            <AltitudeMeters>172.60000610351562</AltitudeMeters>
            <DistanceMeters>1872.4599609375</DistanceMeters>
            <Extensions>
              <ns3:TPX>
                <ns3:Speed>1.1100000143051147</ns3:Speed>
              </ns3:TPX>
            </Extensions>
          </Trackpoint>
          <Trackpoint>
            <Time>2025-08-05T16:22:32.000Z</Time>
            <Position>
              <LatitudeDegrees>44.28923388943076</LatitudeDegrees>
              <LongitudeDegrees>-81.59415383823216</LongitudeDegrees>
            </Position>
            <AltitudeMeters>172.39999389648438</AltitudeMeters>
            <DistanceMeters>1879.2900390625</DistanceMeters>
            <Extensions>
              <ns3:TPX>
                <ns3:Speed>0.9610000252723694</ns3:Speed>
              </ns3:TPX>
            </Extensions>
          </Trackpoint>
          <Trackpoint>
            <Time>2025-08-05T16:22:45.000Z</Time>
            <Position>
              <LatitudeDegrees>44.289247216656804</LatitudeDegrees>
              <LongitudeDegrees>-81.59404261037707</LongitudeDegrees>
            </Position>
            <AltitudeMeters>172.1999969482422</AltitudeMeters>
            <DistanceMeters>1888.4000244140625</DistanceMeters>
            <Extensions>
              <ns3:TPX>
                <ns3:Speed>0.7089999914169312</ns3:Speed>
              </ns3:TPX>
            </Extensions>
          </Trackpoint>
          <Trackpoint>
            <Time>2025-08-05T16:22:51.000Z</Time>
            <Position>
              <LatitudeDegrees>44.28925693966448</LatitudeDegrees>
              <LongitudeDegrees>-81.59401956014335</LongitudeDegrees>
            </Position>
            <AltitudeMeters>172.1999969482422</AltitudeMeters>
            <DistanceMeters>1890.949951171875</DistanceMeters>
            <Extensions>
              <ns3:TPX>
                <ns3:Speed>0.5789999961853027</ns3:Speed>
              </ns3:TPX>
            </Extensions>
          </Trackpoint>
          <Trackpoint>
            <Time>2025-08-05T16:23:02.000Z</Time>
            <Position>
              <LatitudeDegrees>44.2892527487129</LatitudeDegrees>
              <LongitudeDegrees>-81.59393322654068</LongitudeDegrees>
            </Position>
            <AltitudeMeters>172.1999969482422</AltitudeMeters>
            <DistanceMeters>1898.010009765625</DistanceMeters>
            <Extensions>
              <ns3:TPX>
                <ns3:Speed>0.5690000057220459</ns3:Speed>
              </ns3:TPX>
            </Extensions>
          </Trackpoint>
          <Trackpoint>
            <Time>2025-08-05T16:23:13.000Z</Time>
            <Position>
              <LatitudeDegrees>44.289253083989024</LatitudeDegrees>
              <LongitudeDegrees>-81.59386198036373</LongitudeDegrees>
            </Position>
            <AltitudeMeters>172.39999389648438</AltitudeMeters>
            <DistanceMeters>1903.72998046875</DistanceMeters>
            <Extensions>
              <ns3:TPX>
                <ns3:Speed>0.5879999995231628</ns3:Speed>
              </ns3:TPX>
            </Extensions>
          </Trackpoint>
          <Trackpoint>
            <Time>2025-08-05T16:23:31.000Z</Time>
            <Position>
              <LatitudeDegrees>44.289251156151295</LatitudeDegrees>
              <LongitudeDegrees>-81.59373021684587</LongitudeDegrees>
            </Position>
            <AltitudeMeters>172.39999389648438</AltitudeMeters>
            <DistanceMeters>1914.27001953125</DistanceMeters>
            <Extensions>
              <ns3:TPX>
                <ns3:Speed>0.597000002861023</ns3:Speed>
              </ns3:TPX>
            </Extensions>
          </Trackpoint>
          <Trackpoint>
            <Time>2025-08-05T16:23:41.000Z</Time>
            <Position>
              <LatitudeDegrees>44.28924688138068</LatitudeDegrees>
              <LongitudeDegrees>-81.59363994374871</LongitudeDegrees>
            </Position>
            <AltitudeMeters>172.0</AltitudeMeters>
            <DistanceMeters>1921.449951171875</DistanceMeters>
            <Extensions>
              <ns3:TPX>
                <ns3:Speed>0.7369999885559082</ns3:Speed>
              </ns3:TPX>
            </Extensions>
          </Trackpoint>
          <Trackpoint>
            <Time>2025-08-05T16:23:46.000Z</Time>
            <Position>
              <LatitudeDegrees>44.289246713742614</LatitudeDegrees>
              <LongitudeDegrees>-81.59358210861683</LongitudeDegrees>
            </Position>
            <AltitudeMeters>172.1999969482422</AltitudeMeters>
            <DistanceMeters>1926.0699462890625</DistanceMeters>
            <Extensions>
              <ns3:TPX>
                <ns3:Speed>0.9049999713897705</ns3:Speed>
              </ns3:TPX>
            </Extensions>
          </Trackpoint>
          <Trackpoint>
            <Time>2025-08-05T16:23:56.000Z</Time>
            <Position>
              <LatitudeDegrees>44.28924763575196</LatitudeDegrees>
              <LongitudeDegrees>-81.59346266649663</LongitudeDegrees>
            </Position>
            <AltitudeMeters>172.1999969482422</AltitudeMeters>
            <DistanceMeters>1935.6099853515625</DistanceMeters>
            <Extensions>
              <ns3:TPX>
                <ns3:Speed>0.9240000247955322</ns3:Speed>
              </ns3:TPX>
            </Extensions>
          </Trackpoint>
          <Trackpoint>
            <Time>2025-08-05T16:24:13.000Z</Time>
            <Position>
              <LatitudeDegrees>44.2892440315336</LatitudeDegrees>
              <LongitudeDegrees>-81.59327692352235</LongitudeDegrees>
            </Position>
            <AltitudeMeters>172.1999969482422</AltitudeMeters>
            <DistanceMeters>1950.4599609375</DistanceMeters>
            <Extensions>
              <ns3:TPX>
                <ns3:Speed>0.8579999804496765</ns3:Speed>
              </ns3:TPX>
            </Extensions>
          </Trackpoint>
          <Trackpoint>
            <Time>2025-08-05T16:24:32.000Z</Time>
            <Position>
              <LatitudeDegrees>44.28923489525914</LatitudeDegrees>
              <LongitudeDegrees>-81.59309637732804</LongitudeDegrees>
            </Position>
            <AltitudeMeters>172.1999969482422</AltitudeMeters>
            <DistanceMeters>1964.9200439453125</DistanceMeters>
            <Extensions>
              <ns3:TPX>
                <ns3:Speed>0.699999988079071</ns3:Speed>
              </ns3:TPX>
            </Extensions>
          </Trackpoint>
          <Trackpoint>
            <Time>2025-08-05T16:24:47.000Z</Time>
            <Position>
              <LatitudeDegrees>44.289230704307556</LatitudeDegrees>
              <LongitudeDegrees>-81.59297986887395</LongitudeDegrees>
            </Position>
            <AltitudeMeters>172.1999969482422</AltitudeMeters>
            <DistanceMeters>1974.22998046875</DistanceMeters>
            <Extensions>
              <ns3:TPX>
                <ns3:Speed>0.6060000061988831</ns3:Speed>
              </ns3:TPX>
            </Extensions>
          </Trackpoint>
          <Trackpoint>
            <Time>2025-08-05T16:25:03.000Z</Time>
            <Position>
              <LatitudeDegrees>44.28920899517834</LatitudeDegrees>
              <LongitudeDegrees>-81.59285883419216</LongitudeDegrees>
            </Position>
            <AltitudeMeters>172.0</AltitudeMeters>
            <DistanceMeters>1984.219970703125</DistanceMeters>
            <Extensions>
              <ns3:TPX>
                <ns3:Speed>0.6340000033378601</ns3:Speed>
              </ns3:TPX>
            </Extensions>
          </Trackpoint>
          <Trackpoint>
            <Time>2025-08-05T16:25:18.000Z</Time>
            <Position>
              <LatitudeDegrees>44.289200361818075</LatitudeDegrees>
              <LongitudeDegrees>-81.59271256998181</LongitudeDegrees>
            </Position>
            <AltitudeMeters>172.0</AltitudeMeters>
            <DistanceMeters>1995.9100341796875</DistanceMeters>
            <Extensions>
              <ns3:TPX>
                <ns3:Speed>0.8679999709129333</ns3:Speed>
              </ns3:TPX>
            </Extensions>
          </Trackpoint>
          <Trackpoint>
            <Time>2025-08-05T16:25:20.000Z</Time>
            <Position>
              <LatitudeDegrees>44.28919994272292</LatitudeDegrees>
              <LongitudeDegrees>-81.59268608316779</LongitudeDegrees>
            </Position>
            <AltitudeMeters>172.0</AltitudeMeters>
            <DistanceMeters>1998.02001953125</DistanceMeters>
            <Extensions>
              <ns3:TPX>
                <ns3:Speed>1.1200000047683716</ns3:Speed>
              </ns3:TPX>
            </Extensions>
          </Trackpoint>
          <Trackpoint>
            <Time>2025-08-05T16:25:28.000Z</Time>
            <Position>
              <LatitudeDegrees>44.28919868543744</LatitudeDegrees>
              <LongitudeDegrees>-81.59257871098816</LongitudeDegrees>
            </Position>
            <AltitudeMeters>172.0</AltitudeMeters>
            <DistanceMeters>2006.5799560546875</DistanceMeters>
            <Extensions>
              <ns3:TPX>
                <ns3:Speed>1.1380000114440918</ns3:Speed>
              </ns3:TPX>
            </Extensions>
          </Trackpoint>
          <Trackpoint>
            <Time>2025-08-05T16:25:40.000Z</Time>
            <Position>
              <LatitudeDegrees>44.28918049670756</LatitudeDegrees>
              <LongitudeDegrees>-81.59241291694343</LongitudeDegrees>
            </Position>
            <AltitudeMeters>172.0</AltitudeMeters>
            <DistanceMeters>2019.93994140625</DistanceMeters>
            <Extensions>
              <ns3:TPX>
                <ns3:Speed>1.2410000562667847</ns3:Speed>
              </ns3:TPX>
            </Extensions>
          </Trackpoint>
          <Trackpoint>
            <Time>2025-08-05T16:25:56.000Z</Time>
            <Position>
              <LatitudeDegrees>44.28915116004646</LatitudeDegrees>
              <LongitudeDegrees>-81.5921213105321</LongitudeDegrees>
            </Position>
            <AltitudeMeters>172.1999969482422</AltitudeMeters>
            <DistanceMeters>2043.4300537109375</DistanceMeters>
            <Extensions>
              <ns3:TPX>
                <ns3:Speed>1.465000033378601</ns3:Speed>
              </ns3:TPX>
            </Extensions>
          </Trackpoint>
          <Trackpoint>
            <Time>2025-08-05T16:26:11.000Z</Time>
            <Position>
              <LatitudeDegrees>44.28910790942609</LatitudeDegrees>
              <LongitudeDegrees>-81.59181260503829</LongitudeDegrees>
            </Position>
            <AltitudeMeters>171.8000030517578</AltitudeMeters>
            <DistanceMeters>2068.580078125</DistanceMeters>
            <Extensions>
              <ns3:TPX>
                <ns3:Speed>1.7359999418258667</ns3:Speed>
              </ns3:TPX>
            </Extensions>
          </Trackpoint>
          <Trackpoint>
            <Time>2025-08-05T16:26:21.000Z</Time>
            <Position>
              <LatitudeDegrees>44.28910338319838</LatitudeDegrees>
              <LongitudeDegrees>-81.59169735386968</LongitudeDegrees>
            </Position>
            <AltitudeMeters>172.0</AltitudeMeters>
            <DistanceMeters>2077.929931640625</DistanceMeters>
            <Extensions>
              <ns3:TPX>
                <ns3:Speed>0.6159999966621399</ns3:Speed>
              </ns3:TPX>
            </Extensions>
          </Trackpoint>
          <Trackpoint>
            <Time>2025-08-05T16:26:26.000Z</Time>
            <Position>
              <LatitudeDegrees>44.28910338319838</LatitudeDegrees>
              <LongitudeDegrees>-81.59168989397585</LongitudeDegrees>
            </Position>
            <AltitudeMeters>172.0</AltitudeMeters>
            <DistanceMeters>2078.8701171875</DistanceMeters>
            <Extensions>
              <ns3:TPX>
                <ns3:Speed>0.0</ns3:Speed>
              </ns3:TPX>
            </Extensions>
          </Trackpoint>
          <Trackpoint>
            <Time>2025-08-05T16:26:35.000Z</Time>
            <Position>
              <LatitudeDegrees>44.289110423997045</LatitudeDegrees>
              <LongitudeDegrees>-81.59163935109973</LongitudeDegrees>
            </Position>
            <AltitudeMeters>172.60000610351562</AltitudeMeters>
            <DistanceMeters>2083.219970703125</DistanceMeters>
            <Extensions>
              <ns3:TPX>
                <ns3:Speed>0.0</ns3:Speed>
              </ns3:TPX>
            </Extensions>
          </Trackpoint>
          <Trackpoint>
            <Time>2025-08-05T16:26:45.000Z</Time>
            <Position>
              <LatitudeDegrees>44.28911260329187</LatitudeDegrees>
              <LongitudeDegrees>-81.5916358307004</LongitudeDegrees>
            </Position>
            <AltitudeMeters>172.8000030517578</AltitudeMeters>
            <DistanceMeters>2083.840087890625</DistanceMeters>
            <Extensions>
              <ns3:TPX>
                <ns3:Speed>0.0</ns3:Speed>
              </ns3:TPX>
            </Extensions>
          </Trackpoint>
          <Trackpoint>
            <Time>2025-08-05T16:28:10.000Z</Time>
            <Position>
              <LatitudeDegrees>44.28909198381007</LatitudeDegrees>
              <LongitudeDegrees>-81.59162560477853</LongitudeDegrees>
            </Position>
            <AltitudeMeters>172.39999389648438</AltitudeMeters>
            <DistanceMeters>2086.199951171875</DistanceMeters>
            <Extensions>
              <ns3:TPX>
                <ns3:Speed>1.3339999914169312</ns3:Speed>
              </ns3:TPX>
            </Extensions>
          </Trackpoint>
          <Trackpoint>
            <Time>2025-08-05T16:28:13.000Z</Time>
            <Position>
              <LatitudeDegrees>44.289081171154976</LatitudeDegrees>
              <LongitudeDegrees>-81.59157087095082</LongitudeDegrees>
            </Position>
            <AltitudeMeters>172.39999389648438</AltitudeMeters>
            <DistanceMeters>2090.68994140625</DistanceMeters>
            <Extensions>
              <ns3:TPX>
                <ns3:Speed>1.1380000114440918</ns3:Speed>
              </ns3:TPX>
            </Extensions>
          </Trackpoint>
          <Trackpoint>
            <Time>2025-08-05T16:28:15.000Z</Time>
            <Position>
              <LatitudeDegrees>44.28908418864012</LatitudeDegrees>
              <LongitudeDegrees>-81.59153340384364</LongitudeDegrees>
            </Position>
            <AltitudeMeters>172.60000610351562</AltitudeMeters>
            <DistanceMeters>2093.64990234375</DistanceMeters>
            <Extensions>
              <ns3:TPX>
                <ns3:Speed>1.1380000114440918</ns3:Speed>
              </ns3:TPX>
            </Extensions>
          </Trackpoint>
          <Trackpoint>
            <Time>2025-08-05T16:28:18.000Z</Time>
            <Position>
              <LatitudeDegrees>44.28908091969788</LatitudeDegrees>
              <LongitudeDegrees>-81.5914661809802</LongitudeDegrees>
            </Position>
            <AltitudeMeters>172.8000030517578</AltitudeMeters>
            <DistanceMeters>2099.010009765625</DistanceMeters>
            <Extensions>
              <ns3:TPX>
                <ns3:Speed>1.2599999904632568</ns3:Speed>
              </ns3:TPX>
            </Extensions>
          </Trackpoint>
          <Trackpoint>
            <Time>2025-08-05T16:28:26.000Z</Time>
            <Position>
              <LatitudeDegrees>44.28907262161374</LatitudeDegrees>
              <LongitudeDegrees>-81.59135520458221</LongitudeDegrees>
            </Position>
            <AltitudeMeters>173.1999969482422</AltitudeMeters>
            <DistanceMeters>2107.919921875</DistanceMeters>
            <Extensions>
              <ns3:TPX>
                <ns3:Speed>1.2039999961853027</ns3:Speed>
              </ns3:TPX>
            </Extensions>
          </Trackpoint>
          <Trackpoint>
            <Time>2025-08-05T16:28:31.000Z</Time>
            <Position>
              <LatitudeDegrees>44.28905451670289</LatitudeDegrees>
              <LongitudeDegrees>-81.59136509522796</LongitudeDegrees>
            </Position>
            <AltitudeMeters>173.60000610351562</AltitudeMeters>
            <DistanceMeters>2111.43994140625</DistanceMeters>
            <Extensions>
              <ns3:TPX>
                <ns3:Speed>0.5789999961853027</ns3:Speed>
              </ns3:TPX>
            </Extensions>
          </Trackpoint>
          <Trackpoint>
            <Time>2025-08-05T16:28:32.000Z</Time>
            <Position>
              <LatitudeDegrees>44.28905292414129</LatitudeDegrees>
              <LongitudeDegrees>-81.59137020818889</LongitudeDegrees>
            </Position>
            <AltitudeMeters>173.8000030517578</AltitudeMeters>
            <DistanceMeters>2111.8798828125</DistanceMeters>
            <Extensions>
              <ns3:TPX>
                <ns3:Speed>0.5789999961853027</ns3:Speed>
              </ns3:TPX>
            </Extensions>
          </Trackpoint>
          <Trackpoint>
            <Time>2025-08-05T16:28:40.000Z</Time>
            <Position>
              <LatitudeDegrees>44.289057618007064</LatitudeDegrees>
              <LongitudeDegrees>-81.59141337499022</LongitudeDegrees>
            </Position>
            <AltitudeMeters>173.8000030517578</AltitudeMeters>
            <DistanceMeters>2115.6298828125</DistanceMeters>
            <Extensions>
              <ns3:TPX>
                <ns3:Speed>1.1759999990463257</ns3:Speed>
              </ns3:TPX>
            </Extensions>
          </Trackpoint>
          <Trackpoint>
            <Time>2025-08-05T16:28:47.000Z</Time>
            <Position>
              <LatitudeDegrees>44.28906809538603</LatitudeDegrees>
              <LongitudeDegrees>-81.59151462838054</LongitudeDegrees>
            </Position>
            <AltitudeMeters>173.1999969482422</AltitudeMeters>
            <DistanceMeters>2123.8701171875</DistanceMeters>
            <Extensions>
              <ns3:TPX>
                <ns3:Speed>1.156999945640564</ns3:Speed>
              </ns3:TPX>
            </Extensions>
          </Trackpoint>
          <Trackpoint>
            <Time>2025-08-05T16:28:49.000Z</Time>
            <Position>
              <LatitudeDegrees>44.289067424833775</LatitudeDegrees>
              <LongitudeDegrees>-81.59154262393713</LongitudeDegrees>
            </Position>
            <AltitudeMeters>173.1999969482422</AltitudeMeters>
            <DistanceMeters>2126.090087890625</DistanceMeters>
            <Extensions>
              <ns3:TPX>
                <ns3:Speed>1.156999945640564</ns3:Speed>
              </ns3:TPX>
            </Extensions>
          </Trackpoint>
          <Trackpoint>
            <Time>2025-08-05T16:28:54.000Z</Time>
            <Position>
              <LatitudeDegrees>44.289053762331605</LatitudeDegrees>
              <LongitudeDegrees>-81.59159475937486</LongitudeDegrees>
            </Position>
            <AltitudeMeters>172.8000030517578</AltitudeMeters>
            <DistanceMeters>2130.6201171875</DistanceMeters>
            <Extensions>
              <ns3:TPX>
                <ns3:Speed>1.0820000171661377</ns3:Speed>
              </ns3:TPX>
            </Extensions>
          </Trackpoint>
          <Trackpoint>
            <Time>2025-08-05T16:28:57.000Z</Time>
            <Position>
              <LatitudeDegrees>44.28905024193227</LatitudeDegrees>
              <LongitudeDegrees>-81.59162292256951</LongitudeDegrees>
            </Position>
            <AltitudeMeters>172.60000610351562</AltitudeMeters>
            <DistanceMeters>2132.860107421875</DistanceMeters>
            <Extensions>
              <ns3:TPX>
                <ns3:Speed>0.5690000057220459</ns3:Speed>
              </ns3:TPX>
            </Extensions>
          </Trackpoint>
          <Trackpoint>
            <Time>2025-08-05T16:29:01.000Z</Time>
            <Position>
              <LatitudeDegrees>44.289032807573676</LatitudeDegrees>
              <LongitudeDegrees>-81.59159869886935</LongitudeDegrees>
            </Position>
            <AltitudeMeters>172.0</AltitudeMeters>
            <DistanceMeters>2135.06005859375</DistanceMeters>
            <Extensions>
              <ns3:TPX>
                <ns3:Speed>1.1380000114440918</ns3:Speed>
              </ns3:TPX>
            </Extensions>
          </Trackpoint>
          <Trackpoint>
            <Time>2025-08-05T16:29:05.000Z</Time>
            <Position>
              <LatitudeDegrees>44.28903448395431</LatitudeDegrees>
              <LongitudeDegrees>-81.59158528782427</LongitudeDegrees>
            </Position>
            <AltitudeMeters>172.0</AltitudeMeters>
            <DistanceMeters>2136.2099609375</DistanceMeters>
            <Extensions>
              <ns3:TPX>
                <ns3:Speed>0.0</ns3:Speed>
              </ns3:TPX>
            </Extensions>
          </Trackpoint>
          <Trackpoint>
            <Time>2025-08-05T16:29:11.000Z</Time>
            <Position>
              <LatitudeDegrees>44.28901294246316</LatitudeDegrees>
              <LongitudeDegrees>-81.5915663447231</LongitudeDegrees>
            </Position>
            <AltitudeMeters>172.39999389648438</AltitudeMeters>
            <DistanceMeters>2139.260009765625</DistanceMeters>
            <Extensions>
              <ns3:TPX>
                <ns3:Speed>0.0</ns3:Speed>
              </ns3:TPX>
            </Extensions>
          </Trackpoint>
          <Trackpoint>
            <Time>2025-08-05T16:29:14.000Z</Time>
            <Position>
              <LatitudeDegrees>44.28902409039438</LatitudeDegrees>
              <LongitudeDegrees>-81.59160062670708</LongitudeDegrees>
            </Position>
            <AltitudeMeters>172.39999389648438</AltitudeMeters>
            <DistanceMeters>2142.1298828125</DistanceMeters>
            <Extensions>
              <ns3:TPX>
                <ns3:Speed>0.8960000276565552</ns3:Speed>
              </ns3:TPX>
            </Extensions>
          </Trackpoint>
          <Trackpoint>
            <Time>2025-08-05T16:29:18.000Z</Time>
            <Position>
              <LatitudeDegrees>44.289026940241456</LatitudeDegrees>
              <LongitudeDegrees>-81.59161948598921</LongitudeDegrees>
            </Position>
            <AltitudeMeters>172.39999389648438</AltitudeMeters>
            <DistanceMeters>2143.659912109375</DistanceMeters>
            <Extensions>
              <ns3:TPX>
                <ns3:Speed>0.0</ns3:Speed>
              </ns3:TPX>
            </Extensions>
          </Trackpoint>
          <Trackpoint>
            <Time>2025-08-05T16:29:22.000Z</Time>
            <Position>
              <LatitudeDegrees>44.289026940241456</LatitudeDegrees>
              <LongitudeDegrees>-81.59161588177085</LongitudeDegrees>
            </Position>
            <AltitudeMeters>172.1999969482422</AltitudeMeters>
            <DistanceMeters>2144.56005859375</DistanceMeters>
            <Extensions>
              <ns3:TPX>
                <ns3:Speed>0.4569999873638153</ns3:Speed>
              </ns3:TPX>
            </Extensions>
          </Trackpoint>
          <Trackpoint>
            <Time>2025-08-05T16:29:34.000Z</Time>
            <Position>
              <LatitudeDegrees>44.28902576677501</LatitudeDegrees>
              <LongitudeDegrees>-81.5916170552373</LongitudeDegrees>
            </Position>
            <AltitudeMeters>172.60000610351562</AltitudeMeters>
            <DistanceMeters>2144.719970703125</DistanceMeters>
            <Extensions>
              <ns3:TPX>
                <ns3:Speed>0.0</ns3:Speed>
              </ns3:TPX>
            </Extensions>
          </Trackpoint>
          <Trackpoint>
            <Time>2025-08-05T16:30:03.000Z</Time>
            <Position>
              <LatitudeDegrees>44.28904378786683</LatitudeDegrees>
              <LongitudeDegrees>-81.59163574688137</LongitudeDegrees>
            </Position>
            <AltitudeMeters>172.1999969482422</AltitudeMeters>
            <DistanceMeters>2145.68994140625</DistanceMeters>
            <Extensions>
              <ns3:TPX>
                <ns3:Speed>1.3899999856948853</ns3:Speed>
              </ns3:TPX>
            </Extensions>
          </Trackpoint>
        </Track>
        <Extensions>
          <ns3:LX>
            <ns3:AvgSpeed>1.6790000200271606</ns3:AvgSpeed>
          </ns3:LX>
        </Extensions>
      </Lap>
      <Creator xsi:type="Device_t">
        <Name>vívoactive 4</Name>
        <UnitId>3432774097</UnitId>
        <ProductID>3225</ProductID>
        <Version>
          <VersionMajor>8</VersionMajor>
          <VersionMinor>30</VersionMinor>
          <BuildMajor>0</BuildMajor>
          <BuildMinor>0</BuildMinor>
        </Version>
      </Creator>
    </Activity>
  </Activities>
  <Author xsi:type="Application_t">
    <Name>Connect Api</Name>
    <Build>
      <Version>
        <VersionMajor>25</VersionMajor>
        <VersionMinor>15</VersionMinor>
        <BuildMajor>0</BuildMajor>
        <BuildMinor>0</BuildMinor>
      </Version>
    </Build>
    <LangID>en</LangID>
    <PartNumber>006-D2449-00</PartNumber>
  </Author>
</TrainingCenterDatabase>
