<?xml version="1.0" encoding="UTF-8"?>
<TrainingCenterDatabase
  xsi:schemaLocation="http://www.garmin.com/xmlschemas/TrainingCenterDatabase/v2 http://www.garmin.com/xmlschemas/TrainingCenterDatabasev2.xsd"
  xmlns:ns5="http://www.garmin.com/xmlschemas/ActivityGoals/v1"
  xmlns:ns3="http://www.garmin.com/xmlschemas/ActivityExtension/v2"
  xmlns:ns2="http://www.garmin.com/xmlschemas/UserProfile/v2"
  xmlns="http://www.garmin.com/xmlschemas/TrainingCenterDatabase/v2"
  xmlns:xsi="http://www.w3.org/2001/XMLSchema-instance" xmlns:ns4="http://www.garmin.com/xmlschemas/ProfileExtension/v1">
  <Activities>
    <Activity Sport="Other">
      <Id>2025-07-30T18:54:50.000Z</Id>
      <Lap StartTime="2025-07-30T18:54:50.000Z">
        <TotalTimeSeconds>435.506</TotalTimeSeconds>
        <DistanceMeters>960.99</DistanceMeters>
        <MaximumSpeed>4.870999813079834</MaximumSpeed>
        <Calories>89</Calories>
        <Intensity>Active</Intensity>
        <TriggerMethod>Manual</TriggerMethod>
        <Track>
          <Trackpoint>
            <Time>2025-07-30T18:54:50.000Z</Time>
            <Position>
              <LatitudeDegrees>44.28899399936199</LatitudeDegrees>
              <LongitudeDegrees>-81.59162099473178</LongitudeDegrees>
            </Position>
            <AltitudeMeters>175.0</AltitudeMeters>
            <DistanceMeters>0.0</DistanceMeters>
            <Extensions>
              <ns3:TPX>
                <ns3:Speed>0.0</ns3:Speed>
              </ns3:TPX>
            </Extensions>
          </Trackpoint>
          <Trackpoint>
            <Time>2025-07-30T18:54:56.000Z</Time>
            <Position>
              <LatitudeDegrees>44.2890540137887</LatitudeDegrees>
              <LongitudeDegrees>-81.5916406083852</LongitudeDegrees>
            </Position>
            <AltitudeMeters>175.0</AltitudeMeters>
            <DistanceMeters>0.0</DistanceMeters>
            <Extensions>
              <ns3:TPX>
                <ns3:Speed>0.9139999747276306</ns3:Speed>
              </ns3:TPX>
            </Extensions>
          </Trackpoint>
          <Trackpoint>
            <Time>2025-07-30T18:54:58.000Z</Time>
            <Position>
              <LatitudeDegrees>44.289068933576345</LatitudeDegrees>
              <LongitudeDegrees>-81.59163272939622</LongitudeDegrees>
            </Position>
            <AltitudeMeters>175.0</AltitudeMeters>
            <DistanceMeters>1.5800000429153442</DistanceMeters>
            <Extensions>
              <ns3:TPX>
                <ns3:Speed>1.2410000562667847</ns3:Speed>
              </ns3:TPX>
            </Extensions>
          </Trackpoint>
          <Trackpoint>
            <Time>2025-07-30T18:55:05.000Z</Time>
            <Position>
              <LatitudeDegrees>44.28914839401841</LatitudeDegrees>
              <LongitudeDegrees>-81.59160456620157</LongitudeDegrees>
            </Position>
            <AltitudeMeters>174.8000030517578</AltitudeMeters>
            <DistanceMeters>10.680000305175781</DistanceMeters>
            <Extensions>
              <ns3:TPX>
                <ns3:Speed>1.38100004196167</ns3:Speed>
              </ns3:TPX>
            </Extensions>
          </Trackpoint>
          <Trackpoint>
            <Time>2025-07-30T18:55:10.000Z</Time>
            <Position>
              <LatitudeDegrees>44.28914965130389</LatitudeDegrees>
              <LongitudeDegrees>-81.59164697863162</LongitudeDegrees>
            </Position>
            <AltitudeMeters>175.0</AltitudeMeters>
            <DistanceMeters>13.369999885559082</DistanceMeters>
            <Extensions>
              <ns3:TPX>
                <ns3:Speed>1.128999948501587</ns3:Speed>
              </ns3:TPX>
            </Extensions>
          </Trackpoint>
          <Trackpoint>
            <Time>2025-07-30T18:55:17.000Z</Time>
            <Position>
              <LatitudeDegrees>44.28912593051791</LatitudeDegrees>
              <LongitudeDegrees>-81.59172367304564</LongitudeDegrees>
            </Position>
            <AltitudeMeters>174.1999969482422</AltitudeMeters>
            <DistanceMeters>19.889999389648438</DistanceMeters>
            <Extensions>
              <ns3:TPX>
                <ns3:Speed>0.5410000085830688</ns3:Speed>
              </ns3:TPX>
            </Extensions>
          </Trackpoint>
          <Trackpoint>
            <Time>2025-07-30T18:55:22.000Z</Time>
            <Position>
              <LatitudeDegrees>44.289124673232436</LatitudeDegrees>
              <LongitudeDegrees>-81.59176784567535</LongitudeDegrees>
            </Position>
            <AltitudeMeters>174.1999969482422</AltitudeMeters>
            <DistanceMeters>23.700000762939453</DistanceMeters>
            <Extensions>
              <ns3:TPX>
                <ns3:Speed>1.128999948501587</ns3:Speed>
              </ns3:TPX>
            </Extensions>
          </Trackpoint>
          <Trackpoint>
            <Time>2025-07-30T18:55:23.000Z</Time>
            <Position>
              <LatitudeDegrees>44.28912618197501</LatitudeDegrees>
              <LongitudeDegrees>-81.59178444184363</LongitudeDegrees>
            </Position>
            <AltitudeMeters>174.1999969482422</AltitudeMeters>
            <DistanceMeters>25.020000457763672</DistanceMeters>
            <Extensions>
              <ns3:TPX>
                <ns3:Speed>1.1380000114440918</ns3:Speed>
              </ns3:TPX>
            </Extensions>
          </Trackpoint>
          <Trackpoint>
            <Time>2025-07-30T18:55:29.000Z</Time>
            <Position>
              <LatitudeDegrees>44.28910279646516</LatitudeDegrees>
              <LongitudeDegrees>-81.59188393503428</LongitudeDegrees>
            </Position>
            <AltitudeMeters>174.0</AltitudeMeters>
            <DistanceMeters>33.31999969482422</DistanceMeters>
            <Extensions>
              <ns3:TPX>
                <ns3:Speed>1.184999942779541</ns3:Speed>
              </ns3:TPX>
            </Extensions>
          </Trackpoint>
          <Trackpoint>
            <Time>2025-07-30T18:55:35.000Z</Time>
            <Position>
              <LatitudeDegrees>44.289105981588364</LatitudeDegrees>
              <LongitudeDegrees>-81.59201812930405</LongitudeDegrees>
            </Position>
            <AltitudeMeters>174.0</AltitudeMeters>
            <DistanceMeters>44.0099983215332</DistanceMeters>
            <Extensions>
              <ns3:TPX>
                <ns3:Speed>1.8569999933242798</ns3:Speed>
              </ns3:TPX>
            </Extensions>
          </Trackpoint>
          <Trackpoint>
            <Time>2025-07-30T18:55:36.000Z</Time>
            <Position>
              <LatitudeDegrees>44.28910832852125</LatitudeDegrees>
              <LongitudeDegrees>-81.59205039963126</LongitudeDegrees>
            </Position>
            <AltitudeMeters>171.39999389648438</AltitudeMeters>
            <DistanceMeters>46.59000015258789</DistanceMeters>
            <Extensions>
              <ns3:TPX>
                <ns3:Speed>2.490999937057495</ns3:Speed>
              </ns3:TPX>
            </Extensions>
          </Trackpoint>
          <Trackpoint>
            <Time>2025-07-30T18:55:37.000Z</Time>
            <Position>
              <LatitudeDegrees>44.28910975344479</LatitudeDegrees>
              <LongitudeDegrees>-81.59208317287266</LongitudeDegrees>
            </Position>
            <AltitudeMeters>170.1999969482422</AltitudeMeters>
            <DistanceMeters>49.209999084472656</DistanceMeters>
            <Extensions>
              <ns3:TPX>
                <ns3:Speed>2.490999937057495</ns3:Speed>
              </ns3:TPX>
            </Extensions>
          </Trackpoint>
          <Trackpoint>
            <Time>2025-07-30T18:55:39.000Z</Time>
            <Position>
              <LatitudeDegrees>44.28911662660539</LatitudeDegrees>
              <LongitudeDegrees>-81.59214427694678</LongitudeDegrees>
            </Position>
            <AltitudeMeters>169.0</AltitudeMeters>
            <DistanceMeters>54.130001068115234</DistanceMeters>
            <Extensions>
              <ns3:TPX>
                <ns3:Speed>2.378999948501587</ns3:Speed>
              </ns3:TPX>
            </Extensions>
          </Trackpoint>
          <Trackpoint>
            <Time>2025-07-30T18:55:46.000Z</Time>
            <Position>
              <LatitudeDegrees>44.28915669210255</LatitudeDegrees>
              <LongitudeDegrees>-81.59235768020153</LongitudeDegrees>
            </Position>
            <AltitudeMeters>168.39999389648438</AltitudeMeters>
            <DistanceMeters>71.73999786376953</DistanceMeters>
            <Extensions>
              <ns3:TPX>
                <ns3:Speed>2.3420000076293945</ns3:Speed>
              </ns3:TPX>
            </Extensions>
          </Trackpoint>
          <Trackpoint>
            <Time>2025-07-30T18:55:56.000Z</Time>
            <Position>
              <LatitudeDegrees>44.28918452002108</LatitudeDegrees>
              <LongitudeDegrees>-81.5926427487284</LongitudeDegrees>
            </Position>
            <AltitudeMeters>169.1999969482422</AltitudeMeters>
            <DistanceMeters>94.68000030517578</DistanceMeters>
            <Extensions>
              <ns3:TPX>
                <ns3:Speed>2.3420000076293945</ns3:Speed>
              </ns3:TPX>
            </Extensions>
          </Trackpoint>
          <Trackpoint>
            <Time>2025-07-30T18:56:04.000Z</Time>
            <Position>
              <LatitudeDegrees>44.289231877774</LatitudeDegrees>
              <LongitudeDegrees>-81.59296444617212</LongitudeDegrees>
            </Position>
            <AltitudeMeters>169.60000610351562</AltitudeMeters>
            <DistanceMeters>120.97000122070312</DistanceMeters>
            <Extensions>
              <ns3:TPX>
                <ns3:Speed>4.050000190734863</ns3:Speed>
              </ns3:TPX>
            </Extensions>
          </Trackpoint>
          <Trackpoint>
            <Time>2025-07-30T18:56:07.000Z</Time>
            <Position>
              <LatitudeDegrees>44.289276553317904</LatitudeDegrees>
              <LongitudeDegrees>-81.59310760907829</LongitudeDegrees>
            </Position>
            <AltitudeMeters>170.1999969482422</AltitudeMeters>
            <DistanceMeters>133.5399932861328</DistanceMeters>
            <Extensions>
              <ns3:TPX>
                <ns3:Speed>4.291999816894531</ns3:Speed>
              </ns3:TPX>
            </Extensions>
          </Trackpoint>
          <Trackpoint>
            <Time>2025-07-30T18:56:09.000Z</Time>
            <Position>
              <LatitudeDegrees>44.28931787610054</LatitudeDegrees>
              <LongitudeDegrees>-81.59317860379815</LongitudeDegrees>
            </Position>
            <AltitudeMeters>170.8000030517578</AltitudeMeters>
            <DistanceMeters>140.82000732421875</DistanceMeters>
            <Extensions>
              <ns3:TPX>
                <ns3:Speed>3.7699999809265137</ns3:Speed>
              </ns3:TPX>
            </Extensions>
          </Trackpoint>
          <Trackpoint>
            <Time>2025-07-30T18:56:19.000Z</Time>
            <Position>
              <LatitudeDegrees>44.28953379392624</LatitudeDegrees>
              <LongitudeDegrees>-81.59346358850598</LongitudeDegrees>
            </Position>
            <AltitudeMeters>170.8000030517578</AltitudeMeters>
            <DistanceMeters>173.86000061035156</DistanceMeters>
            <Extensions>
              <ns3:TPX>
                <ns3:Speed>3.0880000591278076</ns3:Speed>
              </ns3:TPX>
            </Extensions>
          </Trackpoint>
          <Trackpoint>
            <Time>2025-07-30T18:56:22.000Z</Time>
            <Position>
              <LatitudeDegrees>44.28960680030286</LatitudeDegrees>
              <LongitudeDegrees>-81.59355134703219</LongitudeDegrees>
            </Position>
            <AltitudeMeters>171.39999389648438</AltitudeMeters>
            <DistanceMeters>184.58999633789062</DistanceMeters>
            <Extensions>
              <ns3:TPX>
                <ns3:Speed>3.246999979019165</ns3:Speed>
              </ns3:TPX>
            </Extensions>
          </Trackpoint>
          <Trackpoint>
            <Time>2025-07-30T18:56:27.000Z</Time>
            <Position>
              <LatitudeDegrees>44.289695397019386</LatitudeDegrees>
              <LongitudeDegrees>-81.59372250549495</LongitudeDegrees>
            </Position>
            <AltitudeMeters>171.8000030517578</AltitudeMeters>
            <DistanceMeters>201.4600067138672</DistanceMeters>
            <Extensions>
              <ns3:TPX>
                <ns3:Speed>3.3399999141693115</ns3:Speed>
              </ns3:TPX>
            </Extensions>
          </Trackpoint>
          <Trackpoint>
            <Time>2025-07-30T18:56:32.000Z</Time>
            <Position>
              <LatitudeDegrees>44.289767229929566</LatitudeDegrees>
              <LongitudeDegrees>-81.59393624402583</LongitudeDegrees>
            </Position>
            <AltitudeMeters>172.39999389648438</AltitudeMeters>
            <DistanceMeters>220.30999755859375</DistanceMeters>
            <Extensions>
              <ns3:TPX>
                <ns3:Speed>3.5460000038146973</ns3:Speed>
              </ns3:TPX>
            </Extensions>
          </Trackpoint>
          <Trackpoint>
            <Time>2025-07-30T18:56:36.000Z</Time>
            <Position>
              <LatitudeDegrees>44.2898222990334</LatitudeDegrees>
              <LongitudeDegrees>-81.59408007748425</LongitudeDegrees>
            </Position>
            <AltitudeMeters>174.1999969482422</AltitudeMeters>
            <DistanceMeters>233.30999755859375</DistanceMeters>
            <Extensions>
              <ns3:TPX>
                <ns3:Speed>3.806999921798706</ns3:Speed>
              </ns3:TPX>
            </Extensions>
          </Trackpoint>
          <Trackpoint>
            <Time>2025-07-30T18:56:38.000Z</Time>
            <Position>
              <LatitudeDegrees>44.28986085578799</LatitudeDegrees>
              <LongitudeDegrees>-81.59417001530528</LongitudeDegrees>
            </Position>
            <AltitudeMeters>175.1999969482422</AltitudeMeters>
            <DistanceMeters>241.67999267578125</DistanceMeters>
            <Extensions>
              <ns3:TPX>
                <ns3:Speed>3.9660000801086426</ns3:Speed>
              </ns3:TPX>
            </Extensions>
          </Trackpoint>
          <Trackpoint>
            <Time>2025-07-30T18:56:42.000Z</Time>
            <Position>
              <LatitudeDegrees>44.28995414637029</LatitudeDegrees>
              <LongitudeDegrees>-81.59432063810527</LongitudeDegrees>
            </Position>
            <AltitudeMeters>175.39999389648438</AltitudeMeters>
            <DistanceMeters>257.5899963378906</DistanceMeters>
            <Extensions>
              <ns3:TPX>
                <ns3:Speed>4.021999835968018</ns3:Speed>
              </ns3:TPX>
            </Extensions>
          </Trackpoint>
          <Trackpoint>
            <Time>2025-07-30T18:56:49.000Z</Time>
            <Position>
              <LatitudeDegrees>44.290064787492156</LatitudeDegrees>
              <LongitudeDegrees>-81.59455583430827</LongitudeDegrees>
            </Position>
            <AltitudeMeters>175.60000610351562</AltitudeMeters>
            <DistanceMeters>280.0799865722656</DistanceMeters>
            <Extensions>
              <ns3:TPX>
                <ns3:Speed>2.8459999561309814</ns3:Speed>
              </ns3:TPX>
            </Extensions>
          </Trackpoint>
          <Trackpoint>
            <Time>2025-07-30T18:56:54.000Z</Time>
            <Position>
              <LatitudeDegrees>44.29011918604374</LatitudeDegrees>
              <LongitudeDegrees>-81.5946906991303</LongitudeDegrees>
            </Position>
            <AltitudeMeters>175.60000610351562</AltitudeMeters>
            <DistanceMeters>292.489990234375</DistanceMeters>
            <Extensions>
              <ns3:TPX>
                <ns3:Speed>2.677999973297119</ns3:Speed>
              </ns3:TPX>
            </Extensions>
          </Trackpoint>
          <Trackpoint>
            <Time>2025-07-30T18:57:03.000Z</Time>
            <Position>
              <LatitudeDegrees>44.29021214134991</LatitudeDegrees>
              <LongitudeDegrees>-81.59490074962378</LongitudeDegrees>
            </Position>
            <AltitudeMeters>175.60000610351562</AltitudeMeters>
            <DistanceMeters>312.19000244140625</DistanceMeters>
            <Extensions>
              <ns3:TPX>
                <ns3:Speed>2.1649999618530273</ns3:Speed>
              </ns3:TPX>
            </Extensions>
          </Trackpoint>
          <Trackpoint>
            <Time>2025-07-30T18:57:11.000Z</Time>
            <Position>
              <LatitudeDegrees>44.29032579995692</LatitudeDegrees>
              <LongitudeDegrees>-81.59505950286984</LongitudeDegrees>
            </Position>
            <AltitudeMeters>175.0</AltitudeMeters>
            <DistanceMeters>330.260009765625</DistanceMeters>
            <Extensions>
              <ns3:TPX>
                <ns3:Speed>2.305000066757202</ns3:Speed>
              </ns3:TPX>
            </Extensions>
          </Trackpoint>
          <Trackpoint>
            <Time>2025-07-30T18:57:20.000Z</Time>
            <Position>
              <LatitudeDegrees>44.29047742858529</LatitudeDegrees>
              <LongitudeDegrees>-81.59518875181675</LongitudeDegrees>
            </Position>
            <AltitudeMeters>174.8000030517578</AltitudeMeters>
            <DistanceMeters>350.0899963378906</DistanceMeters>
            <Extensions>
              <ns3:TPX>
                <ns3:Speed>2.305000066757202</ns3:Speed>
              </ns3:TPX>
            </Extensions>
          </Trackpoint>
          <Trackpoint>
            <Time>2025-07-30T18:57:28.000Z</Time>
            <Position>
              <LatitudeDegrees>44.290582202374935</LatitudeDegrees>
              <LongitudeDegrees>-81.59527776762843</LongitudeDegrees>
            </Position>
            <AltitudeMeters>174.60000610351562</AltitudeMeters>
            <DistanceMeters>363.739990234375</DistanceMeters>
            <Extensions>
              <ns3:TPX>
                <ns3:Speed>1.940999984741211</ns3:Speed>
              </ns3:TPX>
            </Extensions>
          </Trackpoint>
          <Trackpoint>
            <Time>2025-07-30T18:57:37.000Z</Time>
            <Position>
              <LatitudeDegrees>44.29070005193353</LatitudeDegrees>
              <LongitudeDegrees>-81.59532336518168</LongitudeDegrees>
            </Position>
            <AltitudeMeters>174.8000030517578</AltitudeMeters>
            <DistanceMeters>377.4100036621094</DistanceMeters>
            <Extensions>
              <ns3:TPX>
                <ns3:Speed>1.5399999618530273</ns3:Speed>
              </ns3:TPX>
            </Extensions>
          </Trackpoint>
          <Trackpoint>
            <Time>2025-07-30T18:57:44.000Z</Time>
            <Position>
              <LatitudeDegrees>44.290778674185276</LatitudeDegrees>
              <LongitudeDegrees>-81.59545303322375</LongitudeDegrees>
            </Position>
            <AltitudeMeters>174.8000030517578</AltitudeMeters>
            <DistanceMeters>391.1300048828125</DistanceMeters>
            <Extensions>
              <ns3:TPX>
                <ns3:Speed>2.621999979019165</ns3:Speed>
              </ns3:TPX>
            </Extensions>
          </Trackpoint>
          <Trackpoint>
            <Time>2025-07-30T18:57:51.000Z</Time>
            <Position>
              <LatitudeDegrees>44.29085553623736</LatitudeDegrees>
              <LongitudeDegrees>-81.59569703042507</LongitudeDegrees>
            </Position>
            <AltitudeMeters>174.60000610351562</AltitudeMeters>
            <DistanceMeters>412.4200134277344</DistanceMeters>
            <Extensions>
              <ns3:TPX>
                <ns3:Speed>2.677999973297119</ns3:Speed>
              </ns3:TPX>
            </Extensions>
          </Trackpoint>
          <Trackpoint>
            <Time>2025-07-30T18:57:57.000Z</Time>
            <Position>
              <LatitudeDegrees>44.29090264253318</LatitudeDegrees>
              <LongitudeDegrees>-81.59596575424075</LongitudeDegrees>
            </Position>
            <AltitudeMeters>174.60000610351562</AltitudeMeters>
            <DistanceMeters>434.5799865722656</DistanceMeters>
            <Extensions>
              <ns3:TPX>
                <ns3:Speed>3.443000078201294</ns3:Speed>
              </ns3:TPX>
            </Extensions>
          </Trackpoint>
          <Trackpoint>
            <Time>2025-07-30T18:58:06.000Z</Time>
            <Position>
              <LatitudeDegrees>44.2909174785018</LatitudeDegrees>
              <LongitudeDegrees>-81.59637009724975</LongitudeDegrees>
            </Position>
            <AltitudeMeters>174.1999969482422</AltitudeMeters>
            <DistanceMeters>466.9100036621094</DistanceMeters>
            <Extensions>
              <ns3:TPX>
                <ns3:Speed>3.5460000038146973</ns3:Speed>
              </ns3:TPX>
            </Extensions>
          </Trackpoint>
          <Trackpoint>
            <Time>2025-07-30T18:58:07.000Z</Time>
            <Position>
              <LatitudeDegrees>44.29092108272016</LatitudeDegrees>
              <LongitudeDegrees>-81.59641762264073</LongitudeDegrees>
            </Position>
            <AltitudeMeters>174.1999969482422</AltitudeMeters>
            <DistanceMeters>470.7300109863281</DistanceMeters>
            <Extensions>
              <ns3:TPX>
                <ns3:Speed>3.5829999446868896</ns3:Speed>
              </ns3:TPX>
            </Extensions>
          </Trackpoint>
          <Trackpoint>
            <Time>2025-07-30T18:58:12.000Z</Time>
            <Position>
              <LatitudeDegrees>44.290948659181595</LatitudeDegrees>
              <LongitudeDegrees>-81.5967074688524</LongitudeDegrees>
            </Position>
            <AltitudeMeters>174.0</AltitudeMeters>
            <DistanceMeters>494.0899963378906</DistanceMeters>
            <Extensions>
              <ns3:TPX>
                <ns3:Speed>4.870999813079834</ns3:Speed>
              </ns3:TPX>
            </Extensions>
          </Trackpoint>
          <Trackpoint>
            <Time>2025-07-30T18:58:18.000Z</Time>
            <Position>
              <LatitudeDegrees>44.290962405502796</LatitudeDegrees>
              <LongitudeDegrees>-81.59698960371315</LongitudeDegrees>
            </Position>
            <AltitudeMeters>174.1999969482422</AltitudeMeters>
            <DistanceMeters>516.6799926757812</DistanceMeters>
            <Extensions>
              <ns3:TPX>
                <ns3:Speed>3.2190001010894775</ns3:Speed>
              </ns3:TPX>
            </Extensions>
          </Trackpoint>
          <Trackpoint>
            <Time>2025-07-30T18:58:25.000Z</Time>
            <Position>
              <LatitudeDegrees>44.29099526256323</LatitudeDegrees>
              <LongitudeDegrees>-81.59721113741398</LongitudeDegrees>
            </Position>
            <AltitudeMeters>174.0</AltitudeMeters>
            <DistanceMeters>534.9500122070312</DistanceMeters>
            <Extensions>
              <ns3:TPX>
                <ns3:Speed>2.6589999198913574</ns3:Speed>
              </ns3:TPX>
            </Extensions>
          </Trackpoint>
          <Trackpoint>
            <Time>2025-07-30T18:58:38.000Z</Time>
            <Position>
              <LatitudeDegrees>44.29116046987474</LatitudeDegrees>
              <LongitudeDegrees>-81.59762361086905</LongitudeDegrees>
            </Position>
            <AltitudeMeters>174.0</AltitudeMeters>
            <DistanceMeters>572.8099975585938</DistanceMeters>
            <Extensions>
              <ns3:TPX>
                <ns3:Speed>2.8369998931884766</ns3:Speed>
              </ns3:TPX>
            </Extensions>
          </Trackpoint>
          <Trackpoint>
            <Time>2025-07-30T18:58:49.000Z</Time>
            <Position>
              <LatitudeDegrees>44.29137806408107</LatitudeDegrees>
              <LongitudeDegrees>-81.59800364635885</LongitudeDegrees>
            </Position>
            <AltitudeMeters>174.0</AltitudeMeters>
            <DistanceMeters>611.6099853515625</DistanceMeters>
            <Extensions>
              <ns3:TPX>
                <ns3:Speed>3.4619998931884766</ns3:Speed>
              </ns3:TPX>
            </Extensions>
          </Trackpoint>
          <Trackpoint>
            <Time>2025-07-30T18:58:59.000Z</Time>
            <Position>
              <LatitudeDegrees>44.291556095704436</LatitudeDegrees>
              <LongitudeDegrees>-81.59843078814447</LongitudeDegrees>
            </Position>
            <AltitudeMeters>174.1999969482422</AltitudeMeters>
            <DistanceMeters>651.030029296875</DistanceMeters>
            <Extensions>
              <ns3:TPX>
                <ns3:Speed>3.927999973297119</ns3:Speed>
              </ns3:TPX>
            </Extensions>
          </Trackpoint>
          <Trackpoint>
            <Time>2025-07-30T18:59:05.000Z</Time>
            <Position>
              <LatitudeDegrees>44.29170143790543</LatitudeDegrees>
              <LongitudeDegrees>-81.59863731823862</LongitudeDegrees>
            </Position>
            <AltitudeMeters>174.1999969482422</AltitudeMeters>
            <DistanceMeters>674.22998046875</DistanceMeters>
            <Extensions>
              <ns3:TPX>
                <ns3:Speed>4.132999897003174</ns3:Speed>
              </ns3:TPX>
            </Extensions>
          </Trackpoint>
          <Trackpoint>
            <Time>2025-07-30T18:59:10.000Z</Time>
            <Position>
              <LatitudeDegrees>44.291778299957514</LatitudeDegrees>
              <LongitudeDegrees>-81.59873614087701</LongitudeDegrees>
            </Position>
            <AltitudeMeters>174.1999969482422</AltitudeMeters>
            <DistanceMeters>685.8699951171875</DistanceMeters>
            <Extensions>
              <ns3:TPX>
                <ns3:Speed>1.5299999713897705</ns3:Speed>
              </ns3:TPX>
            </Extensions>
          </Trackpoint>
          <Trackpoint>
            <Time>2025-07-30T18:59:15.000Z</Time>
            <Position>
              <LatitudeDegrees>44.291785676032305</LatitudeDegrees>
              <LongitudeDegrees>-81.5987535752356</LongitudeDegrees>
            </Position>
            <AltitudeMeters>173.60000610351562</AltitudeMeters>
            <DistanceMeters>688.02001953125</DistanceMeters>
            <Extensions>
              <ns3:TPX>
                <ns3:Speed>0.0</ns3:Speed>
              </ns3:TPX>
            </Extensions>
          </Trackpoint>
          <Trackpoint>
            <Time>2025-07-30T18:59:21.000Z</Time>
            <Position>
              <LatitudeDegrees>44.29177913814783</LatitudeDegrees>
              <LongitudeDegrees>-81.59879204817116</LongitudeDegrees>
            </Position>
            <AltitudeMeters>173.60000610351562</AltitudeMeters>
            <DistanceMeters>691.530029296875</DistanceMeters>
            <Extensions>
              <ns3:TPX>
                <ns3:Speed>1.1009999513626099</ns3:Speed>
              </ns3:TPX>
            </Extensions>
          </Trackpoint>
          <Trackpoint>
            <Time>2025-07-30T18:59:29.000Z</Time>
            <Position>
              <LatitudeDegrees>44.29182196967304</LatitudeDegrees>
              <LongitudeDegrees>-81.59888030961156</LongitudeDegrees>
            </Position>
            <AltitudeMeters>174.1999969482422</AltitudeMeters>
            <DistanceMeters>700.1199951171875</DistanceMeters>
            <Extensions>
              <ns3:TPX>
                <ns3:Speed>1.1480000019073486</ns3:Speed>
              </ns3:TPX>
            </Extensions>
          </Trackpoint>
          <Trackpoint>
            <Time>2025-07-30T18:59:35.000Z</Time>
            <Position>
              <LatitudeDegrees>44.29182507097721</LatitudeDegrees>
              <LongitudeDegrees>-81.59890780225396</LongitudeDegrees>
            </Position>
            <AltitudeMeters>174.39999389648438</AltitudeMeters>
            <DistanceMeters>702.780029296875</DistanceMeters>
            <Extensions>
              <ns3:TPX>
                <ns3:Speed>0.0</ns3:Speed>
              </ns3:TPX>
            </Extensions>
          </Trackpoint>
          <Trackpoint>
            <Time>2025-07-30T18:59:40.000Z</Time>
            <Position>
              <LatitudeDegrees>44.291824316605926</LatitudeDegrees>
              <LongitudeDegrees>-81.59895457327366</LongitudeDegrees>
            </Position>
            <AltitudeMeters>174.60000610351562</AltitudeMeters>
            <DistanceMeters>706.75</DistanceMeters>
            <Extensions>
              <ns3:TPX>
                <ns3:Speed>1.0360000133514404</ns3:Speed>
              </ns3:TPX>
            </Extensions>
          </Trackpoint>
          <Trackpoint>
            <Time>2025-07-30T18:59:41.000Z</Time>
            <Position>
              <LatitudeDegrees>44.291825238615274</LatitudeDegrees>
              <LongitudeDegrees>-81.59896521829069</LongitudeDegrees>
            </Position>
            <AltitudeMeters>174.8000030517578</AltitudeMeters>
            <DistanceMeters>707.530029296875</DistanceMeters>
            <Extensions>
              <ns3:TPX>
                <ns3:Speed>1.0360000133514404</ns3:Speed>
              </ns3:TPX>
            </Extensions>
          </Trackpoint>
          <Trackpoint>
            <Time>2025-07-30T18:59:43.000Z</Time>
            <Position>
              <LatitudeDegrees>44.29183035157621</LatitudeDegrees>
              <LongitudeDegrees>-81.59898307174444</LongitudeDegrees>
            </Position>
            <AltitudeMeters>175.1999969482422</AltitudeMeters>
            <DistanceMeters>709.0599975585938</DistanceMeters>
            <Extensions>
              <ns3:TPX>
                <ns3:Speed>0.6620000004768372</ns3:Speed>
              </ns3:TPX>
            </Extensions>
          </Trackpoint>
          <Trackpoint>
            <Time>2025-07-30T18:59:48.000Z</Time>
            <Position>
              <LatitudeDegrees>44.29183194413781</LatitudeDegrees>
              <LongitudeDegrees>-81.59901140257716</LongitudeDegrees>
            </Position>
            <AltitudeMeters>175.60000610351562</AltitudeMeters>
            <DistanceMeters>711.6300048828125</DistanceMeters>
            <Extensions>
              <ns3:TPX>
                <ns3:Speed>0.6899999976158142</ns3:Speed>
              </ns3:TPX>
            </Extensions>
          </Trackpoint>
          <Trackpoint>
            <Time>2025-07-30T18:59:53.000Z</Time>
            <Position>
              <LatitudeDegrees>44.29183370433748</LatitudeDegrees>
              <LongitudeDegrees>-81.59905884414911</LongitudeDegrees>
            </Position>
            <AltitudeMeters>175.0</AltitudeMeters>
            <DistanceMeters>715.8400268554688</DistanceMeters>
            <Extensions>
              <ns3:TPX>
                <ns3:Speed>0.8960000276565552</ns3:Speed>
              </ns3:TPX>
            </Extensions>
          </Trackpoint>
          <Trackpoint>
            <Time>2025-07-30T18:59:56.000Z</Time>
            <Position>
              <LatitudeDegrees>44.29184501990676</LatitudeDegrees>
              <LongitudeDegrees>-81.59909404814243</LongitudeDegrees>
            </Position>
            <AltitudeMeters>174.8000030517578</AltitudeMeters>
            <DistanceMeters>719.010009765625</DistanceMeters>
            <Extensions>
              <ns3:TPX>
                <ns3:Speed>1.156999945640564</ns3:Speed>
              </ns3:TPX>
            </Extensions>
          </Trackpoint>
          <Trackpoint>
            <Time>2025-07-30T19:00:03.000Z</Time>
            <Position>
              <LatitudeDegrees>44.291874188929796</LatitudeDegrees>
              <LongitudeDegrees>-81.59921617247164</LongitudeDegrees>
            </Position>
            <AltitudeMeters>175.0</AltitudeMeters>
            <DistanceMeters>729.3200073242188</DistanceMeters>
            <Extensions>
              <ns3:TPX>
                <ns3:Speed>1.2970000505447388</ns3:Speed>
              </ns3:TPX>
            </Extensions>
          </Trackpoint>
          <Trackpoint>
            <Time>2025-07-30T19:00:11.000Z</Time>
            <Position>
              <LatitudeDegrees>44.29188181646168</LatitudeDegrees>
              <LongitudeDegrees>-81.59929320216179</LongitudeDegrees>
            </Position>
            <AltitudeMeters>174.60000610351562</AltitudeMeters>
            <DistanceMeters>735.6699829101562</DistanceMeters>
            <Extensions>
              <ns3:TPX>
                <ns3:Speed>0.9240000247955322</ns3:Speed>
              </ns3:TPX>
            </Extensions>
          </Trackpoint>
          <Trackpoint>
            <Time>2025-07-30T19:00:19.000Z</Time>
            <Position>
              <LatitudeDegrees>44.29193780757487</LatitudeDegrees>
              <LongitudeDegrees>-81.59942387603223</LongitudeDegrees>
            </Position>
            <AltitudeMeters>174.60000610351562</AltitudeMeters>
            <DistanceMeters>747.8800048828125</DistanceMeters>
            <Extensions>
              <ns3:TPX>
                <ns3:Speed>1.9589999914169312</ns3:Speed>
              </ns3:TPX>
            </Extensions>
          </Trackpoint>
          <Trackpoint>
            <Time>2025-07-30T19:00:25.000Z</Time>
            <Position>
              <LatitudeDegrees>44.292014334350824</LatitudeDegrees>
              <LongitudeDegrees>-81.59953560680151</LongitudeDegrees>
            </Position>
            <AltitudeMeters>174.1999969482422</AltitudeMeters>
            <DistanceMeters>760.2000122070312</DistanceMeters>
            <Extensions>
              <ns3:TPX>
                <ns3:Speed>1.0080000162124634</ns3:Speed>
              </ns3:TPX>
            </Extensions>
          </Trackpoint>
          <Trackpoint>
            <Time>2025-07-30T19:00:26.000Z</Time>
            <Position>
              <LatitudeDegrees>44.292016765102744</LatitudeDegrees>
              <LongitudeDegrees>-81.59954231232405</LongitudeDegrees>
            </Position>
            <AltitudeMeters>174.1999969482422</AltitudeMeters>
            <DistanceMeters>760.7999877929688</DistanceMeters>
            <Extensions>
              <ns3:TPX>
                <ns3:Speed>0.6439999938011169</ns3:Speed>
              </ns3:TPX>
            </Extensions>
          </Trackpoint>
          <Trackpoint>
            <Time>2025-07-30T19:00:31.000Z</Time>
            <Position>
              <LatitudeDegrees>44.29201408289373</LatitudeDegrees>
              <LongitudeDegrees>-81.59955295734107</LongitudeDegrees>
            </Position>
            <AltitudeMeters>174.1999969482422</AltitudeMeters>
            <DistanceMeters>761.6900024414062</DistanceMeters>
            <Extensions>
              <ns3:TPX>
                <ns3:Speed>0.0</ns3:Speed>
              </ns3:TPX>
            </Extensions>
          </Trackpoint>
          <Trackpoint>
            <Time>2025-07-30T19:00:33.000Z</Time>
            <Position>
              <LatitudeDegrees>44.29202472791076</LatitudeDegrees>
              <LongitudeDegrees>-81.59957977943122</LongitudeDegrees>
            </Position>
            <AltitudeMeters>174.1999969482422</AltitudeMeters>
            <DistanceMeters>764.1900024414062</DistanceMeters>
            <Extensions>
              <ns3:TPX>
                <ns3:Speed>1.2599999904632568</ns3:Speed>
              </ns3:TPX>
            </Extensions>
          </Trackpoint>
          <Trackpoint>
            <Time>2025-07-30T19:00:35.000Z</Time>
            <Position>
              <LatitudeDegrees>44.29205305874348</LatitudeDegrees>
              <LongitudeDegrees>-81.59962194040418</LongitudeDegrees>
            </Position>
            <AltitudeMeters>174.39999389648438</AltitudeMeters>
            <DistanceMeters>768.7899780273438</DistanceMeters>
            <Extensions>
              <ns3:TPX>
                <ns3:Speed>2.2769999504089355</ns3:Speed>
              </ns3:TPX>
            </Extensions>
          </Trackpoint>
          <Trackpoint>
            <Time>2025-07-30T19:00:41.000Z</Time>
            <Position>
              <LatitudeDegrees>44.29210611619055</LatitudeDegrees>
              <LongitudeDegrees>-81.59973450936377</LongitudeDegrees>
            </Position>
            <AltitudeMeters>174.39999389648438</AltitudeMeters>
            <DistanceMeters>779.6099853515625</DistanceMeters>
            <Extensions>
              <ns3:TPX>
                <ns3:Speed>0.0</ns3:Speed>
              </ns3:TPX>
            </Extensions>
          </Trackpoint>
          <Trackpoint>
            <Time>2025-07-30T19:00:46.000Z</Time>
            <Position>
              <LatitudeDegrees>44.29210804402828</LatitudeDegrees>
              <LongitudeDegrees>-81.59976426512003</LongitudeDegrees>
            </Position>
            <AltitudeMeters>174.1999969482422</AltitudeMeters>
            <DistanceMeters>782.22998046875</DistanceMeters>
            <Extensions>
              <ns3:TPX>
                <ns3:Speed>0.8960000276565552</ns3:Speed>
              </ns3:TPX>
            </Extensions>
          </Trackpoint>
          <Trackpoint>
            <Time>2025-07-30T19:00:49.000Z</Time>
            <Position>
              <LatitudeDegrees>44.29211877286434</LatitudeDegrees>
              <LongitudeDegrees>-81.59978949464858</LongitudeDegrees>
            </Position>
            <AltitudeMeters>174.1999969482422</AltitudeMeters>
            <DistanceMeters>784.5399780273438</DistanceMeters>
            <Extensions>
              <ns3:TPX>
                <ns3:Speed>0.5320000052452087</ns3:Speed>
              </ns3:TPX>
            </Extensions>
          </Trackpoint>
          <Trackpoint>
            <Time>2025-07-30T19:00:55.000Z</Time>
            <Position>
              <LatitudeDegrees>44.29212707094848</LatitudeDegrees>
              <LongitudeDegrees>-81.59981715492904</LongitudeDegrees>
            </Position>
            <AltitudeMeters>174.1999969482422</AltitudeMeters>
            <DistanceMeters>787.1300048828125</DistanceMeters>
            <Extensions>
              <ns3:TPX>
                <ns3:Speed>0.6340000033378601</ns3:Speed>
              </ns3:TPX>
            </Extensions>
          </Trackpoint>
          <Trackpoint>
            <Time>2025-07-30T19:00:58.000Z</Time>
            <Position>
              <LatitudeDegrees>44.29213520139456</LatitudeDegrees>
              <LongitudeDegrees>-81.59984481520951</LongitudeDegrees>
            </Position>
            <AltitudeMeters>174.1999969482422</AltitudeMeters>
            <DistanceMeters>789.5499877929688</DistanceMeters>
            <Extensions>
              <ns3:TPX>
                <ns3:Speed>0.9610000252723694</ns3:Speed>
              </ns3:TPX>
            </Extensions>
          </Trackpoint>
          <Trackpoint>
            <Time>2025-07-30T19:01:01.000Z</Time>
            <Position>
              <LatitudeDegrees>44.292162358760834</LatitudeDegrees>
              <LongitudeDegrees>-81.59991564229131</LongitudeDegrees>
            </Position>
            <AltitudeMeters>174.1999969482422</AltitudeMeters>
            <DistanceMeters>795.97998046875</DistanceMeters>
            <Extensions>
              <ns3:TPX>
                <ns3:Speed>2.5380001068115234</ns3:Speed>
              </ns3:TPX>
            </Extensions>
          </Trackpoint>
          <Trackpoint>
            <Time>2025-07-30T19:01:06.000Z</Time>
            <Position>
              <LatitudeDegrees>44.29219043813646</LatitudeDegrees>
              <LongitudeDegrees>-81.59996023401618</LongitudeDegrees>
            </Position>
            <AltitudeMeters>174.39999389648438</AltitudeMeters>
            <DistanceMeters>800.7899780273438</DistanceMeters>
            <Extensions>
              <ns3:TPX>
                <ns3:Speed>0.0</ns3:Speed>
              </ns3:TPX>
            </Extensions>
          </Trackpoint>
          <Trackpoint>
            <Time>2025-07-30T19:01:11.000Z</Time>
            <Position>
              <LatitudeDegrees>44.292183900251985</LatitudeDegrees>
              <LongitudeDegrees>-81.59993165172637</LongitudeDegrees>
            </Position>
            <AltitudeMeters>173.8000030517578</AltitudeMeters>
            <DistanceMeters>803.8599853515625</DistanceMeters>
            <Extensions>
              <ns3:TPX>
                <ns3:Speed>1.315999984741211</ns3:Speed>
              </ns3:TPX>
            </Extensions>
          </Trackpoint>
          <Trackpoint>
            <Time>2025-07-30T19:01:12.000Z</Time>
            <Position>
              <LatitudeDegrees>44.292181972414255</LatitudeDegrees>
              <LongitudeDegrees>-81.59991187043488</LongitudeDegrees>
            </Position>
            <AltitudeMeters>173.60000610351562</AltitudeMeters>
            <DistanceMeters>805.4500122070312</DistanceMeters>
            <Extensions>
              <ns3:TPX>
                <ns3:Speed>1.7450000047683716</ns3:Speed>
              </ns3:TPX>
            </Extensions>
          </Trackpoint>
          <Trackpoint>
            <Time>2025-07-30T19:01:18.000Z</Time>
            <Position>
              <LatitudeDegrees>44.29219831712544</LatitudeDegrees>
              <LongitudeDegrees>-81.5997205954045</LongitudeDegrees>
            </Position>
            <AltitudeMeters>174.0</AltitudeMeters>
            <DistanceMeters>820.9000244140625</DistanceMeters>
            <Extensions>
              <ns3:TPX>
                <ns3:Speed>2.1459999084472656</ns3:Speed>
              </ns3:TPX>
            </Extensions>
          </Trackpoint>
          <Trackpoint>
            <Time>2025-07-30T19:01:25.000Z</Time>
            <Position>
              <LatitudeDegrees>44.29213193245232</LatitudeDegrees>
              <LongitudeDegrees>-81.59946335479617</LongitudeDegrees>
            </Position>
            <AltitudeMeters>173.8000030517578</AltitudeMeters>
            <DistanceMeters>842.8400268554688</DistanceMeters>
            <Extensions>
              <ns3:TPX>
                <ns3:Speed>3.619999885559082</ns3:Speed>
              </ns3:TPX>
            </Extensions>
          </Trackpoint>
          <Trackpoint>
            <Time>2025-07-30T19:01:33.000Z</Time>
            <Position>
              <LatitudeDegrees>44.29199706763029</LatitudeDegrees>
              <LongitudeDegrees>-81.59919429570436</LongitudeDegrees>
            </Position>
            <AltitudeMeters>174.1999969482422</AltitudeMeters>
            <DistanceMeters>869.0999755859375</DistanceMeters>
            <Extensions>
              <ns3:TPX>
                <ns3:Speed>3.2100000381469727</ns3:Speed>
              </ns3:TPX>
            </Extensions>
          </Trackpoint>
          <Trackpoint>
            <Time>2025-07-30T19:01:40.000Z</Time>
            <Position>
              <LatitudeDegrees>44.29186153225601</LatitudeDegrees>
              <LongitudeDegrees>-81.59901500679553</LongitudeDegrees>
            </Position>
            <AltitudeMeters>174.0</AltitudeMeters>
            <DistanceMeters>889.9299926757812</DistanceMeters>
            <Extensions>
              <ns3:TPX>
                <ns3:Speed>2.9760000705718994</ns3:Speed>
              </ns3:TPX>
            </Extensions>
          </Trackpoint>
          <Trackpoint>
            <Time>2025-07-30T19:01:47.000Z</Time>
            <Position>
              <LatitudeDegrees>44.29168869741261</LatitudeDegrees>
              <LongitudeDegrees>-81.59879012033343</LongitudeDegrees>
            </Position>
            <AltitudeMeters>175.0</AltitudeMeters>
            <DistanceMeters>916.219970703125</DistanceMeters>
            <Extensions>
              <ns3:TPX>
                <ns3:Speed>3.5739998817443848</ns3:Speed>
              </ns3:TPX>
            </Extensions>
          </Trackpoint>
          <Trackpoint>
            <Time>2025-07-30T19:01:52.000Z</Time>
            <Position>
              <LatitudeDegrees>44.29156992584467</LatitudeDegrees>
              <LongitudeDegrees>-81.59863136708736</LongitudeDegrees>
            </Position>
            <AltitudeMeters>175.1999969482422</AltitudeMeters>
            <DistanceMeters>934.52001953125</DistanceMeters>
            <Extensions>
              <ns3:TPX>
                <ns3:Speed>3.759999990463257</ns3:Speed>
              </ns3:TPX>
            </Extensions>
          </Trackpoint>
          <Trackpoint>
            <Time>2025-07-30T19:01:57.000Z</Time>
            <Position>
              <LatitudeDegrees>44.29143170826137</LatitudeDegrees>
              <LongitudeDegrees>-81.59847219474614</LongitudeDegrees>
            </Position>
            <AltitudeMeters>175.1999969482422</AltitudeMeters>
            <DistanceMeters>954.4600219726562</DistanceMeters>
            <Extensions>
              <ns3:TPX>
                <ns3:Speed>3.8350000381469727</ns3:Speed>
              </ns3:TPX>
            </Extensions>
          </Trackpoint>
          <Trackpoint>
            <Time>2025-07-30T19:05:04.000Z</Time>
            <Position>
              <LatitudeDegrees>44.28913129493594</LatitudeDegrees>
              <LongitudeDegrees>-81.59159710630774</LongitudeDegrees>
            </Position>
            <AltitudeMeters>176.1999969482422</AltitudeMeters>
            <DistanceMeters>955.1900024414062</DistanceMeters>
            <Extensions>
              <ns3:TPX>
                <ns3:Speed>1.0260000228881836</ns3:Speed>
              </ns3:TPX>
            </Extensions>
          </Trackpoint>
          <Trackpoint>
            <Time>2025-07-30T19:05:06.000Z</Time>
            <Position>
              <LatitudeDegrees>44.289124170318246</LatitudeDegrees>
              <LongitudeDegrees>-81.59160791896284</LongitudeDegrees>
            </Position>
            <AltitudeMeters>176.1999969482422</AltitudeMeters>
            <DistanceMeters>956.3499755859375</DistanceMeters>
            <Extensions>
              <ns3:TPX>
                <ns3:Speed>0.0</ns3:Speed>
              </ns3:TPX>
            </Extensions>
          </Trackpoint>
          <Trackpoint>
            <Time>2025-07-30T19:05:11.000Z</Time>
            <Position>
              <LatitudeDegrees>44.28915124386549</LatitudeDegrees>
              <LongitudeDegrees>-81.59162292256951</LongitudeDegrees>
            </Position>
            <AltitudeMeters>177.0</AltitudeMeters>
            <DistanceMeters>959.5499877929688</DistanceMeters>
            <Extensions>
              <ns3:TPX>
                <ns3:Speed>0.8960000276565552</ns3:Speed>
              </ns3:TPX>
            </Extensions>
          </Trackpoint>
          <Trackpoint>
            <Time>2025-07-30T19:05:12.000Z</Time>
            <Position>
              <LatitudeDegrees>44.28916046395898</LatitudeDegrees>
              <LongitudeDegrees>-81.59163339994848</LongitudeDegrees>
            </Position>
            <AltitudeMeters>177.0</AltitudeMeters>
            <DistanceMeters>960.8699951171875</DistanceMeters>
            <Extensions>
              <ns3:TPX>
                <ns3:Speed>0.9240000247955322</ns3:Speed>
              </ns3:TPX>
            </Extensions>
          </Trackpoint>
          <Trackpoint>
            <Time>2025-07-30T19:05:13.000Z</Time>
            <Position>
              <LatitudeDegrees>44.289163229987025</LatitudeDegrees>
              <LongitudeDegrees>-81.5916337352246</LongitudeDegrees>
            </Position>
            <AltitudeMeters>177.0</AltitudeMeters>
            <DistanceMeters>960.989990234375</DistanceMeters>
            <Extensions>
              <ns3:TPX>
                <ns3:Speed>0.9890000224113464</ns3:Speed>
              </ns3:TPX>
            </Extensions>
          </Trackpoint>
        </Track>
        <Extensions>
          <ns3:LX>
            <ns3:AvgSpeed>2.2070000171661377</ns3:AvgSpeed>
          </ns3:LX>
        </Extensions>
      </Lap>
      <Creator xsi:type="Device_t">
        <Name>vívoactive 4</Name>
        <UnitId>3432774097</UnitId>
        <ProductID>3225</ProductID>
        <Version>
          <VersionMajor>8</VersionMajor>
          <VersionMinor>30</VersionMinor>
          <BuildMajor>0</BuildMajor>
          <BuildMinor>0</BuildMinor>
        </Version>
      </Creator>
    </Activity>
  </Activities>
  <Author xsi:type="Application_t">
    <Name>Connect Api</Name>
    <Build>
      <Version>
        <VersionMajor>25</VersionMajor>
        <VersionMinor>15</VersionMinor>
        <BuildMajor>0</BuildMajor>
        <BuildMinor>0</BuildMinor>
      </Version>
    </Build>
    <LangID>en</LangID>
    <PartNumber>006-D2449-00</PartNumber>
  </Author>
</TrainingCenterDatabase>
